[
	{
		"id": "1",
		"zip": "10200",
		"province": "กรุงเทพมหานคร",
		"district": "พระนคร",
		"lat": 13.7560243,
		"lng": 100.4986793
	},
	{
		"id": "2",
		"zip": "10300",
		"province": "กรุงเทพมหานคร",
		"district": "ดุสิต",
		"lat": 13.7726943,
		"lng": 100.5099262
	},
	{
		"id": "3",
		"zip": "10530",
		"province": "กรุงเทพมหานคร",
		"district": "หนองจอก",
		"lat": 13.8559883,
		"lng": 100.8619689
	},
	{
		"id": "4",
		"zip": "10500",
		"province": "กรุงเทพมหานคร",
		"district": "บางรัก",
		"lat": 13.7262395,
		"lng": 100.5267991
	},
	{
		"id": "5",
		"zip": "10220",
		"province": "กรุงเทพมหานคร",
		"district": "บางเขน",
		"lat": 13.864387,
		"lng": 100.6146434
	},
	{
		"id": "6",
		"zip": "10240",
		"province": "กรุงเทพมหานคร",
		"district": "บางกะปิ",
		"lat": 13.7650282,
		"lng": 100.6473885
	},
	{
		"id": "7",
		"zip": "10330",
		"province": "กรุงเทพมหานคร",
		"district": "ปทุมวัน",
		"lat": 13.7401666,
		"lng": 100.5352367
	},
	{
		"id": "8",
		"zip": "10100",
		"province": "กรุงเทพมหานคร",
		"district": "ป้อมปราบศัตรูพ่าย",
		"lat": 13.7514954,
		"lng": 100.5108479
	},
	{
		"id": "9",
		"zip": "10260",
		"province": "กรุงเทพมหานคร",
		"district": "พระโขนง",
		"lat": 13.6910654,
		"lng": 100.614025
	},
	{
		"id": "10",
		"zip": "10510",
		"province": "กรุงเทพมหานคร",
		"district": "มีนบุรี",
		"lat": 13.8130488,
		"lng": 100.731339
	},
	{
		"id": "11",
		"zip": "10520",
		"province": "กรุงเทพมหานคร",
		"district": "ลาดกระบัง",
		"lat": 13.7277339,
		"lng": 100.7486314
	},
	{
		"id": "12",
		"zip": "10120",
		"province": "กรุงเทพมหานคร",
		"district": "ยานนาวา",
		"lat": 13.7171256,
		"lng": 100.5151327
	},
	{
		"id": "13",
		"zip": "10100",
		"province": "กรุงเทพมหานคร",
		"district": "สัมพันธวงศ์",
		"lat": 13.7380091,
		"lng": 100.5098502
	},
	{
		"id": "14",
		"zip": "10400",
		"province": "กรุงเทพมหานคร",
		"district": "พญาไท",
		"lat": 13.7568078,
		"lng": 100.5337793
	},
	{
		"id": "15",
		"zip": "10600",
		"province": "กรุงเทพมหานคร",
		"district": "ธนบุรี",
		"lat": 13.7164911,
		"lng": 100.4874338
	},
	{
		"id": "16",
		"zip": "10600",
		"province": "กรุงเทพมหานคร",
		"district": "บางกอกใหญ่",
		"lat": 13.7320727,
		"lng": 100.4814589
	},
	{
		"id": "17",
		"zip": "10310",
		"province": "กรุงเทพมหานคร",
		"district": "ห้วยขวาง",
		"lat": 13.7790391,
		"lng": 100.5739529
	},
	{
		"id": "18",
		"zip": "10600",
		"province": "กรุงเทพมหานคร",
		"district": "คลองสาน",
		"lat": 13.7279708,
		"lng": 100.5087902
	},
	{
		"id": "19",
		"zip": "10170",
		"province": "กรุงเทพมหานคร",
		"district": "ตลิ่งชัน",
		"lat": 13.7733179,
		"lng": 100.4284178
	},
	{
		"id": "20",
		"zip": "10700",
		"province": "กรุงเทพมหานคร",
		"district": "บางกอกน้อย",
		"lat": 13.7604091,
		"lng": 100.471573
	},
	{
		"id": "21",
		"zip": "10150",
		"province": "กรุงเทพมหานคร",
		"district": "บางขุนเทียน",
		"lat": 13.5995816,
		"lng": 100.4331316
	},
	{
		"id": "22",
		"zip": "10160",
		"province": "กรุงเทพมหานคร",
		"district": "ภาษีเจริญ",
		"lat": 13.7207491,
		"lng": 100.4577015
	},
	{
		"id": "23",
		"zip": "10160",
		"province": "กรุงเทพมหานคร",
		"district": "หนองแขม",
		"lat": 13.7207491,
		"lng": 100.4577015
	},
	{
		"id": "24",
		"zip": "10140",
		"province": "กรุงเทพมหานคร",
		"district": "ราษฎร์บูรณะ",
		"lat": 13.6812411,
		"lng": 100.5037003
	},
	{
		"id": "25",
		"zip": "10700",
		"province": "กรุงเทพมหานคร",
		"district": "บางพลัด",
		"lat": 13.7919952,
		"lng": 100.5004335
	},
	{
		"id": "26",
		"zip": "10400",
		"province": "กรุงเทพมหานคร",
		"district": "ดินแดง",
		"lat": 13.7630761,
		"lng": 100.5433408
	},
	{
		"id": "27",
		"zip": "10240",
		"province": "กรุงเทพมหานคร",
		"district": "บึงกุ่ม",
		"lat": 13.8038957,
		"lng": 100.647812
	},
	{
		"id": "28",
		"zip": "10120",
		"province": "กรุงเทพมหานคร",
		"district": "สาทร",
		"lat": 13.6937454,
		"lng": 100.510007
	},
	{
		"id": "29",
		"zip": "10800",
		"province": "กรุงเทพมหานคร",
		"district": "บางซื่อ",
		"lat": 13.803181,
		"lng": 100.5393292
	},
	{
		"id": "30",
		"zip": "10900",
		"province": "กรุงเทพมหานคร",
		"district": "จตุจักร",
		"lat": 13.8037421,
		"lng": 100.5546027
	},
	{
		"id": "31",
		"zip": "10120",
		"province": "กรุงเทพมหานคร",
		"district": "บางคอแหลม",
		"lat": 13.6954096,
		"lng": 100.5127381
	},
	{
		"id": "32",
		"zip": "10250",
		"province": "กรุงเทพมหานคร",
		"district": "ประเวศ",
		"lat": 13.693295,
		"lng": 100.645971
	},
	{
		"id": "33",
		"zip": "10110",
		"province": "กรุงเทพมหานคร",
		"district": "คลองเตย",
		"lat": 13.7225158,
		"lng": 100.5540678
	},
	{
		"id": "34",
		"zip": "10250",
		"province": "กรุงเทพมหานคร",
		"district": "สวนหลวง",
		"lat": 13.7194781,
		"lng": 100.6129534
	},
	{
		"id": "35",
		"zip": "10150",
		"province": "กรุงเทพมหานคร",
		"district": "จอมทอง",
		"lat": 13.6955177,
		"lng": 100.4453018
	},
	{
		"id": "36",
		"zip": "10210",
		"province": "กรุงเทพมหานคร",
		"district": "ดอนเมือง",
		"lat": 13.9245384,
		"lng": 100.6038701
	},
	{
		"id": "37",
		"zip": "10400",
		"province": "กรุงเทพมหานคร",
		"district": "ราชเทวี",
		"lat": 13.7516381,
		"lng": 100.5315687
	},
	{
		"id": "38",
		"zip": "10230",
		"province": "กรุงเทพมหานคร",
		"district": "ลาดพร้าว",
		"lat": 13.8289265,
		"lng": 100.5943624
	},
	{
		"id": "39",
		"zip": "10110",
		"province": "กรุงเทพมหานคร",
		"district": "วัฒนา",
		"lat": 13.7398583,
		"lng": 100.5594458
	},
	{
		"id": "40",
		"zip": "10160",
		"province": "กรุงเทพมหานคร",
		"district": "บางแค",
		"lat": 13.6988894,
		"lng": 100.4210604
	},
	{
		"id": "41",
		"zip": "10210",
		"province": "กรุงเทพมหานคร",
		"district": "หลักสี่",
		"lat": 13.8841935,
		"lng": 100.5774799
	},
	{
		"id": "42",
		"zip": "10220",
		"province": "กรุงเทพมหานคร",
		"district": "สายไหม",
		"lat": 13.9213159,
		"lng": 100.683202
	},
	{
		"id": "43",
		"zip": "10230",
		"province": "กรุงเทพมหานคร",
		"district": "คันนายาว",
		"lat": 13.793899,
		"lng": 100.692192
	},
	{
		"id": "44",
		"zip": "10240",
		"province": "กรุงเทพมหานคร",
		"district": "สะพานสูง",
		"lat": 13.7676357,
		"lng": 100.6928804
	},
	{
		"id": "45",
		"zip": "10310",
		"province": "กรุงเทพมหานคร",
		"district": "วังทองหลาง",
		"lat": 13.7802488,
		"lng": 100.5999507
	},
	{
		"id": "46",
		"zip": "10510",
		"province": "กรุงเทพมหานคร",
		"district": "คลองสามวา",
		"lat": 13.8381942,
		"lng": 100.7295908
	},
	{
		"id": "47",
		"zip": "10260",
		"province": "กรุงเทพมหานคร",
		"district": "บางนา",
		"lat": 13.6682906,
		"lng": 100.6048034
	},
	{
		"id": "48",
		"zip": "10170",
		"province": "กรุงเทพมหานคร",
		"district": "ทวีวัฒนา",
		"lat": 13.7648929,
		"lng": 100.3343991
	},
	{
		"id": "49",
		"zip": "10140",
		"province": "กรุงเทพมหานคร",
		"district": "ทุ่งครุ",
		"lat": 13.6191708,
		"lng": 100.5103542
	},
	{
		"id": "50",
		"zip": "10150",
		"province": "กรุงเทพมหานคร",
		"district": "บางบอน",
		"lat": 13.6670215,
		"lng": 100.4036861
	},
	{
		"id": "51",
		"zip": "10270",
		"province": "สมุทรปราการ",
		"district": "เมืองสมุทรปราการ",
		"lat": 13.6213747,
		"lng": 100.5992148
	},
	{
		"id": "52",
		"zip": "10280",
		"province": "สมุทรปราการ",
		"district": "เมืองสมุทรปราการ",
		"lat": 13.5748422,
		"lng": 100.646241
	},
	{
		"id": "53",
		"zip": "10560",
		"province": "สมุทรปราการ",
		"district": "บางบ่อ",
		"lat": 13.6058169,
		"lng": 100.8677256
	},
	{
		"id": "54",
		"zip": "10550",
		"province": "สมุทรปราการ",
		"district": "บางบ่อ",
		"lat": 13.5046427,
		"lng": 100.8338593
	},
	{
		"id": "55",
		"zip": "10540",
		"province": "สมุทรปราการ",
		"district": "บางพลี",
		"lat": 13.6299818,
		"lng": 100.6400175
	},
	{
		"id": "56",
		"zip": "10130",
		"province": "สมุทรปราการ",
		"district": "พระประแดง",
		"lat": 13.6532561,
		"lng": 100.5633676
	},
	{
		"id": "57",
		"zip": "10290",
		"province": "สมุทรปราการ",
		"district": "พระสมุทรเจดีย์",
		"lat": 13.5737973,
		"lng": 100.5521142
	},
	{
		"id": "58",
		"zip": "10540",
		"province": "สมุทรปราการ",
		"district": "บางเสาธง",
		"lat": 13.6132538,
		"lng": 100.8282161
	},
	{
		"id": "59",
		"zip": "11000",
		"province": "นนทบุรี",
		"district": "เมืองนนทบุรี",
		"lat": 13.8658492,
		"lng": 100.4941285
	},
	{
		"id": "60",
		"zip": "11130",
		"province": "นนทบุรี",
		"district": "บางกรวย",
		"lat": 13.8068972,
		"lng": 100.4624937
	},
	{
		"id": "61",
		"zip": "11140",
		"province": "นนทบุรี",
		"district": "บางใหญ่",
		"lat": 13.8445656,
		"lng": 100.3806992
	},
	{
		"id": "62",
		"zip": "11110",
		"province": "นนทบุรี",
		"district": "บางบัวทอง",
		"lat": 13.9446573,
		"lng": 100.4308137
	},
	{
		"id": "63",
		"zip": "11150",
		"province": "นนทบุรี",
		"district": "ไทรน้อย",
		"lat": 13.9832139,
		"lng": 100.3385624
	},
	{
		"id": "64",
		"zip": "11120",
		"province": "นนทบุรี",
		"district": "ปากเกร็ด",
		"lat": 13.9154022,
		"lng": 100.4948197
	},
	{
		"id": "65",
		"zip": "12000",
		"province": "ปทุมธานี",
		"district": "เมืองปทุมธานี",
		"lat": 13.9854373,
		"lng": 100.5521142
	},
	{
		"id": "66",
		"zip": "12120",
		"province": "ปทุมธานี",
		"district": "คลองหลวง",
		"lat": 14.0044429,
		"lng": 100.6179542
	},
	{
		"id": "67",
		"zip": "12130",
		"province": "ปทุมธานี",
		"district": "ธัญบุรี",
		"lat": 13.970533,
		"lng": 100.6309169
	},
	{
		"id": "68",
		"zip": "12110",
		"province": "ปทุมธานี",
		"district": "ธัญบุรี",
		"lat": 14.0542117,
		"lng": 100.8273123
	},
	{
		"id": "69",
		"zip": "12170",
		"province": "ปทุมธานี",
		"district": "หนองเสือ",
		"lat": 14.1785783,
		"lng": 100.8451467
	},
	{
		"id": "70",
		"zip": "12140",
		"province": "ปทุมธานี",
		"district": "ลาดหลุมแก้ว",
		"lat": 14.0032361,
		"lng": 100.4059456
	},
	{
		"id": "71",
		"zip": "12130",
		"province": "ปทุมธานี",
		"district": "ลำลูกกา",
		"lat": 13.970533,
		"lng": 100.6309169
	},
	{
		"id": "72",
		"zip": "12150",
		"province": "ปทุมธานี",
		"district": "ลำลูกกา",
		"lat": 13.9290033,
		"lng": 100.7235473
	},
	{
		"id": "73",
		"zip": "12160",
		"province": "ปทุมธานี",
		"district": "สามโคก",
		"lat": 14.0758882,
		"lng": 100.5208569
	},
	{
		"id": "74",
		"zip": "13000",
		"province": "พระนครศรีอยุธยา",
		"district": "พระนครศรีอยุธยา",
		"lat": 14.3523939,
		"lng": 100.5521142
	},
	{
		"id": "75",
		"zip": "13130",
		"province": "พระนครศรีอยุธยา",
		"district": "ท่าเรือ",
		"lat": 14.5599975,
		"lng": 100.7238776
	},
	{
		"id": "76",
		"zip": "13260",
		"province": "พระนครศรีอยุธยา",
		"district": "นครหลวง",
		"lat": 14.4759803,
		"lng": 100.6241192
	},
	{
		"id": "77",
		"zip": "13190",
		"province": "พระนครศรีอยุธยา",
		"district": "บางไทร",
		"lat": 14.2186448,
		"lng": 100.4621366
	},
	{
		"id": "78",
		"zip": "13290",
		"province": "พระนครศรีอยุธยา",
		"district": "บางไทร",
		"lat": 14.1348926,
		"lng": 100.5408622
	},
	{
		"id": "79",
		"zip": "13250",
		"province": "พระนครศรีอยุธยา",
		"district": "บางบาล",
		"lat": 14.4023507,
		"lng": 100.4621366
	},
	{
		"id": "80",
		"zip": "13160",
		"province": "พระนครศรีอยุธยา",
		"district": "บางปะอิน",
		"lat": 14.2121868,
		"lng": 100.6045199
	},
	{
		"id": "81",
		"zip": "13180",
		"province": "พระนครศรีอยุธยา",
		"district": "บางปะอิน",
		"lat": 14.1558336,
		"lng": 100.5858786
	},
	{
		"id": "82",
		"zip": "13170",
		"province": "พระนครศรีอยุธยา",
		"district": "บางปะอิน",
		"lat": 14.2121868,
		"lng": 100.6045199
	},
	{
		"id": "83",
		"zip": "13220",
		"province": "พระนครศรีอยุธยา",
		"district": "บางปะหัน",
		"lat": 14.4792629,
		"lng": 100.5408622
	},
	{
		"id": "84",
		"zip": "13120",
		"province": "พระนครศรีอยุธยา",
		"district": "ผักไห่",
		"lat": 14.4403155,
		"lng": 100.383479
	},
	{
		"id": "85",
		"zip": "13280",
		"province": "พระนครศรีอยุธยา",
		"district": "ผักไห่",
		"lat": 14.4562626,
		"lng": 100.2824483
	},
	{
		"id": "86",
		"zip": "13140",
		"province": "พระนครศรีอยุธยา",
		"district": "ภาชี",
		"lat": 14.4477589,
		"lng": 100.724572
	},
	{
		"id": "87",
		"zip": "13230",
		"province": "พระนครศรีอยุธยา",
		"district": "ลาดบัวหลวง",
		"lat": 14.1766793,
		"lng": 100.3722477
	},
	{
		"id": "88",
		"zip": "13170",
		"province": "พระนครศรีอยุธยา",
		"district": "วังน้อย",
		"lat": 14.2262517,
		"lng": 100.7272992
	},
	{
		"id": "89",
		"zip": "13110",
		"province": "พระนครศรีอยุธยา",
		"district": "เสนา",
		"lat": 14.3144265,
		"lng": 100.3722477
	},
	{
		"id": "90",
		"zip": "13270",
		"province": "พระนครศรีอยุธยา",
		"district": "บางซ้าย",
		"lat": 14.371666,
		"lng": 100.314818
	},
	{
		"id": "91",
		"zip": "13210",
		"province": "พระนครศรีอยุธยา",
		"district": "อุทัย",
		"lat": 14.3618606,
		"lng": 100.6685901
	},
	{
		"id": "92",
		"zip": "13150",
		"province": "พระนครศรีอยุธยา",
		"district": "มหาราช",
		"lat": 14.5822246,
		"lng": 100.5521142
	},
	{
		"id": "93",
		"zip": "13240",
		"province": "พระนครศรีอยุธยา",
		"district": "บ้านแพรก",
		"lat": 14.6456948,
		"lng": 100.5770655
	},
	{
		"id": "94",
		"zip": "14000",
		"province": "อ่างทอง",
		"district": "เมืองอ่างทอง",
		"lat": 14.5895914,
		"lng": 100.4550554
	},
	{
		"id": "95",
		"zip": "14140",
		"province": "อ่างทอง",
		"district": "ไชโย",
		"lat": 14.7147825,
		"lng": 100.4358163
	},
	{
		"id": "96",
		"zip": "14130",
		"province": "อ่างทอง",
		"district": "ป่าโมก",
		"lat": 14.4980456,
		"lng": 100.4424658
	},
	{
		"id": "97",
		"zip": "14120",
		"province": "อ่างทอง",
		"district": "โพธิ์ทอง",
		"lat": 14.6823992,
		"lng": 100.3722477
	},
	{
		"id": "98",
		"zip": "14150",
		"province": "อ่างทอง",
		"district": "แสวงหา",
		"lat": 14.7600313,
		"lng": 100.310501
	},
	{
		"id": "99",
		"zip": "14110",
		"province": "อ่างทอง",
		"district": "วิเศษชัยชาญ",
		"lat": 14.5462949,
		"lng": 100.3273368
	},
	{
		"id": "100",
		"zip": "14160",
		"province": "อ่างทอง",
		"district": "สามโก้",
		"lat": 14.6013032,
		"lng": 100.2544044
	},
	{
		"id": "101",
		"zip": "15000",
		"province": "ลพบุรี",
		"district": "เมืองลพบุรี",
		"lat": 14.7996306,
		"lng": 100.6343005
	},
	{
		"id": "102",
		"zip": "13240",
		"province": "ลพบุรี",
		"district": "เมืองลพบุรี",
		"lat": 14.8034968,
		"lng": 100.6101263
	},
	{
		"id": "103",
		"zip": "15160",
		"province": "ลพบุรี",
		"district": "เมืองลพบุรี",
		"lat": 14.8982903,
		"lng": 100.6872457
	},
	{
		"id": "104",
		"zip": "15210",
		"province": "ลพบุรี",
		"district": "เมืองลพบุรี",
		"lat": 14.845847,
		"lng": 100.8225732
	},
	{
		"id": "105",
		"zip": "15140",
		"province": "ลพบุรี",
		"district": "พัฒนานิคม",
		"lat": 14.8889139,
		"lng": 100.9668767
	},
	{
		"id": "106",
		"zip": "15220",
		"province": "ลพบุรี",
		"district": "พัฒนานิคม",
		"lat": 14.7955207,
		"lng": 100.9128995
	},
	{
		"id": "107",
		"zip": "18220",
		"province": "ลพบุรี",
		"district": "พัฒนานิคม",
		"lat": 14.9593421,
		"lng": 101.1734451
	},
	{
		"id": "108",
		"zip": "15120",
		"province": "ลพบุรี",
		"district": "โคกสำโรง",
		"lat": 15.067666,
		"lng": 100.7217139
	},
	{
		"id": "109",
		"zip": "15130",
		"province": "ลพบุรี",
		"district": "ชัยบาดาล",
		"lat": 15.2074763,
		"lng": 101.136733
	},
	{
		"id": "110",
		"zip": "15230",
		"province": "ลพบุรี",
		"district": "ชัยบาดาล",
		"lat": 15.0608556,
		"lng": 101.1390878
	},
	{
		"id": "111",
		"zip": "15190",
		"province": "ลพบุรี",
		"district": "ชัยบาดาล",
		"lat": 15.3854608,
		"lng": 101.3317605
	},
	{
		"id": "112",
		"zip": "15150",
		"province": "ลพบุรี",
		"district": "ท่าวุ้ง",
		"lat": 14.8144809,
		"lng": 100.5071143
	},
	{
		"id": "113",
		"zip": "15180",
		"province": "ลพบุรี",
		"district": "ท่าวุ้ง",
		"lat": 14.81464,
		"lng": 100.5104749
	},
	{
		"id": "114",
		"zip": "15110",
		"province": "ลพบุรี",
		"district": "บ้านหมี่",
		"lat": 15.089097,
		"lng": 100.5521142
	},
	{
		"id": "115",
		"zip": "15180",
		"province": "ลพบุรี",
		"district": "บ้านหมี่",
		"lat": 14.9806968,
		"lng": 100.4691229
	},
	{
		"id": "116",
		"zip": "15230",
		"province": "ลพบุรี",
		"district": "ท่าหลวง",
		"lat": 15.071815,
		"lng": 101.1504111
	},
	{
		"id": "117",
		"zip": "15240",
		"province": "ลพบุรี",
		"district": "สระโบสถ์",
		"lat": 15.2245864,
		"lng": 100.8564355
	},
	{
		"id": "118",
		"zip": "15250",
		"province": "ลพบุรี",
		"district": "โคกเจริญ",
		"lat": 15.3944421,
		"lng": 100.7754207
	},
	{
		"id": "119",
		"zip": "15190",
		"province": "ลพบุรี",
		"district": "ลำสนธิ",
		"lat": 15.3854608,
		"lng": 101.3317605
	},
	{
		"id": "120",
		"zip": "15130",
		"province": "ลพบุรี",
		"district": "ลำสนธิ",
		"lat": 15.3842964,
		"lng": 101.3544525
	},
	{
		"id": "121",
		"zip": "15170",
		"province": "ลพบุรี",
		"district": "หนองม่วง",
		"lat": 15.2256001,
		"lng": 100.6600016
	},
	{
		"id": "122",
		"zip": "16000",
		"province": "สิงห์บุรี",
		"district": "เมืองสิงห์บุรี",
		"lat": 14.8997786,
		"lng": 100.4059456
	},
	{
		"id": "123",
		"zip": "16130",
		"province": "สิงห์บุรี",
		"district": "บางระจัน",
		"lat": 14.9169141,
		"lng": 100.2824483
	},
	{
		"id": "124",
		"zip": "16150",
		"province": "สิงห์บุรี",
		"district": "ค่ายบางระจัน",
		"lat": 14.8126417,
		"lng": 100.2936683
	},
	{
		"id": "125",
		"zip": "16120",
		"province": "สิงห์บุรี",
		"district": "พรหมบุรี",
		"lat": 14.7824909,
		"lng": 100.4508956
	},
	{
		"id": "126",
		"zip": "16160",
		"province": "สิงห์บุรี",
		"district": "พรหมบุรี",
		"lat": 14.8223351,
		"lng": 100.4394358
	},
	{
		"id": "127",
		"zip": "16140",
		"province": "สิงห์บุรี",
		"district": "ท่าช้าง",
		"lat": 14.7794841,
		"lng": 100.3891641
	},
	{
		"id": "128",
		"zip": "16110",
		"province": "สิงห์บุรี",
		"district": "อินทร์บุรี",
		"lat": 15.0011448,
		"lng": 100.3329494
	},
	{
		"id": "129",
		"zip": "17000",
		"province": "ชัยนาท",
		"district": "เมืองชัยนาท",
		"lat": 15.1252422,
		"lng": 100.1423172
	},
	{
		"id": "130",
		"zip": "17110",
		"province": "ชัยนาท",
		"district": "มโนรมย์",
		"lat": 15.3388555,
		"lng": 100.1479182
	},
	{
		"id": "131",
		"zip": "17170",
		"province": "ชัยนาท",
		"district": "มโนรมย์",
		"lat": 15.3015956,
		"lng": 100.2039477
	},
	{
		"id": "132",
		"zip": "17120",
		"province": "ชัยนาท",
		"district": "วัดสิงห์",
		"lat": 15.2617924,
		"lng": 100.0431355
	},
	{
		"id": "133",
		"zip": "17150",
		"province": "ชัยนาท",
		"district": "สรรพยา",
		"lat": 15.1327349,
		"lng": 100.2319757
	},
	{
		"id": "134",
		"zip": "17140",
		"province": "ชัยนาท",
		"district": "สรรคบุรี",
		"lat": 15.0152766,
		"lng": 100.1479182
	},
	{
		"id": "135",
		"zip": "17130",
		"province": "ชัยนาท",
		"district": "หันคา",
		"lat": 15.0101985,
		"lng": 100.0024084
	},
	{
		"id": "136",
		"zip": "17160",
		"province": "ชัยนาท",
		"district": "หันคา",
		"lat": 15.1136716,
		"lng": 100.0135929
	},
	{
		"id": "137",
		"zip": "17120",
		"province": "ชัยนาท",
		"district": "หนองมะโมง",
		"lat": 15.2049356,
		"lng": 99.7790227
	},
	{
		"id": "138",
		"zip": "17130",
		"province": "ชัยนาท",
		"district": "เนินขาม",
		"lat": 14.9679283,
		"lng": 99.9129845
	},
	{
		"id": "139",
		"zip": "18000",
		"province": "สระบุรี",
		"district": "เมืองสระบุรี",
		"lat": 14.5288823,
		"lng": 100.9101032
	},
	{
		"id": "140",
		"zip": "18110",
		"province": "สระบุรี",
		"district": "แก่งคอย",
		"lat": 14.5801157,
		"lng": 101.003522
	},
	{
		"id": "141",
		"zip": "18260",
		"province": "สระบุรี",
		"district": "แก่งคอย",
		"lat": 14.6029483,
		"lng": 101.0938079
	},
	{
		"id": "142",
		"zip": "18140",
		"province": "สระบุรี",
		"district": "หนองแค",
		"lat": 14.3380654,
		"lng": 100.8677256
	},
	{
		"id": "143",
		"zip": "18250",
		"province": "สระบุรี",
		"district": "หนองแค",
		"lat": 14.4155173,
		"lng": 100.8056466
	},
	{
		"id": "144",
		"zip": "18230",
		"province": "สระบุรี",
		"district": "หนองแค",
		"lat": 14.4168204,
		"lng": 100.901604
	},
	{
		"id": "145",
		"zip": "18150",
		"province": "สระบุรี",
		"district": "วิหารแดง",
		"lat": 14.3153708,
		"lng": 100.9863525
	},
	{
		"id": "146",
		"zip": "18170",
		"province": "สระบุรี",
		"district": "หนองแซง",
		"lat": 14.4898955,
		"lng": 100.8112885
	},
	{
		"id": "147",
		"zip": "18130",
		"province": "สระบุรี",
		"district": "บ้านหมอ",
		"lat": 14.614994,
		"lng": 100.7154228
	},
	{
		"id": "148",
		"zip": "18270",
		"province": "สระบุรี",
		"district": "บ้านหมอ",
		"lat": 14.6006738,
		"lng": 100.800698
	},
	{
		"id": "149",
		"zip": "18210",
		"province": "สระบุรี",
		"district": "ดอนพุด",
		"lat": 14.5961403,
		"lng": 100.6252859
	},
	{
		"id": "150",
		"zip": "18190",
		"province": "สระบุรี",
		"district": "หนองโดน",
		"lat": 14.6790319,
		"lng": 100.6985155
	},
	{
		"id": "151",
		"zip": "18120",
		"province": "สระบุรี",
		"district": "พระพุทธบาท",
		"lat": 14.7268634,
		"lng": 100.7830826
	},
	{
		"id": "152",
		"zip": "18160",
		"province": "สระบุรี",
		"district": "เสาไห้",
		"lat": 14.5367501,
		"lng": 100.8536132
	},
	{
		"id": "153",
		"zip": "18180",
		"province": "สระบุรี",
		"district": "มวกเหล็ก",
		"lat": 14.4608673,
		"lng": 101.1843887
	},
	{
		"id": "154",
		"zip": "30130",
		"province": "สระบุรี",
		"district": "มวกเหล็ก",
		"lat": 14.6359078,
		"lng": 101.1927802
	},
	{
		"id": "155",
		"zip": "18220",
		"province": "สระบุรี",
		"district": "มวกเหล็ก",
		"lat": 14.6926819,
		"lng": 101.1390878
	},
	{
		"id": "156",
		"zip": "18220",
		"province": "สระบุรี",
		"district": "วังม่วง",
		"lat": 14.874441,
		"lng": 101.1843887
	},
	{
		"id": "157",
		"zip": "18000",
		"province": "สระบุรี",
		"district": "เฉลิมพระเกียรติ",
		"lat": 14.5224885,
		"lng": 100.9139619
	},
	{
		"id": "158",
		"zip": "18240",
		"province": "สระบุรี",
		"district": "เฉลิมพระเกียรติ",
		"lat": 14.6925337,
		"lng": 100.901604
	},
	{
		"id": "159",
		"zip": "20000",
		"province": "ชลบุรี",
		"district": "เมืองชลบุรี",
		"lat": 13.3909924,
		"lng": 101.0122861
	},
	{
		"id": "160",
		"zip": "20130",
		"province": "ชลบุรี",
		"district": "เมืองชลบุรี",
		"lat": 13.2665109,
		"lng": 100.941144
	},
	{
		"id": "161",
		"zip": "20170",
		"province": "ชลบุรี",
		"district": "บ้านบึง",
		"lat": 13.3104674,
		"lng": 101.1257083
	},
	{
		"id": "162",
		"zip": "20220",
		"province": "ชลบุรี",
		"district": "บ้านบึง",
		"lat": 13.2274744,
		"lng": 101.1843887
	},
	{
		"id": "163",
		"zip": "20190",
		"province": "ชลบุรี",
		"district": "หนองใหญ่",
		"lat": 12.951029,
		"lng": 100.9111545
	},
	{
		"id": "164",
		"zip": "20150",
		"province": "ชลบุรี",
		"district": "บางละมุง",
		"lat": 12.9173831,
		"lng": 101.0033112
	},
	{
		"id": "165",
		"zip": "20160",
		"province": "ชลบุรี",
		"district": "พานทอง",
		"lat": 13.4743811,
		"lng": 101.0878684
	},
	{
		"id": "166",
		"zip": "20140",
		"province": "ชลบุรี",
		"district": "พนัสนิคม",
		"lat": 13.4522814,
		"lng": 101.1815568
	},
	{
		"id": "167",
		"zip": "20110",
		"province": "ชลบุรี",
		"district": "ศรีราชา",
		"lat": 13.1641308,
		"lng": 100.9216588
	},
	{
		"id": "168",
		"zip": "20230",
		"province": "ชลบุรี",
		"district": "ศรีราชา",
		"lat": 13.0799039,
		"lng": 101.0163228
	},
	{
		"id": "169",
		"zip": "20120",
		"province": "ชลบุรี",
		"district": "เกาะสีชัง",
		"lat": 13.1499153,
		"lng": 100.8084675
	},
	{
		"id": "170",
		"zip": "20180",
		"province": "ชลบุรี",
		"district": "สัตหีบ",
		"lat": 12.6836578,
		"lng": 100.901604
	},
	{
		"id": "171",
		"zip": "20250",
		"province": "ชลบุรี",
		"district": "สัตหีบ",
		"lat": 12.7733331,
		"lng": 100.9241963
	},
	{
		"id": "172",
		"zip": "20270",
		"province": "ชลบุรี",
		"district": "บ่อทอง",
		"lat": 13.1838889,
		"lng": 101.4908333
	},
	{
		"id": "173",
		"zip": "20240",
		"province": "ชลบุรี",
		"district": "เกาะจันทร์",
		"lat": 13.3912957,
		"lng": 101.3199255
	},
	{
		"id": "174",
		"zip": "21000",
		"province": "ระยอง",
		"district": "เมืองระยอง",
		"lat": 12.6754092,
		"lng": 101.3658004
	},
	{
		"id": "175",
		"zip": "21160",
		"province": "ระยอง",
		"district": "เมืองระยอง",
		"lat": 12.6606737,
		"lng": 101.4452717
	},
	{
		"id": "176",
		"zip": "21100",
		"province": "ระยอง",
		"district": "เมืองระยอง",
		"lat": 12.761952,
		"lng": 101.4566299
	},
	{
		"id": "177",
		"zip": "21150",
		"province": "ระยอง",
		"district": "เมืองระยอง",
		"lat": 12.7050978,
		"lng": 101.171274
	},
	{
		"id": "178",
		"zip": "21130",
		"province": "ระยอง",
		"district": "บ้านฉาง",
		"lat": 12.7341552,
		"lng": 101.048549
	},
	{
		"id": "179",
		"zip": "21110",
		"province": "ระยอง",
		"district": "แกลง",
		"lat": 12.7797397,
		"lng": 101.6490959
	},
	{
		"id": "180",
		"zip": "21190",
		"province": "ระยอง",
		"district": "แกลง",
		"lat": 12.6783299,
		"lng": 101.5589105
	},
	{
		"id": "181",
		"zip": "22160",
		"province": "ระยอง",
		"district": "แกลง",
		"lat": 12.7797397,
		"lng": 101.6490959
	},
	{
		"id": "182",
		"zip": "21170",
		"province": "ระยอง",
		"district": "แกลง",
		"lat": 12.7208265,
		"lng": 101.7149678
	},
	{
		"id": "183",
		"zip": "21210",
		"province": "ระยอง",
		"district": "วังจันทร์",
		"lat": 12.9310911,
		"lng": 101.5198329
	},
	{
		"id": "184",
		"zip": "21120",
		"province": "ระยอง",
		"district": "บ้านค่าย",
		"lat": 12.7855768,
		"lng": 101.3034028
	},
	{
		"id": "185",
		"zip": "21140",
		"province": "ระยอง",
		"district": "ปลวกแดง",
		"lat": 12.9707642,
		"lng": 101.2163774
	},
	{
		"id": "186",
		"zip": "21110",
		"province": "ระยอง",
		"district": "เขาชะเมา",
		"lat": 12.96,
		"lng": 101.7383333
	},
	{
		"id": "187",
		"zip": "21180",
		"province": "ระยอง",
		"district": "นิคมพัฒนา",
		"lat": 12.8308102,
		"lng": 101.1730615
	},
	{
		"id": "188",
		"zip": "22000",
		"province": "จันทบุรี",
		"district": "เมืองจันทบุรี",
		"lat": 12.6112485,
		"lng": 102.1037806
	},
	{
		"id": "189",
		"zip": "22110",
		"province": "จันทบุรี",
		"district": "ขลุง",
		"lat": 12.4537943,
		"lng": 102.2290442
	},
	{
		"id": "190",
		"zip": "22150",
		"province": "จันทบุรี",
		"district": "ขลุง",
		"lat": 12.746324,
		"lng": 102.3005803
	},
	{
		"id": "191",
		"zip": "22120",
		"province": "จันทบุรี",
		"district": "ท่าใหม่",
		"lat": 12.647214,
		"lng": 102.0032957
	},
	{
		"id": "192",
		"zip": "22170",
		"province": "จันทบุรี",
		"district": "ท่าใหม่",
		"lat": 12.7802959,
		"lng": 101.9723228
	},
	{
		"id": "193",
		"zip": "22140",
		"province": "จันทบุรี",
		"district": "โป่งน้ำร้อน",
		"lat": 12.9628371,
		"lng": 102.4934904
	},
	{
		"id": "194",
		"zip": "22150",
		"province": "จันทบุรี",
		"district": "มะขาม",
		"lat": 12.6575,
		"lng": 102.1969444
	},
	{
		"id": "195",
		"zip": "22130",
		"province": "จันทบุรี",
		"district": "แหลมสิงห์",
		"lat": 12.4680818,
		"lng": 102.100396
	},
	{
		"id": "196",
		"zip": "22190",
		"province": "จันทบุรี",
		"district": "แหลมสิงห์",
		"lat": 12.4680818,
		"lng": 102.100396
	},
	{
		"id": "197",
		"zip": "22120",
		"province": "จันทบุรี",
		"district": "แหลมสิงห์",
		"lat": 12.4797222,
		"lng": 102.0516667
	},
	{
		"id": "198",
		"zip": "22180",
		"province": "จันทบุรี",
		"district": "สอยดาว",
		"lat": 13.06,
		"lng": 102.1555556
	},
	{
		"id": "199",
		"zip": "22160",
		"province": "จันทบุรี",
		"district": "แก่งหางแมว",
		"lat": 12.9678205,
		"lng": 101.9119871
	},
	{
		"id": "200",
		"zip": "22160",
		"province": "จันทบุรี",
		"district": "นายายอาม",
		"lat": 12.7781601,
		"lng": 101.8549588
	},
	{
		"id": "201",
		"zip": "22170",
		"province": "จันทบุรี",
		"district": "นายายอาม",
		"lat": 12.7781601,
		"lng": 101.8549588
	},
	{
		"id": "202",
		"zip": "22210",
		"province": "จันทบุรี",
		"district": "เขาคิชฌกูฏ",
		"lat": 12.8497222,
		"lng": 102.1697222
	},
	{
		"id": "203",
		"zip": "23000",
		"province": "ตราด",
		"district": "เมืองตราด",
		"lat": 12.2427059,
		"lng": 102.5174726
	},
	{
		"id": "204",
		"zip": "23110",
		"province": "ตราด",
		"district": "คลองใหญ่",
		"lat": 11.7786113,
		"lng": 102.8882438
	},
	{
		"id": "205",
		"zip": "23130",
		"province": "ตราด",
		"district": "เขาสมิง",
		"lat": 12.345,
		"lng": 102.4536111
	},
	{
		"id": "206",
		"zip": "23150",
		"province": "ตราด",
		"district": "เขาสมิง",
		"lat": 12.3227921,
		"lng": 102.4495221
	},
	{
		"id": "207",
		"zip": "23140",
		"province": "ตราด",
		"district": "บ่อไร่",
		"lat": 12.5766509,
		"lng": 102.5527505
	},
	{
		"id": "208",
		"zip": "23120",
		"province": "ตราด",
		"district": "แหลมงอบ",
		"lat": 12.1783502,
		"lng": 102.3996973
	},
	{
		"id": "209",
		"zip": "23000",
		"province": "ตราด",
		"district": "เกาะกูด",
		"lat": 11.6680759,
		"lng": 102.5642261
	},
	{
		"id": "210",
		"zip": "23170",
		"province": "ตราด",
		"district": "เกาะช้าง",
		"lat": 12.0479159,
		"lng": 102.3234816
	},
	{
		"id": "211",
		"zip": "24000",
		"province": "ฉะเชิงเทรา",
		"district": "เมืองฉะเชิงเทรา",
		"lat": 13.6592703,
		"lng": 101.0717963
	},
	{
		"id": "212",
		"zip": "24110",
		"province": "ฉะเชิงเทรา",
		"district": "บางคล้า",
		"lat": 13.723331,
		"lng": 101.2066116
	},
	{
		"id": "213",
		"zip": "24150",
		"province": "ฉะเชิงเทรา",
		"district": "บางน้ำเปรี้ยว",
		"lat": 13.871792,
		"lng": 101.048549
	},
	{
		"id": "214",
		"zip": "24170",
		"province": "ฉะเชิงเทรา",
		"district": "บางน้ำเปรี้ยว",
		"lat": 13.9216171,
		"lng": 100.9580947
	},
	{
		"id": "215",
		"zip": "24000",
		"province": "ฉะเชิงเทรา",
		"district": "บางน้ำเปรี้ยว",
		"lat": 13.7456051,
		"lng": 101.0793925
	},
	{
		"id": "216",
		"zip": "24130",
		"province": "ฉะเชิงเทรา",
		"district": "บางปะกง",
		"lat": 13.4987164,
		"lng": 100.9693968
	},
	{
		"id": "217",
		"zip": "24180",
		"province": "ฉะเชิงเทรา",
		"district": "บางปะกง",
		"lat": 13.5681165,
		"lng": 100.9467939
	},
	{
		"id": "218",
		"zip": "24140",
		"province": "ฉะเชิงเทรา",
		"district": "บ้านโพธิ์",
		"lat": 13.5957905,
		"lng": 101.0938079
	},
	{
		"id": "219",
		"zip": "24120",
		"province": "ฉะเชิงเทรา",
		"district": "พนมสารคาม",
		"lat": 13.7496342,
		"lng": 101.3410688
	},
	{
		"id": "220",
		"zip": "24120",
		"province": "ฉะเชิงเทรา",
		"district": "ราชสาส์น",
		"lat": 13.7809557,
		"lng": 101.286392
	},
	{
		"id": "221",
		"zip": "24160",
		"province": "ฉะเชิงเทรา",
		"district": "สนามชัยเขต",
		"lat": 13.6581446,
		"lng": 101.4381602
	},
	{
		"id": "222",
		"zip": "24190",
		"province": "ฉะเชิงเทรา",
		"district": "แปลงยาว",
		"lat": 13.6068853,
		"lng": 101.2493924
	},
	{
		"id": "223",
		"zip": "24160",
		"province": "ฉะเชิงเทรา",
		"district": "ท่าตะเกียบ",
		"lat": 13.4754941,
		"lng": 101.7296049
	},
	{
		"id": "224",
		"zip": "24000",
		"province": "ฉะเชิงเทรา",
		"district": "คลองเขื่อน",
		"lat": 13.780713,
		"lng": 101.1673984
	},
	{
		"id": "225",
		"zip": "24110",
		"province": "ฉะเชิงเทรา",
		"district": "คลองเขื่อน",
		"lat": 13.780713,
		"lng": 101.1673984
	},
	{
		"id": "226",
		"zip": "25000",
		"province": "ปราจีนบุรี",
		"district": "เมืองปราจีนบุรี",
		"lat": 14.0552548,
		"lng": 101.3784849
	},
	{
		"id": "227",
		"zip": "25230",
		"province": "ปราจีนบุรี",
		"district": "เมืองปราจีนบุรี",
		"lat": 14.1048307,
		"lng": 101.3559574
	},
	{
		"id": "228",
		"zip": "25110",
		"province": "ปราจีนบุรี",
		"district": "กบินทร์บุรี",
		"lat": 14.0650764,
		"lng": 101.834905
	},
	{
		"id": "229",
		"zip": "25240",
		"province": "ปราจีนบุรี",
		"district": "กบินทร์บุรี",
		"lat": 13.9865542,
		"lng": 101.7637775
	},
	{
		"id": "230",
		"zip": "25220",
		"province": "ปราจีนบุรี",
		"district": "นาดี",
		"lat": 14.2030447,
		"lng": 101.7751709
	},
	{
		"id": "231",
		"zip": "25150",
		"province": "ปราจีนบุรี",
		"district": "บ้านสร้าง",
		"lat": 14.0065988,
		"lng": 101.2240441
	},
	{
		"id": "232",
		"zip": "25130",
		"province": "ปราจีนบุรี",
		"district": "ประจันตคาม",
		"lat": 14.0508866,
		"lng": 101.4963935
	},
	{
		"id": "233",
		"zip": "25140",
		"province": "ปราจีนบุรี",
		"district": "ศรีมหาโพธิ",
		"lat": 13.8964152,
		"lng": 101.5020752
	},
	{
		"id": "234",
		"zip": "25190",
		"province": "ปราจีนบุรี",
		"district": "ศรีมโหสถ",
		"lat": 13.8320366,
		"lng": 101.4561219
	},
	{
		"id": "235",
		"zip": "26000",
		"province": "นครนายก",
		"district": "เมืองนครนายก",
		"lat": 14.2038387,
		"lng": 101.2268773
	},
	{
		"id": "236",
		"zip": "26130",
		"province": "นครนายก",
		"district": "ปากพลี",
		"lat": 14.1063403,
		"lng": 101.2920619
	},
	{
		"id": "237",
		"zip": "26110",
		"province": "นครนายก",
		"district": "บ้านนา",
		"lat": 14.2613322,
		"lng": 101.0697615
	},
	{
		"id": "238",
		"zip": "26120",
		"province": "นครนายก",
		"district": "องครักษ์",
		"lat": 14.0971575,
		"lng": 100.997658
	},
	{
		"id": "239",
		"zip": "27000",
		"province": "สระแก้ว",
		"district": "เมืองสระแก้ว",
		"lat": 13.8240407,
		"lng": 102.0645821
	},
	{
		"id": "240",
		"zip": "27260",
		"province": "สระแก้ว",
		"district": "คลองหาด",
		"lat": 13.448373,
		"lng": 102.3070208
	},
	{
		"id": "241",
		"zip": "27180",
		"province": "สระแก้ว",
		"district": "ตาพระยา",
		"lat": 14.1115298,
		"lng": 102.589708
	},
	{
		"id": "242",
		"zip": "27210",
		"province": "สระแก้ว",
		"district": "วังน้ำเย็น",
		"lat": 13.5034908,
		"lng": 102.0946818
	},
	{
		"id": "243",
		"zip": "27160",
		"province": "สระแก้ว",
		"district": "วัฒนานคร",
		"lat": 13.7303147,
		"lng": 102.334934
	},
	{
		"id": "244",
		"zip": "27120",
		"province": "สระแก้ว",
		"district": "อรัญประเทศ",
		"lat": 13.7479007,
		"lng": 102.5203939
	},
	{
		"id": "245",
		"zip": "27000",
		"province": "สระแก้ว",
		"district": "เขาฉกรรจ์",
		"lat": 13.8240407,
		"lng": 102.0645821
	},
	{
		"id": "246",
		"zip": "27120",
		"province": "สระแก้ว",
		"district": "โคกสูง",
		"lat": 13.8151696,
		"lng": 102.7003989
	},
	{
		"id": "247",
		"zip": "27180",
		"province": "สระแก้ว",
		"district": "โคกสูง",
		"lat": 13.8400359,
		"lng": 102.5994097
	},
	{
		"id": "248",
		"zip": "27250",
		"province": "สระแก้ว",
		"district": "วังสมบูรณ์",
		"lat": 13.3152042,
		"lng": 102.2319048
	},
	{
		"id": "249",
		"zip": "30000",
		"province": "นครราชสีมา",
		"district": "เมืองนครราชสีมา",
		"lat": 14.9415189,
		"lng": 102.1175404
	},
	{
		"id": "250",
		"zip": "30310",
		"province": "นครราชสีมา",
		"district": "เมืองนครราชสีมา",
		"lat": 15.0551186,
		"lng": 102.1404037
	},
	{
		"id": "251",
		"zip": "30280",
		"province": "นครราชสีมา",
		"district": "เมืองนครราชสีมา",
		"lat": 15.0649072,
		"lng": 101.9576317
	},
	{
		"id": "252",
		"zip": "30250",
		"province": "นครราชสีมา",
		"district": "ครบุรี",
		"lat": 14.5866835,
		"lng": 102.1061105
	},
	{
		"id": "253",
		"zip": "30330",
		"province": "นครราชสีมา",
		"district": "เสิงสาง",
		"lat": 14.3723113,
		"lng": 102.4839212
	},
	{
		"id": "254",
		"zip": "30260",
		"province": "นครราชสีมา",
		"district": "คง",
		"lat": 15.4129378,
		"lng": 102.3234816
	},
	{
		"id": "255",
		"zip": "30350",
		"province": "นครราชสีมา",
		"district": "บ้านเหลื่อม",
		"lat": 15.6195755,
		"lng": 102.1289715
	},
	{
		"id": "256",
		"zip": "30230",
		"province": "นครราชสีมา",
		"district": "จักราช",
		"lat": 15.026754,
		"lng": 102.4495221
	},
	{
		"id": "257",
		"zip": "30190",
		"province": "นครราชสีมา",
		"district": "โชคชัย",
		"lat": 14.72328,
		"lng": 102.1609718
	},
	{
		"id": "258",
		"zip": "30210",
		"province": "นครราชสีมา",
		"district": "ด่านขุนทด",
		"lat": 15.1786657,
		"lng": 101.7637775
	},
	{
		"id": "259",
		"zip": "36220",
		"province": "นครราชสีมา",
		"district": "ด่านขุนทด",
		"lat": 15.211024,
		"lng": 101.7475374
	},
	{
		"id": "260",
		"zip": "30220",
		"province": "นครราชสีมา",
		"district": "โนนไทย",
		"lat": 15.2088556,
		"lng": 102.060403
	},
	{
		"id": "261",
		"zip": "30160",
		"province": "นครราชสีมา",
		"district": "โนนสูง",
		"lat": 15.2072285,
		"lng": 102.3005803
	},
	{
		"id": "262",
		"zip": "30420",
		"province": "นครราชสีมา",
		"district": "โนนสูง",
		"lat": 15.2602449,
		"lng": 102.3807553
	},
	{
		"id": "263",
		"zip": "30290",
		"province": "นครราชสีมา",
		"district": "ขามสะแกแสง",
		"lat": 15.3575998,
		"lng": 102.1804261
	},
	{
		"id": "264",
		"zip": "30120",
		"province": "นครราชสีมา",
		"district": "บัวใหญ่",
		"lat": 15.5835978,
		"lng": 102.4253001
	},
	{
		"id": "265",
		"zip": "30180",
		"province": "นครราชสีมา",
		"district": "ประทาย",
		"lat": 15.5334573,
		"lng": 102.7307497
	},
	{
		"id": "266",
		"zip": "30150",
		"province": "นครราชสีมา",
		"district": "ปักธงชัย",
		"lat": 14.786474,
		"lng": 102.0438378
	},
	{
		"id": "267",
		"zip": "30110",
		"province": "นครราชสีมา",
		"district": "พิมาย",
		"lat": 15.1970346,
		"lng": 102.4839212
	},
	{
		"id": "268",
		"zip": "30240",
		"province": "นครราชสีมา",
		"district": "ห้วยแถลง",
		"lat": 14.989289,
		"lng": 102.7003451
	},
	{
		"id": "269",
		"zip": "30270",
		"province": "นครราชสีมา",
		"district": "ชุมพวง",
		"lat": 15.3500317,
		"lng": 102.742295
	},
	{
		"id": "270",
		"zip": "30170",
		"province": "นครราชสีมา",
		"district": "สูงเนิน",
		"lat": 14.8704596,
		"lng": 101.8322677
	},
	{
		"id": "271",
		"zip": "30380",
		"province": "นครราชสีมา",
		"district": "สูงเนิน",
		"lat": 14.8267147,
		"lng": 101.900579
	},
	{
		"id": "272",
		"zip": "30280",
		"province": "นครราชสีมา",
		"district": "ขามทะเลสอ",
		"lat": 14.9608979,
		"lng": 101.9690458
	},
	{
		"id": "273",
		"zip": "30140",
		"province": "นครราชสีมา",
		"district": "สีคิ้ว",
		"lat": 14.9919687,
		"lng": 101.5930268
	},
	{
		"id": "274",
		"zip": "30340",
		"province": "นครราชสีมา",
		"district": "สีคิ้ว",
		"lat": 14.8540321,
		"lng": 101.5930268
	},
	{
		"id": "275",
		"zip": "30130",
		"province": "นครราชสีมา",
		"district": "ปากช่อง",
		"lat": 14.7275612,
		"lng": 101.3658004
	},
	{
		"id": "276",
		"zip": "30320",
		"province": "นครราชสีมา",
		"district": "ปากช่อง",
		"lat": 14.6401336,
		"lng": 101.2750531
	},
	{
		"id": "277",
		"zip": "30410",
		"province": "นครราชสีมา",
		"district": "หนองบุญมาก",
		"lat": 14.7358946,
		"lng": 102.3937099
	},
	{
		"id": "278",
		"zip": "30440",
		"province": "นครราชสีมา",
		"district": "แก้งสนามนาง",
		"lat": 15.7271335,
		"lng": 102.2662372
	},
	{
		"id": "279",
		"zip": "30360",
		"province": "นครราชสีมา",
		"district": "โนนแดง",
		"lat": 15.4121381,
		"lng": 102.5412761
	},
	{
		"id": "280",
		"zip": "30370",
		"province": "นครราชสีมา",
		"district": "วังน้ำเขียว",
		"lat": 14.4364486,
		"lng": 101.6840589
	},
	{
		"id": "281",
		"zip": "30150",
		"province": "นครราชสีมา",
		"district": "วังน้ำเขียว",
		"lat": 14.4173143,
		"lng": 101.8620066
	},
	{
		"id": "282",
		"zip": "30210",
		"province": "นครราชสีมา",
		"district": "เทพารักษ์",
		"lat": 15.2729261,
		"lng": 101.5020752
	},
	{
		"id": "283",
		"zip": "30270",
		"province": "นครราชสีมา",
		"district": "เมืองยาง",
		"lat": 15.2227739,
		"lng": 102.8263206
	},
	{
		"id": "284",
		"zip": "30220",
		"province": "นครราชสีมา",
		"district": "พระทองคำ",
		"lat": 15.3708926,
		"lng": 101.9831805
	},
	{
		"id": "285",
		"zip": "30270",
		"province": "นครราชสีมา",
		"district": "ลำทะเมนชัย",
		"lat": 15.2868802,
		"lng": 102.9205295
	},
	{
		"id": "286",
		"zip": "30120",
		"province": "นครราชสีมา",
		"district": "บัวลาย",
		"lat": 15.6462253,
		"lng": 102.4724537
	},
	{
		"id": "287",
		"zip": "30430",
		"province": "นครราชสีมา",
		"district": "สีดา",
		"lat": 15.5718701,
		"lng": 102.5642261
	},
	{
		"id": "288",
		"zip": "30230",
		"province": "นครราชสีมา",
		"district": "เฉลิมพระเกียรติ",
		"lat": 15.0017506,
		"lng": 102.2776838
	},
	{
		"id": "289",
		"zip": "30000",
		"province": "นครราชสีมา",
		"district": "เฉลิมพระเกียรติ",
		"lat": 15.0017506,
		"lng": 102.2776838
	},
	{
		"id": "290",
		"zip": "31000",
		"province": "บุรีรัมย์",
		"district": "เมืองบุรีรัมย์",
		"lat": 14.8905684,
		"lng": 103.035694
	},
	{
		"id": "291",
		"zip": "31190",
		"province": "บุรีรัมย์",
		"district": "คูเมือง",
		"lat": 15.3273836,
		"lng": 103.0126523
	},
	{
		"id": "292",
		"zip": "31160",
		"province": "บุรีรัมย์",
		"district": "กระสัง",
		"lat": 14.9094632,
		"lng": 103.3009828
	},
	{
		"id": "293",
		"zip": "31110",
		"province": "บุรีรัมย์",
		"district": "นางรอง",
		"lat": 15.2427118,
		"lng": 103.0081326
	},
	{
		"id": "294",
		"zip": "31210",
		"province": "บุรีรัมย์",
		"district": "หนองกี่",
		"lat": 14.7332797,
		"lng": 102.5757028
	},
	{
		"id": "295",
		"zip": "31170",
		"province": "บุรีรัมย์",
		"district": "ละหานทราย",
		"lat": 14.4196566,
		"lng": 102.8744945
	},
	{
		"id": "296",
		"zip": "31140",
		"province": "บุรีรัมย์",
		"district": "ประโคนชัย",
		"lat": 14.6014909,
		"lng": 103.0933171
	},
	{
		"id": "297",
		"zip": "31180",
		"province": "บุรีรัมย์",
		"district": "บ้านกรวด",
		"lat": 14.4356818,
		"lng": 103.0990809
	},
	{
		"id": "298",
		"zip": "31120",
		"province": "บุรีรัมย์",
		"district": "พุทไธสง",
		"lat": 15.4910959,
		"lng": 102.9974351
	},
	{
		"id": "299",
		"zip": "31130",
		"province": "บุรีรัมย์",
		"district": "ลำปลายมาศ",
		"lat": 15.0281466,
		"lng": 102.8458197
	},
	{
		"id": "300",
		"zip": "31150",
		"province": "บุรีรัมย์",
		"district": "สตึก",
		"lat": 15.3003013,
		"lng": 103.2948473
	},
	{
		"id": "301",
		"zip": "31220",
		"province": "บุรีรัมย์",
		"district": "ปะคำ",
		"lat": 14.4322181,
		"lng": 102.644587
	},
	{
		"id": "302",
		"zip": "31230",
		"province": "บุรีรัมย์",
		"district": "นาโพธิ์",
		"lat": 15.6408669,
		"lng": 102.9346988
	},
	{
		"id": "303",
		"zip": "31240",
		"province": "บุรีรัมย์",
		"district": "หนองหงส์",
		"lat": 14.8898061,
		"lng": 102.644587
	},
	{
		"id": "304",
		"zip": "31250",
		"province": "บุรีรัมย์",
		"district": "พลับพลาชัย",
		"lat": 14.7238528,
		"lng": 103.1509672
	},
	{
		"id": "305",
		"zip": "31000",
		"province": "บุรีรัมย์",
		"district": "ห้วยราช",
		"lat": 14.9765027,
		"lng": 103.1828685
	},
	{
		"id": "306",
		"zip": "31110",
		"province": "บุรีรัมย์",
		"district": "โนนสุวรรณ",
		"lat": 14.5744185,
		"lng": 102.597852
	},
	{
		"id": "307",
		"zip": "31110",
		"province": "บุรีรัมย์",
		"district": "ชำนิ",
		"lat": 14.7926661,
		"lng": 102.8457316
	},
	{
		"id": "308",
		"zip": "31120",
		"province": "บุรีรัมย์",
		"district": "บ้านใหม่ไชยพจน์",
		"lat": 15.5679804,
		"lng": 102.8284772
	},
	{
		"id": "309",
		"zip": "31260",
		"province": "บุรีรัมย์",
		"district": "โนนดินแดง",
		"lat": 14.3121305,
		"lng": 102.7485673
	},
	{
		"id": "310",
		"zip": "31000",
		"province": "บุรีรัมย์",
		"district": "บ้านด่าน",
		"lat": 15.1128022,
		"lng": 103.1591164
	},
	{
		"id": "311",
		"zip": "31150",
		"province": "บุรีรัมย์",
		"district": "แคนดง",
		"lat": 15.3097773,
		"lng": 103.1163739
	},
	{
		"id": "312",
		"zip": "31110",
		"province": "บุรีรัมย์",
		"district": "เฉลิมพระเกียรติ",
		"lat": 14.5566749,
		"lng": 102.8744945
	},
	{
		"id": "313",
		"zip": "31170",
		"province": "บุรีรัมย์",
		"district": "เฉลิมพระเกียรติ",
		"lat": 14.5566749,
		"lng": 102.8744945
	},
	{
		"id": "314",
		"zip": "32000",
		"province": "สุรินทร์",
		"district": "เมืองสุรินทร์",
		"lat": 14.8828674,
		"lng": 103.4937242
	},
	{
		"id": "315",
		"zip": "32190",
		"province": "สุรินทร์",
		"district": "ชุมพลบุรี",
		"lat": 15.3942217,
		"lng": 103.4280586
	},
	{
		"id": "316",
		"zip": "32120",
		"province": "สุรินทร์",
		"district": "ท่าตูม",
		"lat": 15.322183,
		"lng": 103.6765709
	},
	{
		"id": "317",
		"zip": "32180",
		"province": "สุรินทร์",
		"district": "จอมพระ",
		"lat": 15.1538406,
		"lng": 103.6131203
	},
	{
		"id": "318",
		"zip": "32140",
		"province": "สุรินทร์",
		"district": "ปราสาท",
		"lat": 14.5950082,
		"lng": 103.4049445
	},
	{
		"id": "319",
		"zip": "32210",
		"province": "สุรินทร์",
		"district": "กาบเชิง",
		"lat": 14.4822976,
		"lng": 103.5784012
	},
	{
		"id": "320",
		"zip": "32130",
		"province": "สุรินทร์",
		"district": "รัตนบุรี",
		"lat": 15.3196515,
		"lng": 103.8574529
	},
	{
		"id": "321",
		"zip": "32160",
		"province": "สุรินทร์",
		"district": "สนม",
		"lat": 15.2104948,
		"lng": 103.7581637
	},
	{
		"id": "322",
		"zip": "32110",
		"province": "สุรินทร์",
		"district": "ศีขรภูมิ",
		"lat": 14.9056012,
		"lng": 103.7452834
	},
	{
		"id": "323",
		"zip": "32150",
		"province": "สุรินทร์",
		"district": "สังขะ",
		"lat": 14.6707148,
		"lng": 103.8167772
	},
	{
		"id": "324",
		"zip": "32220",
		"province": "สุรินทร์",
		"district": "ลำดวน",
		"lat": 14.7061887,
		"lng": 103.6478486
	},
	{
		"id": "325",
		"zip": "32170",
		"province": "สุรินทร์",
		"district": "สำโรงทาบ",
		"lat": 14.9860058,
		"lng": 103.9260001
	},
	{
		"id": "326",
		"zip": "32230",
		"province": "สุรินทร์",
		"district": "บัวเชด",
		"lat": 14.5285939,
		"lng": 103.9492051
	},
	{
		"id": "327",
		"zip": "32140",
		"province": "สุรินทร์",
		"district": "พนมดงรัก",
		"lat": 14.4178959,
		"lng": 103.3125299
	},
	{
		"id": "328",
		"zip": "32150",
		"province": "สุรินทร์",
		"district": "ศรีณรงค์",
		"lat": 14.7713501,
		"lng": 103.8911999
	},
	{
		"id": "329",
		"zip": "32000",
		"province": "สุรินทร์",
		"district": "เขวาสินรินทร์",
		"lat": 15.0072693,
		"lng": 103.5784012
	},
	{
		"id": "330",
		"zip": "32130",
		"province": "สุรินทร์",
		"district": "โนนนารายณ์",
		"lat": 15.1824034,
		"lng": 103.8911999
	},
	{
		"id": "331",
		"zip": "33000",
		"province": "ศรีสะเกษ",
		"district": "เมืองศรีสะเกษ",
		"lat": 15.1170086,
		"lng": 104.3274123
	},
	{
		"id": "332",
		"zip": "33190",
		"province": "ศรีสะเกษ",
		"district": "ยางชุมน้อย",
		"lat": 15.241178,
		"lng": 104.4024704
	},
	{
		"id": "333",
		"zip": "33130",
		"province": "ศรีสะเกษ",
		"district": "กันทรารมย์",
		"lat": 15.1274943,
		"lng": 104.5757366
	},
	{
		"id": "334",
		"zip": "33110",
		"province": "ศรีสะเกษ",
		"district": "กันทรลักษ์",
		"lat": 14.6066438,
		"lng": 104.705431
	},
	{
		"id": "335",
		"zip": "33140",
		"province": "ศรีสะเกษ",
		"district": "ขุขันธ์",
		"lat": 14.6417626,
		"lng": 104.1466046
	},
	{
		"id": "336",
		"zip": "33180",
		"province": "ศรีสะเกษ",
		"district": "ไพรบึง",
		"lat": 14.7531969,
		"lng": 104.367553
	},
	{
		"id": "337",
		"zip": "33170",
		"province": "ศรีสะเกษ",
		"district": "ปรางค์กู่",
		"lat": 14.8297769,
		"lng": 104.053676
	},
	{
		"id": "338",
		"zip": "33150",
		"province": "ศรีสะเกษ",
		"district": "ขุนหาญ",
		"lat": 14.5334509,
		"lng": 104.4257533
	},
	{
		"id": "339",
		"zip": "33160",
		"province": "ศรีสะเกษ",
		"district": "ราษีไศล",
		"lat": 15.3445135,
		"lng": 104.1560983
	},
	{
		"id": "340",
		"zip": "33120",
		"province": "ศรีสะเกษ",
		"district": "อุทุมพรพิสัย",
		"lat": 15.0977748,
		"lng": 104.1466046
	},
	{
		"id": "341",
		"zip": "33220",
		"province": "ศรีสะเกษ",
		"district": "บึงบูรพ์",
		"lat": 15.3261466,
		"lng": 104.0594822
	},
	{
		"id": "342",
		"zip": "33210",
		"province": "ศรีสะเกษ",
		"district": "ห้วยทับทัน",
		"lat": 14.9909258,
		"lng": 104.0304535
	},
	{
		"id": "343",
		"zip": "33250",
		"province": "ศรีสะเกษ",
		"district": "โนนคูณ",
		"lat": 14.9037704,
		"lng": 104.6821048
	},
	{
		"id": "344",
		"zip": "33240",
		"province": "ศรีสะเกษ",
		"district": "ศรีรัตนะ",
		"lat": 14.8247444,
		"lng": 104.4956239
	},
	{
		"id": "345",
		"zip": "33130",
		"province": "ศรีสะเกษ",
		"district": "น้ำเกลี้ยง",
		"lat": 14.9234729,
		"lng": 104.5538744
	},
	{
		"id": "346",
		"zip": "33270",
		"province": "ศรีสะเกษ",
		"district": "วังหิน",
		"lat": 14.9792432,
		"lng": 104.2163411
	},
	{
		"id": "347",
		"zip": "33140",
		"province": "ศรีสะเกษ",
		"district": "ภูสิงห์",
		"lat": 14.5488299,
		"lng": 104.1378195
	},
	{
		"id": "348",
		"zip": "33120",
		"province": "ศรีสะเกษ",
		"district": "เมืองจันทร์",
		"lat": 15.1558333,
		"lng": 104.0272222
	},
	{
		"id": "349",
		"zip": "33110",
		"province": "ศรีสะเกษ",
		"district": "เบญจลักษ์",
		"lat": 14.8097174,
		"lng": 104.7287607
	},
	{
		"id": "350",
		"zip": "33230",
		"province": "ศรีสะเกษ",
		"district": "พยุห์",
		"lat": 14.9218093,
		"lng": 104.4024704
	},
	{
		"id": "351",
		"zip": "33120",
		"province": "ศรีสะเกษ",
		"district": "โพธิ์ศรีสุวรรณ",
		"lat": 15.2285929,
		"lng": 104.0652887
	},
	{
		"id": "352",
		"zip": "33160",
		"province": "ศรีสะเกษ",
		"district": "ศิลาลาด",
		"lat": 15.478746,
		"lng": 104.088517
	},
	{
		"id": "353",
		"zip": "34000",
		"province": "อุบลราชธานี",
		"district": "เมืองอุบลราชธานี",
		"lat": 15.2286712,
		"lng": 104.8564472
	},
	{
		"id": "354",
		"zip": "34250",
		"province": "อุบลราชธานี",
		"district": "ศรีเมืองใหม่",
		"lat": 15.5639458,
		"lng": 105.3599568
	},
	{
		"id": "355",
		"zip": "34220",
		"province": "อุบลราชธานี",
		"district": "โขงเจียม",
		"lat": 15.4383436,
		"lng": 105.5239912
	},
	{
		"id": "356",
		"zip": "34150",
		"province": "อุบลราชธานี",
		"district": "เขื่องใน",
		"lat": 15.4113503,
		"lng": 104.5467528
	},
	{
		"id": "357",
		"zip": "34320",
		"province": "อุบลราชธานี",
		"district": "เขื่องใน",
		"lat": 15.5018468,
		"lng": 104.464953
	},
	{
		"id": "358",
		"zip": "34170",
		"province": "อุบลราชธานี",
		"district": "เขมราฐ",
		"lat": 15.8923683,
		"lng": 105.1858696
	},
	{
		"id": "359",
		"zip": "34160",
		"province": "อุบลราชธานี",
		"district": "เดชอุดม",
		"lat": 14.8548457,
		"lng": 105.0791228
	},
	{
		"id": "360",
		"zip": "34280",
		"province": "อุบลราชธานี",
		"district": "นาจะหลวย",
		"lat": 14.503619,
		"lng": 105.2428853
	},
	{
		"id": "361",
		"zip": "34260",
		"province": "อุบลราชธานี",
		"district": "น้ำยืน",
		"lat": 14.4010715,
		"lng": 105.0791228
	},
	{
		"id": "362",
		"zip": "34230",
		"province": "อุบลราชธานี",
		"district": "บุณฑริก",
		"lat": 14.7451613,
		"lng": 105.3599568
	},
	{
		"id": "363",
		"zip": "34130",
		"province": "อุบลราชธานี",
		"district": "ตระการพืชผล",
		"lat": 15.5837056,
		"lng": 105.0791228
	},
	{
		"id": "364",
		"zip": "34270",
		"province": "อุบลราชธานี",
		"district": "กุดข้าวปุ้น",
		"lat": 15.8366515,
		"lng": 105.0557415
	},
	{
		"id": "365",
		"zip": "34140",
		"province": "อุบลราชธานี",
		"district": "ม่วงสามสิบ",
		"lat": 15.5058041,
		"lng": 104.7170954
	},
	{
		"id": "366",
		"zip": "34190",
		"province": "อุบลราชธานี",
		"district": "วารินชำราบ",
		"lat": 15.1997052,
		"lng": 104.8571368
	},
	{
		"id": "367",
		"zip": "34310",
		"province": "อุบลราชธานี",
		"district": "วารินชำราบ",
		"lat": 15.116321,
		"lng": 104.7404269
	},
	{
		"id": "368",
		"zip": "34110",
		"province": "อุบลราชธานี",
		"district": "พิบูลมังสาหาร",
		"lat": 15.2474826,
		"lng": 105.2320501
	},
	{
		"id": "369",
		"zip": "34330",
		"province": "อุบลราชธานี",
		"district": "ตาลสุม",
		"lat": 15.3226604,
		"lng": 105.1434387
	},
	{
		"id": "370",
		"zip": "34340",
		"province": "อุบลราชธานี",
		"district": "โพธิ์ไทร",
		"lat": 15.8464444,
		"lng": 105.2799215
	},
	{
		"id": "371",
		"zip": "34360",
		"province": "อุบลราชธานี",
		"district": "สำโรง",
		"lat": 15.0221073,
		"lng": 104.7871004
	},
	{
		"id": "372",
		"zip": "34000",
		"province": "อุบลราชธานี",
		"district": "ดอนมดแดง",
		"lat": 15.2905556,
		"lng": 105.0525
	},
	{
		"id": "373",
		"zip": "34350",
		"province": "อุบลราชธานี",
		"district": "สิรินธร",
		"lat": 15.0947394,
		"lng": 105.3950939
	},
	{
		"id": "374",
		"zip": "34160",
		"province": "อุบลราชธานี",
		"district": "ทุ่งศรีอุดม",
		"lat": 14.7520587,
		"lng": 104.9155243
	},
	{
		"id": "375",
		"zip": "34160",
		"province": "อุบลราชธานี",
		"district": "นาเยีย",
		"lat": 15.0230007,
		"lng": 105.1142011
	},
	{
		"id": "376",
		"zip": "34170",
		"province": "อุบลราชธานี",
		"district": "นาตาล",
		"lat": 15.8991237,
		"lng": 105.3014109
	},
	{
		"id": "377",
		"zip": "34000",
		"province": "อุบลราชธานี",
		"district": "เหล่าเสือโก้ก",
		"lat": 15.4283226,
		"lng": 104.9330448
	},
	{
		"id": "378",
		"zip": "34190",
		"province": "อุบลราชธานี",
		"district": "สว่างวีระวงศ์",
		"lat": 15.2432339,
		"lng": 105.0557415
	},
	{
		"id": "379",
		"zip": "34260",
		"province": "อุบลราชธานี",
		"district": "น้ำขุ่น",
		"lat": 14.5946094,
		"lng": 104.8921668
	},
	{
		"id": "380",
		"zip": "35000",
		"province": "ยโสธร",
		"district": "เมืองยโสธร",
		"lat": 15.7983959,
		"lng": 104.1495096
	},
	{
		"id": "381",
		"zip": "35170",
		"province": "ยโสธร",
		"district": "ทรายมูล",
		"lat": 15.9753775,
		"lng": 104.204716
	},
	{
		"id": "382",
		"zip": "35140",
		"province": "ยโสธร",
		"district": "กุดชุม",
		"lat": 16.0577566,
		"lng": 104.3442794
	},
	{
		"id": "383",
		"zip": "35110",
		"province": "ยโสธร",
		"district": "คำเขื่อนแก้ว",
		"lat": 15.6551836,
		"lng": 104.3073234
	},
	{
		"id": "384",
		"zip": "35180",
		"province": "ยโสธร",
		"district": "คำเขื่อนแก้ว",
		"lat": 15.6701671,
		"lng": 104.4143242
	},
	{
		"id": "385",
		"zip": "35150",
		"province": "ยโสธร",
		"district": "ป่าติ้ว",
		"lat": 15.8359591,
		"lng": 104.4024704
	},
	{
		"id": "386",
		"zip": "35130",
		"province": "ยโสธร",
		"district": "มหาชนะชัย",
		"lat": 15.5246282,
		"lng": 104.262851
	},
	{
		"id": "387",
		"zip": "35160",
		"province": "ยโสธร",
		"district": "ค้อวัง",
		"lat": 15.3652968,
		"lng": 104.3384616
	},
	{
		"id": "388",
		"zip": "35120",
		"province": "ยโสธร",
		"district": "เลิงนกทา",
		"lat": 16.171991,
		"lng": 104.5189214
	},
	{
		"id": "389",
		"zip": "35120",
		"province": "ยโสธร",
		"district": "ไทยเจริญ",
		"lat": 16.0690115,
		"lng": 104.4315746
	},
	{
		"id": "390",
		"zip": "36000",
		"province": "ชัยภูมิ",
		"district": "เมืองชัยภูมิ",
		"lat": 15.8675815,
		"lng": 102.026135
	},
	{
		"id": "391",
		"zip": "36240",
		"province": "ชัยภูมิ",
		"district": "เมืองชัยภูมิ",
		"lat": 15.7021955,
		"lng": 102.0946818
	},
	{
		"id": "392",
		"zip": "36170",
		"province": "ชัยภูมิ",
		"district": "บ้านเขว้า",
		"lat": 15.7463121,
		"lng": 101.9233964
	},
	{
		"id": "393",
		"zip": "36140",
		"province": "ชัยภูมิ",
		"district": "คอนสวรรค์",
		"lat": 15.9443409,
		"lng": 102.3005803
	},
	{
		"id": "394",
		"zip": "36120",
		"province": "ชัยภูมิ",
		"district": "เกษตรสมบูรณ์",
		"lat": 16.2426241,
		"lng": 101.9348069
	},
	{
		"id": "395",
		"zip": "36210",
		"province": "ชัยภูมิ",
		"district": "หนองบัวแดง",
		"lat": 16.0908333,
		"lng": 101.7969444
	},
	{
		"id": "396",
		"zip": "36130",
		"province": "ชัยภูมิ",
		"district": "จัตุรัส",
		"lat": 15.6006885,
		"lng": 101.8435568
	},
	{
		"id": "397",
		"zip": "36220",
		"province": "ชัยภูมิ",
		"district": "จัตุรัส",
		"lat": 15.5690426,
		"lng": 101.8562733
	},
	{
		"id": "398",
		"zip": "36160",
		"province": "ชัยภูมิ",
		"district": "บำเหน็จณรงค์",
		"lat": 15.442702,
		"lng": 101.688248
	},
	{
		"id": "399",
		"zip": "36220",
		"province": "ชัยภูมิ",
		"district": "บำเหน็จณรงค์",
		"lat": 15.442702,
		"lng": 101.688248
	},
	{
		"id": "400",
		"zip": "36250",
		"province": "ชัยภูมิ",
		"district": "หนองบัวระเหว",
		"lat": 15.7538158,
		"lng": 101.7865654
	},
	{
		"id": "401",
		"zip": "36230",
		"province": "ชัยภูมิ",
		"district": "เทพสถิต",
		"lat": 15.363868,
		"lng": 101.460769
	},
	{
		"id": "402",
		"zip": "36110",
		"province": "ชัยภูมิ",
		"district": "ภูเขียว",
		"lat": 16.3763389,
		"lng": 102.1287289
	},
	{
		"id": "403",
		"zip": "36190",
		"province": "ชัยภูมิ",
		"district": "บ้านแท่น",
		"lat": 16.3793702,
		"lng": 102.3692982
	},
	{
		"id": "404",
		"zip": "36150",
		"province": "ชัยภูมิ",
		"district": "แก้งคร้อ",
		"lat": 16.1344075,
		"lng": 102.2090224
	},
	{
		"id": "405",
		"zip": "36180",
		"province": "ชัยภูมิ",
		"district": "คอนสาร",
		"lat": 16.6005008,
		"lng": 101.9040309
	},
	{
		"id": "406",
		"zip": "36260",
		"province": "ชัยภูมิ",
		"district": "ภักดีชุมพล",
		"lat": 16.0168745,
		"lng": 101.4112049
	},
	{
		"id": "407",
		"zip": "36130",
		"province": "ชัยภูมิ",
		"district": "เนินสง่า",
		"lat": 15.568898,
		"lng": 102.0032957
	},
	{
		"id": "408",
		"zip": "36130",
		"province": "ชัยภูมิ",
		"district": "ซับใหญ่",
		"lat": 15.6413889,
		"lng": 101.6172222
	},
	{
		"id": "409",
		"zip": "37000",
		"province": "อำนาจเจริญ",
		"district": "เมืองอำนาจเจริญ",
		"lat": 15.8656422,
		"lng": 104.6257269
	},
	{
		"id": "410",
		"zip": "37210",
		"province": "อำนาจเจริญ",
		"district": "ชานุมาน",
		"lat": 16.1458061,
		"lng": 104.8921668
	},
	{
		"id": "411",
		"zip": "37110",
		"province": "อำนาจเจริญ",
		"district": "ปทุมราชวงศา",
		"lat": 15.8924912,
		"lng": 104.9049108
	},
	{
		"id": "412",
		"zip": "37180",
		"province": "อำนาจเจริญ",
		"district": "พนา",
		"lat": 15.6729405,
		"lng": 104.8629746
	},
	{
		"id": "413",
		"zip": "37290",
		"province": "อำนาจเจริญ",
		"district": "เสนางคนิคม",
		"lat": 16.0459858,
		"lng": 104.6821048
	},
	{
		"id": "414",
		"zip": "37240",
		"province": "อำนาจเจริญ",
		"district": "หัวตะพาน",
		"lat": 15.6891238,
		"lng": 104.5422225
	},
	{
		"id": "415",
		"zip": "37000",
		"province": "อำนาจเจริญ",
		"district": "ลืออำนาจ",
		"lat": 15.7221906,
		"lng": 104.7287607
	},
	{
		"id": "416",
		"zip": "38000",
		"province": "บึงกาฬ",
		"district": "เมืองบึงกาฬ",
		"lat": 18.3608748,
		"lng": 103.6464504
	},
	{
		"id": "417",
		"zip": "38180",
		"province": "บึงกาฬ",
		"district": "พรเจริญ",
		"lat": 18.1510352,
		"lng": 103.5736317
	},
	{
		"id": "418",
		"zip": "38170",
		"province": "บึงกาฬ",
		"district": "โซ่พิสัย",
		"lat": 18.2885872,
		"lng": 103.7969833
	},
	{
		"id": "419",
		"zip": "38150",
		"province": "บึงกาฬ",
		"district": "เซกา",
		"lat": 17.9897681,
		"lng": 103.9376021
	},
	{
		"id": "420",
		"zip": "38190",
		"province": "บึงกาฬ",
		"district": "ปากคาด",
		"lat": 18.3264671,
		"lng": 103.3201886
	},
	{
		"id": "421",
		"zip": "38220",
		"province": "บึงกาฬ",
		"district": "บึงโขงหลง",
		"lat": 18.0152778,
		"lng": 104.0216667
	},
	{
		"id": "422",
		"zip": "38210",
		"province": "บึงกาฬ",
		"district": "ศรีวิไล",
		"lat": 18.2885872,
		"lng": 103.7969833
	},
	{
		"id": "423",
		"zip": "38000",
		"province": "บึงกาฬ",
		"district": "บุ่งคล้า",
		"lat": 18.2538823,
		"lng": 103.9724141
	},
	{
		"id": "424",
		"zip": "39000",
		"province": "หนองบัวลำภู",
		"district": "เมืองหนองบัวลำภู",
		"lat": 17.2218369,
		"lng": 102.4260602
	},
	{
		"id": "425",
		"zip": "39170",
		"province": "หนองบัวลำภู",
		"district": "นากลาง",
		"lat": 17.2468691,
		"lng": 102.2090224
	},
	{
		"id": "426",
		"zip": "39350",
		"province": "หนองบัวลำภู",
		"district": "นากลาง",
		"lat": 17.3944044,
		"lng": 102.2662372
	},
	{
		"id": "427",
		"zip": "39140",
		"province": "หนองบัวลำภู",
		"district": "โนนสัง",
		"lat": 16.9485259,
		"lng": 102.5785297
	},
	{
		"id": "428",
		"zip": "39180",
		"province": "หนองบัวลำภู",
		"district": "ศรีบุญเรือง",
		"lat": 16.9292845,
		"lng": 102.2915983
	},
	{
		"id": "429",
		"zip": "39270",
		"province": "หนองบัวลำภู",
		"district": "สุวรรณคูหา",
		"lat": 17.5655556,
		"lng": 102.2722222
	},
	{
		"id": "430",
		"zip": "39170",
		"province": "หนองบัวลำภู",
		"district": "นาวัง",
		"lat": 17.3263608,
		"lng": 102.0489791
	},
	{
		"id": "431",
		"zip": "40000",
		"province": "ขอนแก่น",
		"district": "เมืองขอนแก่น",
		"lat": 16.4549378,
		"lng": 102.8563594
	},
	{
		"id": "432",
		"zip": "40260",
		"province": "ขอนแก่น",
		"district": "เมืองขอนแก่น",
		"lat": 16.316276,
		"lng": 102.8399799
	},
	{
		"id": "433",
		"zip": "40270",
		"province": "ขอนแก่น",
		"district": "บ้านฝาง",
		"lat": 16.4504042,
		"lng": 102.6402895
	},
	{
		"id": "434",
		"zip": "40320",
		"province": "ขอนแก่น",
		"district": "พระยืน",
		"lat": 16.3288881,
		"lng": 102.6331035
	},
	{
		"id": "435",
		"zip": "40210",
		"province": "ขอนแก่น",
		"district": "หนองเรือ",
		"lat": 16.5154623,
		"lng": 102.4151335
	},
	{
		"id": "436",
		"zip": "40240",
		"province": "ขอนแก่น",
		"district": "หนองเรือ",
		"lat": 16.4174111,
		"lng": 102.5068597
	},
	{
		"id": "437",
		"zip": "40130",
		"province": "ขอนแก่น",
		"district": "ชุมแพ",
		"lat": 16.5780985,
		"lng": 102.1404037
	},
	{
		"id": "438",
		"zip": "40290",
		"province": "ขอนแก่น",
		"district": "ชุมแพ",
		"lat": 16.6788574,
		"lng": 102.0032957
	},
	{
		"id": "439",
		"zip": "40220",
		"province": "ขอนแก่น",
		"district": "สีชมพู",
		"lat": 16.8490554,
		"lng": 102.1755941
	},
	{
		"id": "440",
		"zip": "40140",
		"province": "ขอนแก่น",
		"district": "น้ำพอง",
		"lat": 16.7157136,
		"lng": 102.9205295
	},
	{
		"id": "441",
		"zip": "40310",
		"province": "ขอนแก่น",
		"district": "น้ำพอง",
		"lat": 16.6781124,
		"lng": 102.7824777
	},
	{
		"id": "442",
		"zip": "40250",
		"province": "ขอนแก่น",
		"district": "อุบลรัตน์",
		"lat": 16.7509121,
		"lng": 102.5412761
	},
	{
		"id": "443",
		"zip": "40170",
		"province": "ขอนแก่น",
		"district": "กระนวน",
		"lat": 16.6036472,
		"lng": 103.0472164
	},
	{
		"id": "444",
		"zip": "40110",
		"province": "ขอนแก่น",
		"district": "บ้านไผ่",
		"lat": 16.1169002,
		"lng": 102.7020218
	},
	{
		"id": "445",
		"zip": "40340",
		"province": "ขอนแก่น",
		"district": "เปือยน้อย",
		"lat": 15.879993,
		"lng": 102.9032643
	},
	{
		"id": "446",
		"zip": "40120",
		"province": "ขอนแก่น",
		"district": "พล",
		"lat": 15.8117,
		"lng": 102.5986597
	},
	{
		"id": "447",
		"zip": "40330",
		"province": "ขอนแก่น",
		"district": "แวงใหญ่",
		"lat": 15.911973,
		"lng": 102.4609873
	},
	{
		"id": "448",
		"zip": "40230",
		"province": "ขอนแก่น",
		"district": "แวงน้อย",
		"lat": 15.822376,
		"lng": 102.4151335
	},
	{
		"id": "449",
		"zip": "40190",
		"province": "ขอนแก่น",
		"district": "หนองสองห้อง",
		"lat": 15.6979174,
		"lng": 102.7709807
	},
	{
		"id": "450",
		"zip": "40150",
		"province": "ขอนแก่น",
		"district": "ภูเวียง",
		"lat": 16.6346564,
		"lng": 102.3870095
	},
	{
		"id": "451",
		"zip": "40160",
		"province": "ขอนแก่น",
		"district": "มัญจาคีรี",
		"lat": 16.2107446,
		"lng": 102.4839212
	},
	{
		"id": "452",
		"zip": "40180",
		"province": "ขอนแก่น",
		"district": "ชนบท",
		"lat": 16.0791772,
		"lng": 102.5838205
	},
	{
		"id": "453",
		"zip": "40280",
		"province": "ขอนแก่น",
		"district": "เขาสวนกวาง",
		"lat": 16.9096084,
		"lng": 102.7824777
	},
	{
		"id": "454",
		"zip": "40350",
		"province": "ขอนแก่น",
		"district": "ภูผาม่าน",
		"lat": 16.6401692,
		"lng": 101.9090201
	},
	{
		"id": "455",
		"zip": "40170",
		"province": "ขอนแก่น",
		"district": "ซำสูง",
		"lat": 16.5682547,
		"lng": 103.0587399
	},
	{
		"id": "456",
		"zip": "40160",
		"province": "ขอนแก่น",
		"district": "โคกโพธิ์ไชย",
		"lat": 16.0557992,
		"lng": 102.3692982
	},
	{
		"id": "457",
		"zip": "40150",
		"province": "ขอนแก่น",
		"district": "หนองนาคำ",
		"lat": 16.8134948,
		"lng": 102.3403027
	},
	{
		"id": "458",
		"zip": "40110",
		"province": "ขอนแก่น",
		"district": "บ้านแฮด",
		"lat": 16.2118723,
		"lng": 102.7537372
	},
	{
		"id": "459",
		"zip": "40110",
		"province": "ขอนแก่น",
		"district": "โนนศิลา",
		"lat": 15.9581614,
		"lng": 102.6560717
	},
	{
		"id": "460",
		"zip": "40150",
		"province": "ขอนแก่น",
		"district": "เวียงเก่า",
		"lat": 16.7089808,
		"lng": 102.2776838
	},
	{
		"id": "461",
		"zip": "41000",
		"province": "อุดรธานี",
		"district": "เมืองอุดรธานี",
		"lat": 17.3980165,
		"lng": 102.7594847
	},
	{
		"id": "462",
		"zip": "41330",
		"province": "อุดรธานี",
		"district": "เมืองอุดรธานี",
		"lat": 17.2745616,
		"lng": 102.8744945
	},
	{
		"id": "463",
		"zip": "41250",
		"province": "อุดรธานี",
		"district": "กุดจับ",
		"lat": 17.4156306,
		"lng": 102.4839212
	},
	{
		"id": "464",
		"zip": "41360",
		"province": "อุดรธานี",
		"district": "หนองวัวซอ",
		"lat": 17.2869444,
		"lng": 102.6002778
	},
	{
		"id": "465",
		"zip": "41220",
		"province": "อุดรธานี",
		"district": "หนองวัวซอ",
		"lat": 17.3351129,
		"lng": 102.5072321
	},
	{
		"id": "466",
		"zip": "41110",
		"province": "อุดรธานี",
		"district": "กุมภวาปี",
		"lat": 17.0801779,
		"lng": 103.0126523
	},
	{
		"id": "467",
		"zip": "41370",
		"province": "อุดรธานี",
		"district": "กุมภวาปี",
		"lat": 17.1324799,
		"lng": 102.9205295
	},
	{
		"id": "468",
		"zip": "41240",
		"province": "อุดรธานี",
		"district": "โนนสะอาด",
		"lat": 16.9656259,
		"lng": 102.9032643
	},
	{
		"id": "469",
		"zip": "41130",
		"province": "อุดรธานี",
		"district": "หนองหาน",
		"lat": 17.3645735,
		"lng": 103.0933171
	},
	{
		"id": "470",
		"zip": "41320",
		"province": "อุดรธานี",
		"district": "หนองหาน",
		"lat": 17.3893466,
		"lng": 103.2432632
	},
	{
		"id": "471",
		"zip": "41310",
		"province": "อุดรธานี",
		"district": "ทุ่งฝน",
		"lat": 17.4851808,
		"lng": 103.1971067
	},
	{
		"id": "472",
		"zip": "41290",
		"province": "อุดรธานี",
		"district": "ไชยวาน",
		"lat": 17.2009231,
		"lng": 103.2894368
	},
	{
		"id": "473",
		"zip": "41230",
		"province": "อุดรธานี",
		"district": "ศรีธาตุ",
		"lat": 16.9767891,
		"lng": 103.2142418
	},
	{
		"id": "474",
		"zip": "41280",
		"province": "อุดรธานี",
		"district": "วังสามหมอ",
		"lat": 16.955592,
		"lng": 103.4421742
	},
	{
		"id": "475",
		"zip": "41190",
		"province": "อุดรธานี",
		"district": "บ้านดุง",
		"lat": 17.7032238,
		"lng": 103.2317225
	},
	{
		"id": "476",
		"zip": "41160",
		"province": "อุดรธานี",
		"district": "บ้านผือ",
		"lat": 17.6851513,
		"lng": 102.4495221
	},
	{
		"id": "477",
		"zip": "41210",
		"province": "อุดรธานี",
		"district": "น้ำโสม",
		"lat": 17.7338889,
		"lng": 102.0772222
	},
	{
		"id": "478",
		"zip": "41150",
		"province": "อุดรธานี",
		"district": "เพ็ญ",
		"lat": 17.6769513,
		"lng": 102.932041
	},
	{
		"id": "479",
		"zip": "41260",
		"province": "อุดรธานี",
		"district": "สร้างคอม",
		"lat": 17.8054891,
		"lng": 103.0933171
	},
	{
		"id": "480",
		"zip": "41340",
		"province": "อุดรธานี",
		"district": "หนองแสง",
		"lat": 17.4905125,
		"lng": 102.8263951
	},
	{
		"id": "481",
		"zip": "41380",
		"province": "อุดรธานี",
		"district": "นายูง",
		"lat": 17.1037919,
		"lng": 103.0134597
	},
	{
		"id": "482",
		"zip": "41130",
		"province": "อุดรธานี",
		"district": "พิบูลย์รักษ์",
		"lat": 17.4944308,
		"lng": 103.0587399
	},
	{
		"id": "483",
		"zip": "41130",
		"province": "อุดรธานี",
		"district": "กู่แก้ว",
		"lat": 17.1637859,
		"lng": 103.1509672
	},
	{
		"id": "484",
		"zip": "41110",
		"province": "อุดรธานี",
		"district": "ประจักษ์ศิลปาคม",
		"lat": 17.2562283,
		"lng": 102.9780981
	},
	{
		"id": "485",
		"zip": "42000",
		"province": "เลย",
		"district": "เมืองเลย",
		"lat": 17.4605379,
		"lng": 101.7523854
	},
	{
		"id": "486",
		"zip": "42100",
		"province": "เลย",
		"district": "เมืองเลย",
		"lat": 17.6249528,
		"lng": 101.7296049
	},
	{
		"id": "487",
		"zip": "42210",
		"province": "เลย",
		"district": "นาด้วง",
		"lat": 17.4847909,
		"lng": 101.9428012
	},
	{
		"id": "488",
		"zip": "42110",
		"province": "เลย",
		"district": "เชียงคาน",
		"lat": 17.8759173,
		"lng": 101.6271544
	},
	{
		"id": "489",
		"zip": "42150",
		"province": "เลย",
		"district": "ปากชม",
		"lat": 18.0226395,
		"lng": 101.8812018
	},
	{
		"id": "490",
		"zip": "42120",
		"province": "เลย",
		"district": "ด่านซ้าย",
		"lat": 17.2506701,
		"lng": 101.1504111
	},
	{
		"id": "491",
		"zip": "42170",
		"province": "เลย",
		"district": "นาแห้ว",
		"lat": 17.5263619,
		"lng": 100.9560676
	},
	{
		"id": "492",
		"zip": "42160",
		"province": "เลย",
		"district": "ภูเรือ",
		"lat": 17.5144444,
		"lng": 101.3441667
	},
	{
		"id": "493",
		"zip": "42140",
		"province": "เลย",
		"district": "ท่าลี่",
		"lat": 17.5971303,
		"lng": 101.4112049
	},
	{
		"id": "494",
		"zip": "42130",
		"province": "เลย",
		"district": "วังสะพุง",
		"lat": 17.3099032,
		"lng": 101.7409946
	},
	{
		"id": "495",
		"zip": "42180",
		"province": "เลย",
		"district": "ภูกระดึง",
		"lat": 16.8713889,
		"lng": 101.7186111
	},
	{
		"id": "496",
		"zip": "42230",
		"province": "เลย",
		"district": "ภูหลวง",
		"lat": 17.0935616,
		"lng": 101.6612934
	},
	{
		"id": "497",
		"zip": "42240",
		"province": "เลย",
		"district": "ผาขาว",
		"lat": 17.0502119,
		"lng": 102.0032957
	},
	{
		"id": "498",
		"zip": "42220",
		"province": "เลย",
		"district": "เอราวัณ",
		"lat": 17.3702095,
		"lng": 101.900579
	},
	{
		"id": "499",
		"zip": "42190",
		"province": "เลย",
		"district": "หนองหิน",
		"lat": 17.1074981,
		"lng": 101.8207566
	},
	{
		"id": "500",
		"zip": "43000",
		"province": "หนองคาย",
		"district": "เมืองหนองคาย",
		"lat": 17.8841733,
		"lng": 102.750128
	},
	{
		"id": "501",
		"zip": "43100",
		"province": "หนองคาย",
		"district": "เมืองหนองคาย",
		"lat": 17.74,
		"lng": 102.7055556
	},
	{
		"id": "502",
		"zip": "43110",
		"province": "หนองคาย",
		"district": "ท่าบ่อ",
		"lat": 17.8111448,
		"lng": 102.5699643
	},
	{
		"id": "503",
		"zip": "43120",
		"province": "หนองคาย",
		"district": "โพนพิสัย",
		"lat": 17.9747555,
		"lng": 103.0017133
	},
	{
		"id": "504",
		"zip": "43130",
		"province": "หนองคาย",
		"district": "ศรีเชียงใหม่",
		"lat": 17.9381572,
		"lng": 102.4953899
	},
	{
		"id": "505",
		"zip": "43160",
		"province": "หนองคาย",
		"district": "สังคม",
		"lat": 18.0153852,
		"lng": 102.1538632
	},
	{
		"id": "506",
		"zip": "43100",
		"province": "หนองคาย",
		"district": "สระใคร",
		"lat": 17.7061453,
		"lng": 102.7537372
	},
	{
		"id": "507",
		"zip": "43120",
		"province": "หนองคาย",
		"district": "เฝ้าไร่",
		"lat": 18.0002831,
		"lng": 103.3009828
	},
	{
		"id": "508",
		"zip": "43120",
		"province": "หนองคาย",
		"district": "รัตนวาปี",
		"lat": 18.2174678,
		"lng": 103.1855702
	},
	{
		"id": "509",
		"zip": "43130",
		"province": "หนองคาย",
		"district": "โพธิ์ตาก",
		"lat": 17.8494946,
		"lng": 102.4265952
	},
	{
		"id": "510",
		"zip": "44000",
		"province": "มหาสารคาม",
		"district": "เมืองมหาสารคาม",
		"lat": 16.1383681,
		"lng": 103.2894368
	},
	{
		"id": "511",
		"zip": "44190",
		"province": "มหาสารคาม",
		"district": "แกดำ",
		"lat": 16.1001934,
		"lng": 103.4007916
	},
	{
		"id": "512",
		"zip": "44140",
		"province": "มหาสารคาม",
		"district": "โกสุมพิสัย",
		"lat": 16.269546,
		"lng": 103.035694
	},
	{
		"id": "513",
		"zip": "44150",
		"province": "มหาสารคาม",
		"district": "กันทรวิชัย",
		"lat": 16.2795768,
		"lng": 103.2432632
	},
	{
		"id": "514",
		"zip": "44160",
		"province": "มหาสารคาม",
		"district": "เชียงยืน",
		"lat": 16.4159483,
		"lng": 103.0933171
	},
	{
		"id": "515",
		"zip": "44130",
		"province": "มหาสารคาม",
		"district": "บรบือ",
		"lat": 16.0915907,
		"lng": 103.1163739
	},
	{
		"id": "516",
		"zip": "44170",
		"province": "มหาสารคาม",
		"district": "นาเชือก",
		"lat": 15.7734482,
		"lng": 103.0472164
	},
	{
		"id": "517",
		"zip": "44110",
		"province": "มหาสารคาม",
		"district": "พยัคฆภูมิพิสัย",
		"lat": 15.5216056,
		"lng": 103.2201828
	},
	{
		"id": "518",
		"zip": "44120",
		"province": "มหาสารคาม",
		"district": "วาปีปทุม",
		"lat": 15.8787325,
		"lng": 103.3419638
	},
	{
		"id": "519",
		"zip": "44180",
		"province": "มหาสารคาม",
		"district": "นาดูน",
		"lat": 15.7223021,
		"lng": 103.2259525
	},
	{
		"id": "520",
		"zip": "44210",
		"province": "มหาสารคาม",
		"district": "ยางสีสุราช",
		"lat": 15.6406722,
		"lng": 103.1509672
	},
	{
		"id": "521",
		"zip": "44130",
		"province": "มหาสารคาม",
		"district": "กุดรัง",
		"lat": 16.1185799,
		"lng": 103.0249524
	},
	{
		"id": "522",
		"zip": "44160",
		"province": "มหาสารคาม",
		"district": "ชื่นชม",
		"lat": 16.5515741,
		"lng": 103.139435
	},
	{
		"id": "523",
		"zip": "45000",
		"province": "ร้อยเอ็ด",
		"district": "เมืองร้อยเอ็ด",
		"lat": 16.0537909,
		"lng": 103.6519972
	},
	{
		"id": "524",
		"zip": "45150",
		"province": "ร้อยเอ็ด",
		"district": "เกษตรวิสัย",
		"lat": 15.6580509,
		"lng": 103.6131203
	},
	{
		"id": "525",
		"zip": "45190",
		"province": "ร้อยเอ็ด",
		"district": "ปทุมรัตต์",
		"lat": 15.6021563,
		"lng": 103.4049445
	},
	{
		"id": "526",
		"zip": "45180",
		"province": "ร้อยเอ็ด",
		"district": "จตุรพักตรพิมาน",
		"lat": 15.8447115,
		"lng": 103.5668302
	},
	{
		"id": "527",
		"zip": "45170",
		"province": "ร้อยเอ็ด",
		"district": "ธวัชบุรี",
		"lat": 16.1110285,
		"lng": 103.8042382
	},
	{
		"id": "528",
		"zip": "45140",
		"province": "ร้อยเอ็ด",
		"district": "พนมไพร",
		"lat": 15.6803037,
		"lng": 104.1146479
	},
	{
		"id": "529",
		"zip": "45110",
		"province": "ร้อยเอ็ด",
		"district": "โพนทอง",
		"lat": 16.2143664,
		"lng": 103.9120099
	},
	{
		"id": "530",
		"zip": "45230",
		"province": "ร้อยเอ็ด",
		"district": "โพธิ์ชัย",
		"lat": 16.3818183,
		"lng": 103.7984428
	},
	{
		"id": "531",
		"zip": "45210",
		"province": "ร้อยเอ็ด",
		"district": "หนองพอก",
		"lat": 16.3413382,
		"lng": 104.2279672
	},
	{
		"id": "532",
		"zip": "45120",
		"province": "ร้อยเอ็ด",
		"district": "เสลภูมิ",
		"lat": 16.0474745,
		"lng": 103.98402
	},
	{
		"id": "533",
		"zip": "45130",
		"province": "ร้อยเอ็ด",
		"district": "สุวรรณภูมิ",
		"lat": 15.5789814,
		"lng": 103.7752634
	},
	{
		"id": "534",
		"zip": "45220",
		"province": "ร้อยเอ็ด",
		"district": "เมืองสรวง",
		"lat": 15.7869648,
		"lng": 103.752088
	},
	{
		"id": "535",
		"zip": "45240",
		"province": "ร้อยเอ็ด",
		"district": "โพนทราย",
		"lat": 15.4998892,
		"lng": 103.9376021
	},
	{
		"id": "536",
		"zip": "45160",
		"province": "ร้อยเอ็ด",
		"district": "อาจสามารถ",
		"lat": 15.836139,
		"lng": 103.8796018
	},
	{
		"id": "537",
		"zip": "45250",
		"province": "ร้อยเอ็ด",
		"district": "เมยวดี",
		"lat": 16.3966621,
		"lng": 104.1756573
	},
	{
		"id": "538",
		"zip": "45000",
		"province": "ร้อยเอ็ด",
		"district": "ศรีสมเด็จ",
		"lat": 15.9706018,
		"lng": 103.4687168
	},
	{
		"id": "539",
		"zip": "45280",
		"province": "ร้อยเอ็ด",
		"district": "ศรีสมเด็จ",
		"lat": 15.9432031,
		"lng": 103.5103481
	},
	{
		"id": "540",
		"zip": "45000",
		"province": "ร้อยเอ็ด",
		"district": "จังหาร",
		"lat": 16.1360901,
		"lng": 103.5957596
	},
	{
		"id": "541",
		"zip": "45000",
		"province": "ร้อยเอ็ด",
		"district": "เชียงขวัญ",
		"lat": 16.1820403,
		"lng": 103.7214955
	},
	{
		"id": "542",
		"zip": "45170",
		"province": "ร้อยเอ็ด",
		"district": "เชียงขวัญ",
		"lat": 16.1546945,
		"lng": 103.752088
	},
	{
		"id": "543",
		"zip": "45140",
		"province": "ร้อยเอ็ด",
		"district": "หนองฮี",
		"lat": 15.6221834,
		"lng": 103.9956269
	},
	{
		"id": "544",
		"zip": "45170",
		"province": "ร้อยเอ็ด",
		"district": "ทุ่งเขาหลวง",
		"lat": 16.0214032,
		"lng": 103.8564085
	},
	{
		"id": "545",
		"zip": "46000",
		"province": "กาฬสินธุ์",
		"district": "เมืองกาฬสินธุ์",
		"lat": 16.438508,
		"lng": 103.5060994
	},
	{
		"id": "546",
		"zip": "46230",
		"province": "กาฬสินธุ์",
		"district": "นามน",
		"lat": 16.5553936,
		"lng": 103.7868526
	},
	{
		"id": "547",
		"zip": "46130",
		"province": "กาฬสินธุ์",
		"district": "กมลาไสย",
		"lat": 16.3171804,
		"lng": 103.5552603
	},
	{
		"id": "548",
		"zip": "46210",
		"province": "กาฬสินธุ์",
		"district": "ร่องคำ",
		"lat": 16.2766583,
		"lng": 103.7347091
	},
	{
		"id": "549",
		"zip": "46110",
		"province": "กาฬสินธุ์",
		"district": "กุฉินารายณ์",
		"lat": 16.504382,
		"lng": 104.0304535
	},
	{
		"id": "550",
		"zip": "46160",
		"province": "กาฬสินธุ์",
		"district": "เขาวง",
		"lat": 16.6822686,
		"lng": 104.1233667
	},
	{
		"id": "551",
		"zip": "46120",
		"province": "กาฬสินธุ์",
		"district": "ยางตลาด",
		"lat": 16.4003968,
		"lng": 103.3712281
	},
	{
		"id": "552",
		"zip": "46170",
		"province": "กาฬสินธุ์",
		"district": "ห้วยเม็ก",
		"lat": 16.5564748,
		"lng": 103.2432632
	},
	{
		"id": "553",
		"zip": "46140",
		"province": "กาฬสินธุ์",
		"district": "สหัสขันธ์",
		"lat": 16.7323365,
		"lng": 103.5552603
	},
	{
		"id": "554",
		"zip": "46180",
		"province": "กาฬสินธุ์",
		"district": "คำม่วง",
		"lat": 16.9447497,
		"lng": 103.6594267
	},
	{
		"id": "555",
		"zip": "46190",
		"province": "กาฬสินธุ์",
		"district": "ท่าคันโท",
		"lat": 16.9331709,
		"lng": 103.2259525
	},
	{
		"id": "556",
		"zip": "46220",
		"province": "กาฬสินธุ์",
		"district": "หนองกุงศรี",
		"lat": 16.6335739,
		"lng": 103.3009828
	},
	{
		"id": "557",
		"zip": "46150",
		"province": "กาฬสินธุ์",
		"district": "สมเด็จ",
		"lat": 16.7274697,
		"lng": 103.7358989
	},
	{
		"id": "558",
		"zip": "46240",
		"province": "กาฬสินธุ์",
		"district": "ห้วยผึ้ง",
		"lat": 16.663973,
		"lng": 103.9071489
	},
	{
		"id": "559",
		"zip": "46180",
		"province": "กาฬสินธุ์",
		"district": "สามชัย",
		"lat": 16.863677,
		"lng": 103.5366457
	},
	{
		"id": "560",
		"zip": "46160",
		"province": "กาฬสินธุ์",
		"district": "นาคู",
		"lat": 16.8085029,
		"lng": 104.04787
	},
	{
		"id": "561",
		"zip": "46000",
		"province": "กาฬสินธุ์",
		"district": "ดอนจาน",
		"lat": 16.4232826,
		"lng": 103.6941672
	},
	{
		"id": "562",
		"zip": "46130",
		"province": "กาฬสินธุ์",
		"district": "ฆ้องชัย",
		"lat": 16.252555,
		"lng": 103.485862
	},
	{
		"id": "563",
		"zip": "47000",
		"province": "สกลนคร",
		"district": "เมืองสกลนคร",
		"lat": 17.1435494,
		"lng": 104.1233667
	},
	{
		"id": "564",
		"zip": "47220",
		"province": "สกลนคร",
		"district": "เมืองสกลนคร",
		"lat": 17.2457941,
		"lng": 103.98402
	},
	{
		"id": "565",
		"zip": "47230",
		"province": "สกลนคร",
		"district": "เมืองสกลนคร",
		"lat": 17.2259391,
		"lng": 104.262851
	},
	{
		"id": "566",
		"zip": "47210",
		"province": "สกลนคร",
		"district": "กุสุมาลย์",
		"lat": 17.3577323,
		"lng": 104.3559158
	},
	{
		"id": "567",
		"zip": "47230",
		"province": "สกลนคร",
		"district": "กุสุมาลย์",
		"lat": 17.3239443,
		"lng": 104.3442794
	},
	{
		"id": "568",
		"zip": "47180",
		"province": "สกลนคร",
		"district": "กุดบาก",
		"lat": 17.085,
		"lng": 103.8016667
	},
	{
		"id": "569",
		"zip": "47130",
		"province": "สกลนคร",
		"district": "พรรณานิคม",
		"lat": 17.3233062,
		"lng": 103.8680047
	},
	{
		"id": "570",
		"zip": "47220",
		"province": "สกลนคร",
		"district": "พรรณานิคม",
		"lat": 17.2457941,
		"lng": 103.98402
	},
	{
		"id": "571",
		"zip": "47160",
		"province": "สกลนคร",
		"district": "พังโคน",
		"lat": 17.375525,
		"lng": 103.6999581
	},
	{
		"id": "572",
		"zip": "47150",
		"province": "สกลนคร",
		"district": "วาริชภูมิ",
		"lat": 17.2361032,
		"lng": 103.6246954
	},
	{
		"id": "573",
		"zip": "47270",
		"province": "สกลนคร",
		"district": "นิคมน้ำอูน",
		"lat": 17.1727135,
		"lng": 103.7057493
	},
	{
		"id": "574",
		"zip": "47120",
		"province": "สกลนคร",
		"district": "วานรนิวาส",
		"lat": 17.644742,
		"lng": 103.7405019
	},
	{
		"id": "575",
		"zip": "47250",
		"province": "สกลนคร",
		"district": "คำตากล้า",
		"lat": 17.8143982,
		"lng": 103.7984428
	},
	{
		"id": "576",
		"zip": "47140",
		"province": "สกลนคร",
		"district": "บ้านม่วง",
		"lat": 17.9053046,
		"lng": 103.4974258
	},
	{
		"id": "577",
		"zip": "47170",
		"province": "สกลนคร",
		"district": "อากาศอำนวย",
		"lat": 17.686931,
		"lng": 103.9608091
	},
	{
		"id": "578",
		"zip": "47110",
		"province": "สกลนคร",
		"district": "สว่างแดนดิน",
		"lat": 17.4479326,
		"lng": 103.4049445
	},
	{
		"id": "579",
		"zip": "47240",
		"province": "สกลนคร",
		"district": "สว่างแดนดิน",
		"lat": 17.4567874,
		"lng": 103.6131203
	},
	{
		"id": "580",
		"zip": "47190",
		"province": "สกลนคร",
		"district": "ส่องดาว",
		"lat": 17.3397564,
		"lng": 103.4627375
	},
	{
		"id": "581",
		"zip": "47260",
		"province": "สกลนคร",
		"district": "เต่างอย",
		"lat": 16.993967,
		"lng": 104.1989038
	},
	{
		"id": "582",
		"zip": "47280",
		"province": "สกลนคร",
		"district": "โคกศรีสุพรรณ",
		"lat": 17.0380098,
		"lng": 104.3093759
	},
	{
		"id": "583",
		"zip": "47290",
		"province": "สกลนคร",
		"district": "เจริญศิลป์",
		"lat": 17.5650372,
		"lng": 103.5552603
	},
	{
		"id": "584",
		"zip": "47230",
		"province": "สกลนคร",
		"district": "โพนนาแก้ว",
		"lat": 17.2201778,
		"lng": 104.2909717
	},
	{
		"id": "585",
		"zip": "47180",
		"province": "สกลนคร",
		"district": "ภูพาน",
		"lat": 17.0950622,
		"lng": 103.9606994
	},
	{
		"id": "586",
		"zip": "48000",
		"province": "นครพนม",
		"district": "เมืองนครพนม",
		"lat": 17.3798237,
		"lng": 104.6821048
	},
	{
		"id": "587",
		"zip": "48160",
		"province": "นครพนม",
		"district": "ปลาปาก",
		"lat": 17.1843004,
		"lng": 104.5189214
	},
	{
		"id": "588",
		"zip": "48120",
		"province": "นครพนม",
		"district": "ท่าอุเทน",
		"lat": 17.6280795,
		"lng": 104.4490398
	},
	{
		"id": "589",
		"zip": "48140",
		"province": "นครพนม",
		"district": "บ้านแพง",
		"lat": 17.9630254,
		"lng": 104.222154
	},
	{
		"id": "590",
		"zip": "48110",
		"province": "นครพนม",
		"district": "ธาตุพนม",
		"lat": 16.9487975,
		"lng": 104.7248076
	},
	{
		"id": "591",
		"zip": "48170",
		"province": "นครพนม",
		"district": "เรณูนคร",
		"lat": 17.0471522,
		"lng": 104.6804334
	},
	{
		"id": "592",
		"zip": "48130",
		"province": "นครพนม",
		"district": "นาแก",
		"lat": 16.8863767,
		"lng": 104.4956239
	},
	{
		"id": "593",
		"zip": "48150",
		"province": "นครพนม",
		"district": "ศรีสงคราม",
		"lat": 17.6294217,
		"lng": 104.2744808
	},
	{
		"id": "594",
		"zip": "48180",
		"province": "นครพนม",
		"district": "นาหว้า",
		"lat": 17.4777267,
		"lng": 104.1349852
	},
	{
		"id": "595",
		"zip": "48190",
		"province": "นครพนม",
		"district": "โพนสวรรค์",
		"lat": 17.4539619,
		"lng": 104.4606845
	},
	{
		"id": "596",
		"zip": "48140",
		"province": "นครพนม",
		"district": "นาทม",
		"lat": 17.8315539,
		"lng": 104.0420642
	},
	{
		"id": "597",
		"zip": "48130",
		"province": "นครพนม",
		"district": "วังยาง",
		"lat": 17.046531,
		"lng": 104.4315746
	},
	{
		"id": "598",
		"zip": "49000",
		"province": "มุกดาหาร",
		"district": "เมืองมุกดาหาร",
		"lat": 16.537152,
		"lng": 104.7154762
	},
	{
		"id": "599",
		"zip": "49130",
		"province": "มุกดาหาร",
		"district": "นิคมคำสร้อย",
		"lat": 16.3355896,
		"lng": 104.5597007
	},
	{
		"id": "600",
		"zip": "49120",
		"province": "มุกดาหาร",
		"district": "ดอนตาล",
		"lat": 16.3112941,
		"lng": 104.8221147
	},
	{
		"id": "601",
		"zip": "49140",
		"province": "มุกดาหาร",
		"district": "ดงหลวง",
		"lat": 16.8279683,
		"lng": 104.5072722
	},
	{
		"id": "602",
		"zip": "49110",
		"province": "มุกดาหาร",
		"district": "คำชะอี",
		"lat": 16.5399822,
		"lng": 104.3391166
	},
	{
		"id": "603",
		"zip": "49150",
		"province": "มุกดาหาร",
		"district": "หว้านใหญ่",
		"lat": 16.7137921,
		"lng": 104.7345937
	},
	{
		"id": "604",
		"zip": "49160",
		"province": "มุกดาหาร",
		"district": "หนองสูง",
		"lat": 16.485,
		"lng": 104.3536111
	},
	{
		"id": "605",
		"zip": "50200",
		"province": "เชียงใหม่",
		"district": "เมืองเชียงใหม่",
		"lat": 18.7952345,
		"lng": 98.9355737
	},
	{
		"id": "606",
		"zip": "50100",
		"province": "เชียงใหม่",
		"district": "เมืองเชียงใหม่",
		"lat": 18.7688553,
		"lng": 98.9754318
	},
	{
		"id": "607",
		"zip": "50300",
		"province": "เชียงใหม่",
		"district": "เมืองเชียงใหม่",
		"lat": 18.8160541,
		"lng": 98.9848536
	},
	{
		"id": "608",
		"zip": "50000",
		"province": "เชียงใหม่",
		"district": "เมืองเชียงใหม่",
		"lat": 18.7853577,
		"lng": 99.0184183
	},
	{
		"id": "609",
		"zip": "50160",
		"province": "เชียงใหม่",
		"district": "จอมทอง",
		"lat": 18.4687853,
		"lng": 98.6160674
	},
	{
		"id": "610",
		"zip": "50240",
		"province": "เชียงใหม่",
		"district": "จอมทอง",
		"lat": 18.4204633,
		"lng": 98.6724282
	},
	{
		"id": "611",
		"zip": "50270",
		"province": "เชียงใหม่",
		"district": "แม่แจ่ม",
		"lat": 18.7142442,
		"lng": 98.3964938
	},
	{
		"id": "612",
		"zip": "50170",
		"province": "เชียงใหม่",
		"district": "เชียงดาว",
		"lat": 19.3483988,
		"lng": 98.964938
	},
	{
		"id": "613",
		"zip": "50220",
		"province": "เชียงใหม่",
		"district": "ดอยสะเก็ด",
		"lat": 18.8629982,
		"lng": 99.1148431
	},
	{
		"id": "614",
		"zip": "50150",
		"province": "เชียงใหม่",
		"district": "แม่แตง",
		"lat": 19.2102028,
		"lng": 98.8803925
	},
	{
		"id": "615",
		"zip": "50330",
		"province": "เชียงใหม่",
		"district": "แม่แตง",
		"lat": 19.0012652,
		"lng": 98.8142264
	},
	{
		"id": "616",
		"zip": "50180",
		"province": "เชียงใหม่",
		"district": "แม่ริม",
		"lat": 18.9028017,
		"lng": 98.9024603
	},
	{
		"id": "617",
		"zip": "50330",
		"province": "เชียงใหม่",
		"district": "แม่ริม",
		"lat": 19.0012652,
		"lng": 98.8142264
	},
	{
		"id": "618",
		"zip": "50250",
		"province": "เชียงใหม่",
		"district": "สะเมิง",
		"lat": 18.9399005,
		"lng": 98.6160674
	},
	{
		"id": "619",
		"zip": "50110",
		"province": "เชียงใหม่",
		"district": "ฝาง",
		"lat": 19.9516363,
		"lng": 99.1456153
	},
	{
		"id": "620",
		"zip": "50320",
		"province": "เชียงใหม่",
		"district": "ฝาง",
		"lat": 19.6685705,
		"lng": 99.1456153
	},
	{
		"id": "621",
		"zip": "50280",
		"province": "เชียงใหม่",
		"district": "แม่อาย",
		"lat": 20.0638367,
		"lng": 99.2563859
	},
	{
		"id": "622",
		"zip": "50190",
		"province": "เชียงใหม่",
		"district": "พร้าว",
		"lat": 19.2869151,
		"lng": 99.2342196
	},
	{
		"id": "623",
		"zip": "50120",
		"province": "เชียงใหม่",
		"district": "สันป่าตอง",
		"lat": 18.573179,
		"lng": 98.9024603
	},
	{
		"id": "624",
		"zip": "50130",
		"province": "เชียงใหม่",
		"district": "สันกำแพง",
		"lat": 18.7448892,
		"lng": 99.0863932
	},
	{
		"id": "625",
		"zip": "50210",
		"province": "เชียงใหม่",
		"district": "สันทราย",
		"lat": 18.8942314,
		"lng": 99.0792263
	},
	{
		"id": "626",
		"zip": "50290",
		"province": "เชียงใหม่",
		"district": "สันทราย",
		"lat": 18.9927525,
		"lng": 98.9907938
	},
	{
		"id": "627",
		"zip": "50230",
		"province": "เชียงใหม่",
		"district": "หางดง",
		"lat": 18.714302,
		"lng": 98.9396534
	},
	{
		"id": "628",
		"zip": "50340",
		"province": "เชียงใหม่",
		"district": "หางดง",
		"lat": 18.6125309,
		"lng": 98.941094
	},
	{
		"id": "629",
		"zip": "50240",
		"province": "เชียงใหม่",
		"district": "ฮอด",
		"lat": 18.1055904,
		"lng": 98.5830907
	},
	{
		"id": "630",
		"zip": "50260",
		"province": "เชียงใหม่",
		"district": "ดอยเต่า",
		"lat": 17.9442219,
		"lng": 98.6435589
	},
	{
		"id": "631",
		"zip": "50310",
		"province": "เชียงใหม่",
		"district": "อมก๋อย",
		"lat": 17.9158197,
		"lng": 98.352656
	},
	{
		"id": "632",
		"zip": "50140",
		"province": "เชียงใหม่",
		"district": "สารภี",
		"lat": 18.7080539,
		"lng": 99.0349977
	},
	{
		"id": "633",
		"zip": "50350",
		"province": "เชียงใหม่",
		"district": "เวียงแหง",
		"lat": 19.5759617,
		"lng": 98.6273205
	},
	{
		"id": "634",
		"zip": "50320",
		"province": "เชียงใหม่",
		"district": "ไชยปราการ",
		"lat": 19.7324423,
		"lng": 99.1409117
	},
	{
		"id": "635",
		"zip": "50360",
		"province": "เชียงใหม่",
		"district": "แม่วาง",
		"lat": 18.6796993,
		"lng": 98.6380598
	},
	{
		"id": "636",
		"zip": "50130",
		"province": "เชียงใหม่",
		"district": "แม่ออน",
		"lat": 18.7425957,
		"lng": 99.1118631
	},
	{
		"id": "637",
		"zip": "50160",
		"province": "เชียงใหม่",
		"district": "ดอยหล่อ",
		"lat": 18.4729631,
		"lng": 98.7811645
	},
	{
		"id": "638",
		"zip": "58130",
		"province": "เชียงใหม่",
		"district": "กัลยาณิวัฒนา",
		"lat": 18.978506,
		"lng": 98.2869478
	},
	{
		"id": "639",
		"zip": "51000",
		"province": "ลำพูน",
		"district": "เมืองลำพูน",
		"lat": 18.5744058,
		"lng": 99.0087343
	},
	{
		"id": "640",
		"zip": "51150",
		"province": "ลำพูน",
		"district": "เมืองลำพูน",
		"lat": 18.5726,
		"lng": 99.000902
	},
	{
		"id": "641",
		"zip": "51140",
		"province": "ลำพูน",
		"district": "แม่ทา",
		"lat": 18.4214923,
		"lng": 99.1234795
	},
	{
		"id": "642",
		"zip": "51170",
		"province": "ลำพูน",
		"district": "แม่ทา",
		"lat": 18.3316768,
		"lng": 99.0349977
	},
	{
		"id": "643",
		"zip": "51130",
		"province": "ลำพูน",
		"district": "บ้านโฮ่ง",
		"lat": 18.3062391,
		"lng": 98.8252502
	},
	{
		"id": "644",
		"zip": "51110",
		"province": "ลำพูน",
		"district": "ลี้",
		"lat": 17.7822278,
		"lng": 98.9797467
	},
	{
		"id": "645",
		"zip": "51160",
		"province": "ลำพูน",
		"district": "ทุ่งหัวช้าง",
		"lat": 18.0027045,
		"lng": 99.0349977
	},
	{
		"id": "646",
		"zip": "51120",
		"province": "ลำพูน",
		"district": "ป่าซาง",
		"lat": 18.5237158,
		"lng": 98.9397379
	},
	{
		"id": "647",
		"zip": "51180",
		"province": "ลำพูน",
		"district": "บ้านธิ",
		"lat": 18.6197909,
		"lng": 99.1566855
	},
	{
		"id": "648",
		"zip": "51120",
		"province": "ลำพูน",
		"district": "เวียงหนองล่อง",
		"lat": 18.4264929,
		"lng": 98.7840155
	},
	{
		"id": "649",
		"zip": "52000",
		"province": "ลำปาง",
		"district": "เมืองลำปาง",
		"lat": 18.4219661,
		"lng": 99.5896043
	},
	{
		"id": "650",
		"zip": "52100",
		"province": "ลำปาง",
		"district": "เมืองลำปาง",
		"lat": 18.406291,
		"lng": 99.4339343
	},
	{
		"id": "651",
		"zip": "52220",
		"province": "ลำปาง",
		"district": "แม่เมาะ",
		"lat": 18.4082257,
		"lng": 99.8571416
	},
	{
		"id": "652",
		"zip": "52130",
		"province": "ลำปาง",
		"district": "เกาะคา",
		"lat": 18.181371,
		"lng": 99.3506604
	},
	{
		"id": "653",
		"zip": "52210",
		"province": "ลำปาง",
		"district": "เสริมงาม",
		"lat": 18.0679495,
		"lng": 99.1456153
	},
	{
		"id": "654",
		"zip": "52110",
		"province": "ลำปาง",
		"district": "งาว",
		"lat": 18.7767838,
		"lng": 99.9698029
	},
	{
		"id": "655",
		"zip": "52120",
		"province": "ลำปาง",
		"district": "แจ้ห่ม",
		"lat": 18.6893329,
		"lng": 99.6452714
	},
	{
		"id": "656",
		"zip": "52140",
		"province": "ลำปาง",
		"district": "วังเหนือ",
		"lat": 19.0755958,
		"lng": 99.6786894
	},
	{
		"id": "657",
		"zip": "52160",
		"province": "ลำปาง",
		"district": "เถิน",
		"lat": 17.5903289,
		"lng": 99.3229213
	},
	{
		"id": "658",
		"zip": "52230",
		"province": "ลำปาง",
		"district": "เถิน",
		"lat": 17.4335464,
		"lng": 99.1677572
	},
	{
		"id": "659",
		"zip": "52180",
		"province": "ลำปาง",
		"district": "แม่พริก",
		"lat": 17.5089364,
		"lng": 99.0571089
	},
	{
		"id": "660",
		"zip": "52150",
		"province": "ลำปาง",
		"district": "แม่ทะ",
		"lat": 18.1886444,
		"lng": 99.5351236
	},
	{
		"id": "661",
		"zip": "52170",
		"province": "ลำปาง",
		"district": "สบปราบ",
		"lat": 17.8471851,
		"lng": 99.3451118
	},
	{
		"id": "662",
		"zip": "52190",
		"province": "ลำปาง",
		"district": "ห้างฉัตร",
		"lat": 18.3335049,
		"lng": 99.3617587
	},
	{
		"id": "663",
		"zip": "52240",
		"province": "ลำปาง",
		"district": "เมืองปาน",
		"lat": 18.7936282,
		"lng": 99.4450439
	},
	{
		"id": "664",
		"zip": "53000",
		"province": "อุตรดิตถ์",
		"district": "เมืองอุตรดิตถ์",
		"lat": 17.7332664,
		"lng": 100.2151578
	},
	{
		"id": "665",
		"zip": "53170",
		"province": "อุตรดิตถ์",
		"district": "เมืองอุตรดิตถ์",
		"lat": 17.5469053,
		"lng": 100.0863269
	},
	{
		"id": "666",
		"zip": "53140",
		"province": "อุตรดิตถ์",
		"district": "ตรอน",
		"lat": 17.4835121,
		"lng": 100.1118365
	},
	{
		"id": "667",
		"zip": "53150",
		"province": "อุตรดิตถ์",
		"district": "ท่าปลา",
		"lat": 17.7947452,
		"lng": 100.4072583
	},
	{
		"id": "668",
		"zip": "53190",
		"province": "อุตรดิตถ์",
		"district": "ท่าปลา",
		"lat": 17.7435866,
		"lng": 100.4621366
	},
	{
		"id": "669",
		"zip": "53110",
		"province": "อุตรดิตถ์",
		"district": "ท่าปลา",
		"lat": 17.9061371,
		"lng": 100.4846227
	},
	{
		"id": "670",
		"zip": "53110",
		"province": "อุตรดิตถ์",
		"district": "น้ำปาด",
		"lat": 17.7043083,
		"lng": 100.7548851
	},
	{
		"id": "671",
		"zip": "53160",
		"province": "อุตรดิตถ์",
		"district": "ฟากท่า",
		"lat": 18.0248068,
		"lng": 100.8767282
	},
	{
		"id": "672",
		"zip": "53180",
		"province": "อุตรดิตถ์",
		"district": "บ้านโคก",
		"lat": 18.250185,
		"lng": 101.0259275
	},
	{
		"id": "673",
		"zip": "53120",
		"province": "อุตรดิตถ์",
		"district": "พิชัย",
		"lat": 17.2702191,
		"lng": 100.1255164
	},
	{
		"id": "674",
		"zip": "53220",
		"province": "อุตรดิตถ์",
		"district": "พิชัย",
		"lat": 17.4004634,
		"lng": 100.0919243
	},
	{
		"id": "675",
		"zip": "53130",
		"province": "อุตรดิตถ์",
		"district": "ลับแล",
		"lat": 17.7202883,
		"lng": 100.0135929
	},
	{
		"id": "676",
		"zip": "53210",
		"province": "อุตรดิตถ์",
		"district": "ลับแล",
		"lat": 17.5330645,
		"lng": 100.0135929
	},
	{
		"id": "677",
		"zip": "53230",
		"province": "อุตรดิตถ์",
		"district": "ทองแสนขัน",
		"lat": 17.5414537,
		"lng": 100.3048897
	},
	{
		"id": "678",
		"zip": "54000",
		"province": "แพร่",
		"district": "เมืองแพร่",
		"lat": 18.103139,
		"lng": 100.3048897
	},
	{
		"id": "679",
		"zip": "54140",
		"province": "แพร่",
		"district": "ร้องกวาง",
		"lat": 18.3423505,
		"lng": 100.3178694
	},
	{
		"id": "680",
		"zip": "54150",
		"province": "แพร่",
		"district": "ลอง",
		"lat": 18.0402778,
		"lng": 99.7322222
	},
	{
		"id": "681",
		"zip": "54130",
		"province": "แพร่",
		"district": "สูงเม่น",
		"lat": 18.0435607,
		"lng": 100.1031202
	},
	{
		"id": "682",
		"zip": "54000",
		"province": "แพร่",
		"district": "สูงเม่น",
		"lat": 18.0435607,
		"lng": 100.1031202
	},
	{
		"id": "683",
		"zip": "54110",
		"province": "แพร่",
		"district": "เด่นชัย",
		"lat": 17.9644735,
		"lng": 100.0471549
	},
	{
		"id": "684",
		"zip": "54120",
		"province": "แพร่",
		"district": "สอง",
		"lat": 18.5784068,
		"lng": 100.2244717
	},
	{
		"id": "685",
		"zip": "54160",
		"province": "แพร่",
		"district": "วังชิ้น",
		"lat": 17.8319922,
		"lng": 99.6564092
	},
	{
		"id": "686",
		"zip": "54170",
		"province": "แพร่",
		"district": "หนองม่วงไข่",
		"lat": 18.2613889,
		"lng": 100.1872222
	},
	{
		"id": "687",
		"zip": "55000",
		"province": "น่าน",
		"district": "เมืองน่าน",
		"lat": 18.7756094,
		"lng": 100.7730685
	},
	{
		"id": "688",
		"zip": "55170",
		"province": "น่าน",
		"district": "แม่จริม",
		"lat": 18.7130662,
		"lng": 101.1164452
	},
	{
		"id": "689",
		"zip": "55190",
		"province": "น่าน",
		"district": "บ้านหลวง",
		"lat": 18.868327,
		"lng": 100.4621366
	},
	{
		"id": "690",
		"zip": "55150",
		"province": "น่าน",
		"district": "นาน้อย",
		"lat": 18.3052743,
		"lng": 100.6759772
	},
	{
		"id": "691",
		"zip": "55120",
		"province": "น่าน",
		"district": "ปัว",
		"lat": 19.1651322,
		"lng": 100.9072516
	},
	{
		"id": "692",
		"zip": "55140",
		"province": "น่าน",
		"district": "ท่าวังผา",
		"lat": 19.1096292,
		"lng": 100.7548851
	},
	{
		"id": "693",
		"zip": "55110",
		"province": "น่าน",
		"district": "เวียงสา",
		"lat": 18.6064518,
		"lng": 100.5296115
	},
	{
		"id": "694",
		"zip": "55130",
		"province": "น่าน",
		"district": "ทุ่งช้าง",
		"lat": 19.3915669,
		"lng": 100.9467939
	},
	{
		"id": "695",
		"zip": "55160",
		"province": "น่าน",
		"district": "เชียงกลาง",
		"lat": 19.2877661,
		"lng": 100.8620883
	},
	{
		"id": "696",
		"zip": "55180",
		"province": "น่าน",
		"district": "นาหมื่น",
		"lat": 18.1821215,
		"lng": 100.5746224
	},
	{
		"id": "697",
		"zip": "55210",
		"province": "น่าน",
		"district": "สันติสุข",
		"lat": 18.7915629,
		"lng": 100.7832784
	},
	{
		"id": "698",
		"zip": "55220",
		"province": "น่าน",
		"district": "บ่อเกลือ",
		"lat": 19.3289415,
		"lng": 101.1693793
	},
	{
		"id": "699",
		"zip": "55160",
		"province": "น่าน",
		"district": "สองแคว",
		"lat": 19.3966901,
		"lng": 100.6647101
	},
	{
		"id": "700",
		"zip": "55000",
		"province": "น่าน",
		"district": "ภูเพียง",
		"lat": 18.7980755,
		"lng": 100.8677256
	},
	{
		"id": "701",
		"zip": "55130",
		"province": "น่าน",
		"district": "เฉลิมพระเกียรติ",
		"lat": 18.8672644,
		"lng": 100.4383453
	},
	{
		"id": "702",
		"zip": "56000",
		"province": "พะเยา",
		"district": "เมืองพะเยา",
		"lat": 19.1664466,
		"lng": 99.9019888
	},
	{
		"id": "703",
		"zip": "56150",
		"province": "พะเยา",
		"district": "จุน",
		"lat": 19.4276964,
		"lng": 100.1255164
	},
	{
		"id": "704",
		"zip": "56110",
		"province": "พะเยา",
		"district": "เชียงคำ",
		"lat": 19.4987437,
		"lng": 100.3251564
	},
	{
		"id": "705",
		"zip": "56160",
		"province": "พะเยา",
		"district": "เชียงม่วน",
		"lat": 18.8758954,
		"lng": 100.3273368
	},
	{
		"id": "706",
		"zip": "56120",
		"province": "พะเยา",
		"district": "ดอกคำใต้",
		"lat": 19.1485575,
		"lng": 99.9632741
	},
	{
		"id": "707",
		"zip": "56140",
		"province": "พะเยา",
		"district": "ปง",
		"lat": 19.1182974,
		"lng": 100.1927389
	},
	{
		"id": "708",
		"zip": "56130",
		"province": "พะเยา",
		"district": "แม่ใจ",
		"lat": 19.3755572,
		"lng": 99.7901781
	},
	{
		"id": "709",
		"zip": "56110",
		"province": "พะเยา",
		"district": "ภูซาง",
		"lat": 19.6723498,
		"lng": 100.3722477
	},
	{
		"id": "710",
		"zip": "56000",
		"province": "พะเยา",
		"district": "ภูกามยาว",
		"lat": 19.1651615,
		"lng": 99.8738907
	},
	{
		"id": "711",
		"zip": "57000",
		"province": "เชียงราย",
		"district": "เมืองเชียงราย",
		"lat": 19.9104798,
		"lng": 99.840576
	},
	{
		"id": "712",
		"zip": "57100",
		"province": "เชียงราย",
		"district": "เมืองเชียงราย",
		"lat": 19.9104798,
		"lng": 99.840576
	},
	{
		"id": "713",
		"zip": "57210",
		"province": "เชียงราย",
		"district": "เวียงชัย",
		"lat": 19.8627204,
		"lng": 99.9043743
	},
	{
		"id": "714",
		"zip": "57140",
		"province": "เชียงราย",
		"district": "เชียงของ",
		"lat": 20.1651266,
		"lng": 100.3947116
	},
	{
		"id": "715",
		"zip": "57160",
		"province": "เชียงราย",
		"district": "เทิง",
		"lat": 19.6856774,
		"lng": 100.1974388
	},
	{
		"id": "716",
		"zip": "57230",
		"province": "เชียงราย",
		"district": "เทิง",
		"lat": 19.5961486,
		"lng": 100.0583451
	},
	{
		"id": "717",
		"zip": "57120",
		"province": "เชียงราย",
		"district": "พาน",
		"lat": 19.6357433,
		"lng": 99.7678687
	},
	{
		"id": "718",
		"zip": "57250",
		"province": "เชียงราย",
		"district": "พาน",
		"lat": 19.7447709,
		"lng": 99.7121206
	},
	{
		"id": "719",
		"zip": "57280",
		"province": "เชียงราย",
		"district": "พาน",
		"lat": 19.4808771,
		"lng": 99.8013351
	},
	{
		"id": "720",
		"zip": "57190",
		"province": "เชียงราย",
		"district": "ป่าแดด",
		"lat": 19.5156623,
		"lng": 100.0247788
	},
	{
		"id": "721",
		"zip": "57110",
		"province": "เชียงราย",
		"district": "แม่จัน",
		"lat": 20.0932902,
		"lng": 99.8013351
	},
	{
		"id": "722",
		"zip": "57270",
		"province": "เชียงราย",
		"district": "แม่จัน",
		"lat": 20.2258679,
		"lng": 99.9576849
	},
	{
		"id": "723",
		"zip": "57240",
		"province": "เชียงราย",
		"district": "แม่จัน",
		"lat": 20.2756662,
		"lng": 99.7009754
	},
	{
		"id": "724",
		"zip": "57150",
		"province": "เชียงราย",
		"district": "เชียงแสน",
		"lat": 20.2450245,
		"lng": 100.2375823
	},
	{
		"id": "725",
		"zip": "57130",
		"province": "เชียงราย",
		"district": "แม่สาย",
		"lat": 20.4592635,
		"lng": 99.9422372
	},
	{
		"id": "726",
		"zip": "57220",
		"province": "เชียงราย",
		"district": "แม่สาย",
		"lat": 20.2941665,
		"lng": 99.8962279
	},
	{
		"id": "727",
		"zip": "57180",
		"province": "เชียงราย",
		"district": "แม่สรวย",
		"lat": 19.6701183,
		"lng": 99.5673479
	},
	{
		"id": "728",
		"zip": "57170",
		"province": "เชียงราย",
		"district": "เวียงป่าเป้า",
		"lat": 19.3720454,
		"lng": 99.4117197
	},
	{
		"id": "729",
		"zip": "57260",
		"province": "เชียงราย",
		"district": "เวียงป่าเป้า",
		"lat": 19.1589507,
		"lng": 99.4339343
	},
	{
		"id": "730",
		"zip": "57290",
		"province": "เชียงราย",
		"district": "พญาเม็งราย",
		"lat": 19.8735119,
		"lng": 100.1479182
	},
	{
		"id": "731",
		"zip": "57310",
		"province": "เชียงราย",
		"district": "เวียงแก่น",
		"lat": 19.9964005,
		"lng": 100.4621366
	},
	{
		"id": "732",
		"zip": "57340",
		"province": "เชียงราย",
		"district": "ขุนตาล",
		"lat": 19.8657628,
		"lng": 100.2824483
	},
	{
		"id": "733",
		"zip": "57240",
		"province": "เชียงราย",
		"district": "แม่ฟ้าหลวง",
		"lat": 20.2756662,
		"lng": 99.7009754
	},
	{
		"id": "734",
		"zip": "57110",
		"province": "เชียงราย",
		"district": "แม่ฟ้าหลวง",
		"lat": 19.9489841,
		"lng": 99.7939464
	},
	{
		"id": "735",
		"zip": "57250",
		"province": "เชียงราย",
		"district": "แม่ลาว",
		"lat": 19.7447709,
		"lng": 99.7121206
	},
	{
		"id": "736",
		"zip": "57000",
		"province": "เชียงราย",
		"district": "แม่ลาว",
		"lat": 19.7875492,
		"lng": 99.6598888
	},
	{
		"id": "737",
		"zip": "57210",
		"province": "เชียงราย",
		"district": "เวียงเชียงรุ้ง",
		"lat": 19.9976243,
		"lng": 100.0359661
	},
	{
		"id": "738",
		"zip": "57110",
		"province": "เชียงราย",
		"district": "ดอยหลวง",
		"lat": 20.0838889,
		"lng": 100.0330556
	},
	{
		"id": "739",
		"zip": "58000",
		"province": "แม่ฮ่องสอน",
		"district": "เมืองแม่ฮ่องสอน",
		"lat": 19.2990244,
		"lng": 97.9656213
	},
	{
		"id": "740",
		"zip": "58140",
		"province": "แม่ฮ่องสอน",
		"district": "ขุนยวม",
		"lat": 18.7370307,
		"lng": 97.87216
	},
	{
		"id": "741",
		"zip": "58130",
		"province": "แม่ฮ่องสอน",
		"district": "ปาย",
		"lat": 19.3582191,
		"lng": 98.4404863
	},
	{
		"id": "742",
		"zip": "58110",
		"province": "แม่ฮ่องสอน",
		"district": "แม่สะเรียง",
		"lat": 18.1587905,
		"lng": 97.931419
	},
	{
		"id": "743",
		"zip": "58120",
		"province": "แม่ฮ่องสอน",
		"district": "แม่ลาน้อย",
		"lat": 18.380624,
		"lng": 97.9374948
	},
	{
		"id": "744",
		"zip": "58110",
		"province": "แม่ฮ่องสอน",
		"district": "สบเมย",
		"lat": 17.9114625,
		"lng": 97.8939317
	},
	{
		"id": "745",
		"zip": "58150",
		"province": "แม่ฮ่องสอน",
		"district": "ปางมะผ้า",
		"lat": 19.6208458,
		"lng": 98.1775638
	},
	{
		"id": "746",
		"zip": "60000",
		"province": "นครสวรรค์",
		"district": "เมืองนครสวรรค์",
		"lat": 15.6987382,
		"lng": 100.11996
	},
	{
		"id": "747",
		"zip": "60240",
		"province": "นครสวรรค์",
		"district": "เมืองนครสวรรค์",
		"lat": 15.6987382,
		"lng": 100.11996
	},
	{
		"id": "748",
		"zip": "60170",
		"province": "นครสวรรค์",
		"district": "โกรกพระ",
		"lat": 15.5758351,
		"lng": 100.0801292
	},
	{
		"id": "749",
		"zip": "60120",
		"province": "นครสวรรค์",
		"district": "ชุมแสง",
		"lat": 15.8929623,
		"lng": 100.3006904
	},
	{
		"id": "750",
		"zip": "60250",
		"province": "นครสวรรค์",
		"district": "ชุมแสง",
		"lat": 15.7847827,
		"lng": 100.2712297
	},
	{
		"id": "751",
		"zip": "60110",
		"province": "นครสวรรค์",
		"district": "หนองบัว",
		"lat": 15.8589974,
		"lng": 100.6534443
	},
	{
		"id": "752",
		"zip": "60180",
		"province": "นครสวรรค์",
		"district": "บรรพตพิสัย",
		"lat": 15.9235757,
		"lng": 100.0066295
	},
	{
		"id": "753",
		"zip": "60230",
		"province": "นครสวรรค์",
		"district": "เก้าเลี้ยว",
		"lat": 15.8413525,
		"lng": 100.0745343
	},
	{
		"id": "754",
		"zip": "60140",
		"province": "นครสวรรค์",
		"district": "ตาคลี",
		"lat": 15.2461111,
		"lng": 100.3361111
	},
	{
		"id": "755",
		"zip": "60210",
		"province": "นครสวรรค์",
		"district": "ตาคลี",
		"lat": 15.1756734,
		"lng": 100.4284178
	},
	{
		"id": "756",
		"zip": "60260",
		"province": "นครสวรรค์",
		"district": "ตาคลี",
		"lat": 15.2446435,
		"lng": 100.3542467
	},
	{
		"id": "757",
		"zip": "60160",
		"province": "นครสวรรค์",
		"district": "ท่าตะโก",
		"lat": 15.6428938,
		"lng": 100.4894759
	},
	{
		"id": "758",
		"zip": "60220",
		"province": "นครสวรรค์",
		"district": "ไพศาลี",
		"lat": 15.6251826,
		"lng": 100.6985155
	},
	{
		"id": "759",
		"zip": "60130",
		"province": "นครสวรรค์",
		"district": "พยุหะคีรี",
		"lat": 15.4581338,
		"lng": 100.1369572
	},
	{
		"id": "760",
		"zip": "60150",
		"province": "นครสวรรค์",
		"district": "ลาดยาว",
		"lat": 15.7631488,
		"lng": 99.7344154
	},
	{
		"id": "761",
		"zip": "60190",
		"province": "นครสวรรค์",
		"district": "ตากฟ้า",
		"lat": 15.3705253,
		"lng": 100.4621366
	},
	{
		"id": "762",
		"zip": "60150",
		"province": "นครสวรรค์",
		"district": "แม่วงก์",
		"lat": 15.7821908,
		"lng": 99.5673479
	},
	{
		"id": "763",
		"zip": "60150",
		"province": "นครสวรรค์",
		"district": "แม่เปิน",
		"lat": 15.6970407,
		"lng": 99.389511
	},
	{
		"id": "764",
		"zip": "60150",
		"province": "นครสวรรค์",
		"district": "ชุมตาบง",
		"lat": 15.6085632,
		"lng": 99.5562219
	},
	{
		"id": "765",
		"zip": "61000",
		"province": "อุทัยธานี",
		"district": "เมืองอุทัยธานี",
		"lat": 15.4375499,
		"lng": 100.0135929
	},
	{
		"id": "766",
		"zip": "61120",
		"province": "อุทัยธานี",
		"district": "ทัพทัน",
		"lat": 15.462908,
		"lng": 99.8895173
	},
	{
		"id": "767",
		"zip": "61150",
		"province": "อุทัยธานี",
		"district": "สว่างอารมณ์",
		"lat": 15.5493633,
		"lng": 99.8459774
	},
	{
		"id": "768",
		"zip": "61110",
		"province": "อุทัยธานี",
		"district": "หนองฉาง",
		"lat": 15.3549041,
		"lng": 99.7901781
	},
	{
		"id": "769",
		"zip": "61170",
		"province": "อุทัยธานี",
		"district": "หนองฉาง",
		"lat": 15.3549041,
		"lng": 99.7901781
	},
	{
		"id": "770",
		"zip": "61130",
		"province": "อุทัยธานี",
		"district": "หนองขาหย่าง",
		"lat": 15.3620878,
		"lng": 99.9394424
	},
	{
		"id": "771",
		"zip": "61140",
		"province": "อุทัยธานี",
		"district": "บ้านไร่",
		"lat": 15.262799,
		"lng": 99.2342196
	},
	{
		"id": "772",
		"zip": "61180",
		"province": "อุทัยธานี",
		"district": "บ้านไร่",
		"lat": 15.2106236,
		"lng": 99.6608609
	},
	{
		"id": "773",
		"zip": "61160",
		"province": "อุทัยธานี",
		"district": "ลานสัก",
		"lat": 15.4681655,
		"lng": 99.5375509
	},
	{
		"id": "774",
		"zip": "61170",
		"province": "อุทัยธานี",
		"district": "ห้วยคต",
		"lat": 15.2438889,
		"lng": 99.6025
	},
	{
		"id": "775",
		"zip": "62000",
		"province": "กำแพงเพชร",
		"district": "เมืองกำแพงเพชร",
		"lat": 16.4801833,
		"lng": 99.5204467
	},
	{
		"id": "776",
		"zip": "62160",
		"province": "กำแพงเพชร",
		"district": "เมืองกำแพงเพชร",
		"lat": 16.3283075,
		"lng": 99.5784754
	},
	{
		"id": "777",
		"zip": "62150",
		"province": "กำแพงเพชร",
		"district": "ไทรงาม",
		"lat": 16.4768529,
		"lng": 99.890643
	},
	{
		"id": "778",
		"zip": "62180",
		"province": "กำแพงเพชร",
		"district": "คลองลาน",
		"lat": 16.1258945,
		"lng": 99.2714326
	},
	{
		"id": "779",
		"zip": "62130",
		"province": "กำแพงเพชร",
		"district": "ขาณุวรลักษบุรี",
		"lat": 16.0954654,
		"lng": 99.8348146
	},
	{
		"id": "780",
		"zip": "62140",
		"province": "กำแพงเพชร",
		"district": "ขาณุวรลักษบุรี",
		"lat": 16.0571024,
		"lng": 99.7184929
	},
	{
		"id": "781",
		"zip": "62120",
		"province": "กำแพงเพชร",
		"district": "คลองขลุง",
		"lat": 16.2291679,
		"lng": 99.6948781
	},
	{
		"id": "782",
		"zip": "62110",
		"province": "กำแพงเพชร",
		"district": "พรานกระต่าย",
		"lat": 16.6567275,
		"lng": 99.5339744
	},
	{
		"id": "783",
		"zip": "62170",
		"province": "กำแพงเพชร",
		"district": "ลานกระบือ",
		"lat": 16.6177269,
		"lng": 99.8683073
	},
	{
		"id": "784",
		"zip": "62190",
		"province": "กำแพงเพชร",
		"district": "ทรายทองวัฒนา",
		"lat": 16.326027,
		"lng": 99.8794744
	},
	{
		"id": "785",
		"zip": "62120",
		"province": "กำแพงเพชร",
		"district": "ปางศิลาทอง",
		"lat": 16.0244212,
		"lng": 99.3451118
	},
	{
		"id": "786",
		"zip": "62210",
		"province": "กำแพงเพชร",
		"district": "บึงสามัคคี",
		"lat": 16.2863752,
		"lng": 99.9800438
	},
	{
		"id": "787",
		"zip": "62000",
		"province": "กำแพงเพชร",
		"district": "โกสัมพีนคร",
		"lat": 16.626937,
		"lng": 99.3504371
	},
	{
		"id": "788",
		"zip": "63000",
		"province": "ตาก",
		"district": "เมืองตาก",
		"lat": 16.8839446,
		"lng": 99.1259054
	},
	{
		"id": "789",
		"zip": "63120",
		"province": "ตาก",
		"district": "บ้านตาก",
		"lat": 17.0405373,
		"lng": 99.0571089
	},
	{
		"id": "790",
		"zip": "63130",
		"province": "ตาก",
		"district": "สามเงา",
		"lat": 17.2099785,
		"lng": 99.0626377
	},
	{
		"id": "791",
		"zip": "63140",
		"province": "ตาก",
		"district": "แม่ระมาด",
		"lat": 17.1155556,
		"lng": 98.5533333
	},
	{
		"id": "792",
		"zip": "63150",
		"province": "ตาก",
		"district": "ท่าสองยาง",
		"lat": 17.5674553,
		"lng": 97.9230053
	},
	{
		"id": "793",
		"zip": "63110",
		"province": "ตาก",
		"district": "แม่สอด",
		"lat": 16.7019564,
		"lng": 98.5435378
	},
	{
		"id": "794",
		"zip": "63160",
		"province": "ตาก",
		"district": "พบพระ",
		"lat": 16.3901076,
		"lng": 98.6930685
	},
	{
		"id": "795",
		"zip": "63170",
		"province": "ตาก",
		"district": "อุ้มผาง",
		"lat": 15.8794014,
		"lng": 98.9245343
	},
	{
		"id": "796",
		"zip": "63000",
		"province": "ตาก",
		"district": "วังเจ้า",
		"lat": 16.6625992,
		"lng": 99.1456153
	},
	{
		"id": "797",
		"zip": "64000",
		"province": "สุโขทัย",
		"district": "เมืองสุโขทัย",
		"lat": 16.9809658,
		"lng": 99.8348146
	},
	{
		"id": "798",
		"zip": "64220",
		"province": "สุโขทัย",
		"district": "เมืองสุโขทัย",
		"lat": 17.0599864,
		"lng": 99.890643
	},
	{
		"id": "799",
		"zip": "64210",
		"province": "สุโขทัย",
		"district": "เมืองสุโขทัย",
		"lat": 17.034125,
		"lng": 99.7009754
	},
	{
		"id": "800",
		"zip": "64140",
		"province": "สุโขทัย",
		"district": "บ้านด่านลานหอย",
		"lat": 17.1137554,
		"lng": 99.5006143
	},
	{
		"id": "801",
		"zip": "64160",
		"province": "สุโขทัย",
		"district": "คีรีมาศ",
		"lat": 16.8207716,
		"lng": 99.7678687
	},
	{
		"id": "802",
		"zip": "64170",
		"province": "สุโขทัย",
		"district": "กงไกรลาศ",
		"lat": 16.9524358,
		"lng": 99.973995
	},
	{
		"id": "803",
		"zip": "64130",
		"province": "สุโขทัย",
		"district": "ศรีสัชนาลัย",
		"lat": 17.5731838,
		"lng": 99.6786894
	},
	{
		"id": "804",
		"zip": "64190",
		"province": "สุโขทัย",
		"district": "ศรีสัชนาลัย",
		"lat": 17.4373035,
		"lng": 99.8236533
	},
	{
		"id": "805",
		"zip": "64120",
		"province": "สุโขทัย",
		"district": "ศรีสำโรง",
		"lat": 17.1635023,
		"lng": 99.8620233
	},
	{
		"id": "806",
		"zip": "64110",
		"province": "สุโขทัย",
		"district": "สวรรคโลก",
		"lat": 17.3091916,
		"lng": 99.8434475
	},
	{
		"id": "807",
		"zip": "64180",
		"province": "สุโขทัย",
		"district": "ศรีนคร",
		"lat": 17.3593492,
		"lng": 99.9800438
	},
	{
		"id": "808",
		"zip": "64230",
		"province": "สุโขทัย",
		"district": "ทุ่งเสลี่ยม",
		"lat": 17.3168141,
		"lng": 99.6564092
	},
	{
		"id": "809",
		"zip": "64150",
		"province": "สุโขทัย",
		"district": "ทุ่งเสลี่ยม",
		"lat": 17.370034,
		"lng": 99.5228528
	},
	{
		"id": "810",
		"zip": "65000",
		"province": "พิษณุโลก",
		"district": "เมืองพิษณุโลก",
		"lat": 16.8211238,
		"lng": 100.2658516
	},
	{
		"id": "811",
		"zip": "65230",
		"province": "พิษณุโลก",
		"district": "เมืองพิษณุโลก",
		"lat": 16.692411,
		"lng": 100.2487967
	},
	{
		"id": "812",
		"zip": "65120",
		"province": "พิษณุโลก",
		"district": "นครไทย",
		"lat": 17.1337159,
		"lng": 100.8395029
	},
	{
		"id": "813",
		"zip": "65170",
		"province": "พิษณุโลก",
		"district": "ชาติตระการ",
		"lat": 17.310993,
		"lng": 100.6872457
	},
	{
		"id": "814",
		"zip": "65140",
		"province": "พิษณุโลก",
		"district": "บางระกำ",
		"lat": 16.7445704,
		"lng": 100.1367166
	},
	{
		"id": "815",
		"zip": "65240",
		"province": "พิษณุโลก",
		"district": "บางระกำ",
		"lat": 16.7445704,
		"lng": 100.1367166
	},
	{
		"id": "816",
		"zip": "65110",
		"province": "พิษณุโลก",
		"district": "บางกระทุ่ม",
		"lat": 16.5909145,
		"lng": 100.2992789
	},
	{
		"id": "817",
		"zip": "65210",
		"province": "พิษณุโลก",
		"district": "บางกระทุ่ม",
		"lat": 16.5745192,
		"lng": 100.3002059
	},
	{
		"id": "818",
		"zip": "65150",
		"province": "พิษณุโลก",
		"district": "พรหมพิราม",
		"lat": 17.0222158,
		"lng": 100.1815316
	},
	{
		"id": "819",
		"zip": "65180",
		"province": "พิษณุโลก",
		"district": "พรหมพิราม",
		"lat": 17.1451189,
		"lng": 100.1257276
	},
	{
		"id": "820",
		"zip": "65160",
		"province": "พิษณุโลก",
		"district": "วัดโบสถ์",
		"lat": 17.1630379,
		"lng": 100.3947116
	},
	{
		"id": "821",
		"zip": "65130",
		"province": "พิษณุโลก",
		"district": "วังทอง",
		"lat": 16.8254324,
		"lng": 100.4297566
	},
	{
		"id": "822",
		"zip": "65220",
		"province": "พิษณุโลก",
		"district": "วังทอง",
		"lat": 16.9892434,
		"lng": 100.5971361
	},
	{
		"id": "823",
		"zip": "65190",
		"province": "พิษณุโลก",
		"district": "เนินมะปราง",
		"lat": 16.6020807,
		"lng": 100.6534443
	},
	{
		"id": "824",
		"zip": "66000",
		"province": "พิจิตร",
		"district": "เมืองพิจิตร",
		"lat": 16.4418293,
		"lng": 100.3722477
	},
	{
		"id": "825",
		"zip": "66170",
		"province": "พิจิตร",
		"district": "เมืองพิจิตร",
		"lat": 16.3355064,
		"lng": 100.4059456
	},
	{
		"id": "826",
		"zip": "66180",
		"province": "พิจิตร",
		"district": "วังทรายพูน",
		"lat": 16.3962348,
		"lng": 100.5858786
	},
	{
		"id": "827",
		"zip": "66190",
		"province": "พิจิตร",
		"district": "โพธิ์ประทับช้าง",
		"lat": 16.2768808,
		"lng": 100.2423976
	},
	{
		"id": "828",
		"zip": "66110",
		"province": "พิจิตร",
		"district": "ตะพานหิน",
		"lat": 16.2154243,
		"lng": 100.4256085
	},
	{
		"id": "829",
		"zip": "66150",
		"province": "พิจิตร",
		"district": "ตะพานหิน",
		"lat": 16.1539933,
		"lng": 100.5521142
	},
	{
		"id": "830",
		"zip": "66120",
		"province": "พิจิตร",
		"district": "บางมูลนาก",
		"lat": 16.0362738,
		"lng": 100.4087543
	},
	{
		"id": "831",
		"zip": "66210",
		"province": "พิจิตร",
		"district": "บางมูลนาก",
		"lat": 16.0664959,
		"lng": 100.5012511
	},
	{
		"id": "832",
		"zip": "66130",
		"province": "พิจิตร",
		"district": "โพทะเล",
		"lat": 16.1047137,
		"lng": 100.2544044
	},
	{
		"id": "833",
		"zip": "66140",
		"province": "พิจิตร",
		"district": "สามง่าม",
		"lat": 16.5017629,
		"lng": 100.2050471
	},
	{
		"id": "834",
		"zip": "66220",
		"province": "พิจิตร",
		"district": "สามง่าม",
		"lat": 16.5519258,
		"lng": 100.1806832
	},
	{
		"id": "835",
		"zip": "66150",
		"province": "พิจิตร",
		"district": "ทับคล้อ",
		"lat": 16.1539933,
		"lng": 100.5521142
	},
	{
		"id": "836",
		"zip": "66230",
		"province": "พิจิตร",
		"district": "ทับคล้อ",
		"lat": 16.2423643,
		"lng": 100.6421799
	},
	{
		"id": "837",
		"zip": "66160",
		"province": "พิจิตร",
		"district": "สากเหล็ก",
		"lat": 16.4949293,
		"lng": 100.4733789
	},
	{
		"id": "838",
		"zip": "66130",
		"province": "พิจิตร",
		"district": "บึงนาราง",
		"lat": 16.1908333,
		"lng": 100.1413889
	},
	{
		"id": "839",
		"zip": "66210",
		"province": "พิจิตร",
		"district": "ดงเจริญ",
		"lat": 16.0235446,
		"lng": 100.608395
	},
	{
		"id": "840",
		"zip": "66140",
		"province": "พิจิตร",
		"district": "วชิรบารมี",
		"lat": 16.5015931,
		"lng": 100.1031202
	},
	{
		"id": "841",
		"zip": "66220",
		"province": "พิจิตร",
		"district": "วชิรบารมี",
		"lat": 16.5519258,
		"lng": 100.1806832
	},
	{
		"id": "842",
		"zip": "67000",
		"province": "เพชรบูรณ์",
		"district": "เมืองเพชรบูรณ์",
		"lat": 16.3754838,
		"lng": 101.207047
	},
	{
		"id": "843",
		"zip": "67250",
		"province": "เพชรบูรณ์",
		"district": "เมืองเพชรบูรณ์",
		"lat": 16.5758901,
		"lng": 101.1504111
	},
	{
		"id": "844",
		"zip": "67210",
		"province": "เพชรบูรณ์",
		"district": "เมืองเพชรบูรณ์",
		"lat": 16.2190946,
		"lng": 101.0938079
	},
	{
		"id": "845",
		"zip": "67150",
		"province": "เพชรบูรณ์",
		"district": "ชนแดน",
		"lat": 16.1479075,
		"lng": 100.901604
	},
	{
		"id": "846",
		"zip": "67190",
		"province": "เพชรบูรณ์",
		"district": "ชนแดน",
		"lat": 16.1600491,
		"lng": 100.6866965
	},
	{
		"id": "847",
		"zip": "67110",
		"province": "เพชรบูรณ์",
		"district": "หล่มสัก",
		"lat": 16.787692,
		"lng": 101.2089781
	},
	{
		"id": "848",
		"zip": "67120",
		"province": "เพชรบูรณ์",
		"district": "หล่มเก่า",
		"lat": 16.8877073,
		"lng": 101.2273373
	},
	{
		"id": "849",
		"zip": "67130",
		"province": "เพชรบูรณ์",
		"district": "วิเชียรบุรี",
		"lat": 15.9810604,
		"lng": 101.0629039
	},
	{
		"id": "850",
		"zip": "67180",
		"province": "เพชรบูรณ์",
		"district": "วิเชียรบุรี",
		"lat": 15.9810604,
		"lng": 101.0629039
	},
	{
		"id": "851",
		"zip": "67170",
		"province": "เพชรบูรณ์",
		"district": "ศรีเทพ",
		"lat": 15.4601543,
		"lng": 101.1949191
	},
	{
		"id": "852",
		"zip": "67140",
		"province": "เพชรบูรณ์",
		"district": "หนองไผ่",
		"lat": 16.001807,
		"lng": 101.0372376
	},
	{
		"id": "853",
		"zip": "67220",
		"province": "เพชรบูรณ์",
		"district": "หนองไผ่",
		"lat": 16.0823362,
		"lng": 101.048549
	},
	{
		"id": "854",
		"zip": "67160",
		"province": "เพชรบูรณ์",
		"district": "บึงสามพัน",
		"lat": 15.780346,
		"lng": 101.0069175
	},
	{
		"id": "855",
		"zip": "67230",
		"province": "เพชรบูรณ์",
		"district": "บึงสามพัน",
		"lat": 15.780346,
		"lng": 101.0069175
	},
	{
		"id": "856",
		"zip": "67260",
		"province": "เพชรบูรณ์",
		"district": "น้ำหนาว",
		"lat": 16.9128001,
		"lng": 101.5702813
	},
	{
		"id": "857",
		"zip": "67240",
		"province": "เพชรบูรณ์",
		"district": "วังโป่ง",
		"lat": 16.3603106,
		"lng": 100.8338593
	},
	{
		"id": "858",
		"zip": "67270",
		"province": "เพชรบูรณ์",
		"district": "เขาค้อ",
		"lat": 16.6813889,
		"lng": 100.9375
	},
	{
		"id": "859",
		"zip": "67280",
		"province": "เพชรบูรณ์",
		"district": "เขาค้อ",
		"lat": 16.7814154,
		"lng": 101.0033112
	},
	{
		"id": "860",
		"zip": "70000",
		"province": "ราชบุรี",
		"district": "เมืองราชบุรี",
		"lat": 13.5282953,
		"lng": 99.8135584
	},
	{
		"id": "861",
		"zip": "70150",
		"province": "ราชบุรี",
		"district": "จอมบึง",
		"lat": 13.6119882,
		"lng": 99.6118667
	},
	{
		"id": "862",
		"zip": "70180",
		"province": "ราชบุรี",
		"district": "สวนผึ้ง",
		"lat": 13.6034188,
		"lng": 99.2342196
	},
	{
		"id": "863",
		"zip": "70130",
		"province": "ราชบุรี",
		"district": "ดำเนินสะดวก",
		"lat": 13.6306911,
		"lng": 99.9177141
	},
	{
		"id": "864",
		"zip": "70210",
		"province": "ราชบุรี",
		"district": "ดำเนินสะดวก",
		"lat": 13.5782775,
		"lng": 100.0303723
	},
	{
		"id": "865",
		"zip": "70110",
		"province": "ราชบุรี",
		"district": "บ้านโป่ง",
		"lat": 13.8105014,
		"lng": 99.8766825
	},
	{
		"id": "866",
		"zip": "70190",
		"province": "ราชบุรี",
		"district": "บ้านโป่ง",
		"lat": 13.8135176,
		"lng": 99.8633316
	},
	{
		"id": "867",
		"zip": "70160",
		"province": "ราชบุรี",
		"district": "บางแพ",
		"lat": 13.6784265,
		"lng": 99.9576849
	},
	{
		"id": "868",
		"zip": "70120",
		"province": "ราชบุรี",
		"district": "โพธาราม",
		"lat": 13.6965535,
		"lng": 99.8500058
	},
	{
		"id": "869",
		"zip": "70140",
		"province": "ราชบุรี",
		"district": "ปากท่อ",
		"lat": 13.3801622,
		"lng": 99.8403959
	},
	{
		"id": "870",
		"zip": "70170",
		"province": "ราชบุรี",
		"district": "วัดเพลง",
		"lat": 13.4473792,
		"lng": 99.8738907
	},
	{
		"id": "871",
		"zip": "70180",
		"province": "ราชบุรี",
		"district": "บ้านคา",
		"lat": 13.3916523,
		"lng": 99.389511
	},
	{
		"id": "872",
		"zip": "71000",
		"province": "กาญจนบุรี",
		"district": "เมืองกาญจนบุรี",
		"lat": 14.0103702,
		"lng": 99.5624106
	},
	{
		"id": "873",
		"zip": "71190",
		"province": "กาญจนบุรี",
		"district": "เมืองกาญจนบุรี",
		"lat": 14.2464617,
		"lng": 99.2342196
	},
	{
		"id": "874",
		"zip": "71150",
		"province": "กาญจนบุรี",
		"district": "ไทรโยค",
		"lat": 14.403167,
		"lng": 98.7481167
	},
	{
		"id": "875",
		"zip": "71160",
		"province": "กาญจนบุรี",
		"district": "บ่อพลอย",
		"lat": 14.3315804,
		"lng": 99.4117197
	},
	{
		"id": "876",
		"zip": "71220",
		"province": "กาญจนบุรี",
		"district": "บ่อพลอย",
		"lat": 14.4237074,
		"lng": 99.4117197
	},
	{
		"id": "877",
		"zip": "71250",
		"province": "กาญจนบุรี",
		"district": "ศรีสวัสดิ์",
		"lat": 14.5743218,
		"lng": 99.1013498
	},
	{
		"id": "878",
		"zip": "71220",
		"province": "กาญจนบุรี",
		"district": "ศรีสวัสดิ์",
		"lat": 14.6117169,
		"lng": 99.4515643
	},
	{
		"id": "879",
		"zip": "71120",
		"province": "กาญจนบุรี",
		"district": "ท่ามะกา",
		"lat": 13.9317086,
		"lng": 99.7846002
	},
	{
		"id": "880",
		"zip": "71130",
		"province": "กาญจนบุรี",
		"district": "ท่ามะกา",
		"lat": 14.0193338,
		"lng": 99.745565
	},
	{
		"id": "881",
		"zip": "70190",
		"province": "กาญจนบุรี",
		"district": "ท่ามะกา",
		"lat": 13.9145427,
		"lng": 99.7734314
	},
	{
		"id": "882",
		"zip": "71110",
		"province": "กาญจนบุรี",
		"district": "ท่าม่วง",
		"lat": 13.8649215,
		"lng": 99.5896043
	},
	{
		"id": "883",
		"zip": "71130",
		"province": "กาญจนบุรี",
		"district": "ท่าม่วง",
		"lat": 14.0193338,
		"lng": 99.745565
	},
	{
		"id": "884",
		"zip": "71180",
		"province": "กาญจนบุรี",
		"district": "ทองผาภูมิ",
		"lat": 14.772736,
		"lng": 98.7481167
	},
	{
		"id": "885",
		"zip": "71240",
		"province": "กาญจนบุรี",
		"district": "สังขละบุรี",
		"lat": 15.1543047,
		"lng": 98.4537664
	},
	{
		"id": "886",
		"zip": "71140",
		"province": "กาญจนบุรี",
		"district": "พนมทวน",
		"lat": 14.1240285,
		"lng": 99.7121206
	},
	{
		"id": "887",
		"zip": "71170",
		"province": "กาญจนบุรี",
		"district": "พนมทวน",
		"lat": 14.136869,
		"lng": 99.6786894
	},
	{
		"id": "888",
		"zip": "71210",
		"province": "กาญจนบุรี",
		"district": "เลาขวัญ",
		"lat": 14.5569444,
		"lng": 99.7044444
	},
	{
		"id": "889",
		"zip": "71260",
		"province": "กาญจนบุรี",
		"district": "ด่านมะขามเตี้ย",
		"lat": 13.8183104,
		"lng": 99.3118282
	},
	{
		"id": "890",
		"zip": "71220",
		"province": "กาญจนบุรี",
		"district": "หนองปรือ",
		"lat": 14.6025,
		"lng": 99.4530556
	},
	{
		"id": "891",
		"zip": "71170",
		"province": "กาญจนบุรี",
		"district": "ห้วยกระเจา",
		"lat": 14.3361111,
		"lng": 99.6538889
	},
	{
		"id": "892",
		"zip": "72000",
		"province": "สุพรรณบุรี",
		"district": "เมืองสุพรรณบุรี",
		"lat": 14.4861012,
		"lng": 100.1255164
	},
	{
		"id": "893",
		"zip": "72230",
		"province": "สุพรรณบุรี",
		"district": "เมืองสุพรรณบุรี",
		"lat": 14.5139348,
		"lng": 100.0135929
	},
	{
		"id": "894",
		"zip": "72210",
		"province": "สุพรรณบุรี",
		"district": "เมืองสุพรรณบุรี",
		"lat": 14.4118023,
		"lng": 99.9800438
	},
	{
		"id": "895",
		"zip": "72120",
		"province": "สุพรรณบุรี",
		"district": "เดิมบางนางบวช",
		"lat": 14.8908171,
		"lng": 100.0919243
	},
	{
		"id": "896",
		"zip": "72180",
		"province": "สุพรรณบุรี",
		"district": "ด่านช้าง",
		"lat": 14.7983803,
		"lng": 99.5562219
	},
	{
		"id": "897",
		"zip": "72150",
		"province": "สุพรรณบุรี",
		"district": "บางปลาม้า",
		"lat": 14.4060686,
		"lng": 100.1143176
	},
	{
		"id": "898",
		"zip": "72140",
		"province": "สุพรรณบุรี",
		"district": "ศรีประจันต์",
		"lat": 14.6533982,
		"lng": 100.1285257
	},
	{
		"id": "899",
		"zip": "72170",
		"province": "สุพรรณบุรี",
		"district": "ดอนเจดีย์",
		"lat": 14.618048,
		"lng": 100.0024084
	},
	{
		"id": "900",
		"zip": "72250",
		"province": "สุพรรณบุรี",
		"district": "ดอนเจดีย์",
		"lat": 14.6578827,
		"lng": 99.8794744
	},
	{
		"id": "901",
		"zip": "72110",
		"province": "สุพรรณบุรี",
		"district": "สองพี่น้อง",
		"lat": 14.220008,
		"lng": 100.0303723
	},
	{
		"id": "902",
		"zip": "72190",
		"province": "สุพรรณบุรี",
		"district": "สองพี่น้อง",
		"lat": 14.2285331,
		"lng": 100.0175085
	},
	{
		"id": "903",
		"zip": "72130",
		"province": "สุพรรณบุรี",
		"district": "สามชุก",
		"lat": 14.7579513,
		"lng": 100.0975221
	},
	{
		"id": "904",
		"zip": "72160",
		"province": "สุพรรณบุรี",
		"district": "อู่ทอง",
		"lat": 14.4735907,
		"lng": 99.8794744
	},
	{
		"id": "905",
		"zip": "72220",
		"province": "สุพรรณบุรี",
		"district": "อู่ทอง",
		"lat": 14.2536515,
		"lng": 99.9129845
	},
	{
		"id": "906",
		"zip": "72240",
		"province": "สุพรรณบุรี",
		"district": "หนองหญ้าไซ",
		"lat": 14.7611675,
		"lng": 99.890643
	},
	{
		"id": "907",
		"zip": "73000",
		"province": "นครปฐม",
		"district": "เมืองนครปฐม",
		"lat": 13.8140293,
		"lng": 100.0372929
	},
	{
		"id": "908",
		"zip": "73140",
		"province": "นครปฐม",
		"district": "กำแพงแสน",
		"lat": 13.9967993,
		"lng": 99.9857224
	},
	{
		"id": "909",
		"zip": "73180",
		"province": "นครปฐม",
		"district": "กำแพงแสน",
		"lat": 13.9967993,
		"lng": 99.9857224
	},
	{
		"id": "910",
		"zip": "73120",
		"province": "นครปฐม",
		"district": "นครชัยศรี",
		"lat": 13.7921746,
		"lng": 100.1979459
	},
	{
		"id": "911",
		"zip": "73150",
		"province": "นครปฐม",
		"district": "ดอนตูม",
		"lat": 13.9982009,
		"lng": 100.1199168
	},
	{
		"id": "912",
		"zip": "73130",
		"province": "นครปฐม",
		"district": "บางเลน",
		"lat": 14.0073123,
		"lng": 100.1759285
	},
	{
		"id": "913",
		"zip": "73190",
		"province": "นครปฐม",
		"district": "บางเลน",
		"lat": 14.0036484,
		"lng": 100.1642765
	},
	{
		"id": "914",
		"zip": "73110",
		"province": "นครปฐม",
		"district": "สามพราน",
		"lat": 13.7445573,
		"lng": 100.2410976
	},
	{
		"id": "915",
		"zip": "73210",
		"province": "นครปฐม",
		"district": "สามพราน",
		"lat": 13.7570741,
		"lng": 100.2712297
	},
	{
		"id": "916",
		"zip": "73220",
		"province": "นครปฐม",
		"district": "สามพราน",
		"lat": 13.7382692,
		"lng": 100.310501
	},
	{
		"id": "917",
		"zip": "73160",
		"province": "นครปฐม",
		"district": "สามพราน",
		"lat": 13.7040318,
		"lng": 100.2750498
	},
	{
		"id": "918",
		"zip": "73170",
		"province": "นครปฐม",
		"district": "พุทธมณฑล",
		"lat": 13.7767548,
		"lng": 100.3208828
	},
	{
		"id": "919",
		"zip": "74000",
		"province": "สมุทรสาคร",
		"district": "เมืองสมุทรสาคร",
		"lat": 13.5489008,
		"lng": 100.2739306
	},
	{
		"id": "920",
		"zip": "74110",
		"province": "สมุทรสาคร",
		"district": "กระทุ่มแบน",
		"lat": 13.6427173,
		"lng": 100.2712297
	},
	{
		"id": "921",
		"zip": "74130",
		"province": "สมุทรสาคร",
		"district": "กระทุ่มแบน",
		"lat": 13.649209,
		"lng": 100.3470943
	},
	{
		"id": "922",
		"zip": "74120",
		"province": "สมุทรสาคร",
		"district": "บ้านแพ้ว",
		"lat": 13.5904726,
		"lng": 100.1077163
	},
	{
		"id": "923",
		"zip": "75000",
		"province": "สมุทรสงคราม",
		"district": "เมืองสมุทรสงคราม",
		"lat": 13.4094552,
		"lng": 100.0019995
	},
	{
		"id": "924",
		"zip": "75120",
		"province": "สมุทรสงคราม",
		"district": "บางคนที",
		"lat": 13.4775807,
		"lng": 99.9231747
	},
	{
		"id": "925",
		"zip": "75110",
		"province": "สมุทรสงคราม",
		"district": "อัมพวา",
		"lat": 13.3601931,
		"lng": 99.9129845
	},
	{
		"id": "926",
		"zip": "76000",
		"province": "เพชรบุรี",
		"district": "เมืองเพชรบุรี",
		"lat": 13.0957579,
		"lng": 99.9688636
	},
	{
		"id": "927",
		"zip": "76100",
		"province": "เพชรบุรี",
		"district": "เมืองเพชรบุรี",
		"lat": 13.0298805,
		"lng": 100.0527498
	},
	{
		"id": "928",
		"zip": "76140",
		"province": "เพชรบุรี",
		"district": "เขาย้อย",
		"lat": 13.2355556,
		"lng": 99.8258333
	},
	{
		"id": "929",
		"zip": "76160",
		"province": "เพชรบุรี",
		"district": "หนองหญ้าปล้อง",
		"lat": 13.2082073,
		"lng": 99.7121206
	},
	{
		"id": "930",
		"zip": "76120",
		"province": "เพชรบุรี",
		"district": "ชะอำ",
		"lat": 12.799688,
		"lng": 99.9668273
	},
	{
		"id": "931",
		"zip": "76130",
		"province": "เพชรบุรี",
		"district": "ท่ายาง",
		"lat": 12.9558297,
		"lng": 99.9073986
	},
	{
		"id": "932",
		"zip": "76150",
		"province": "เพชรบุรี",
		"district": "บ้านลาด",
		"lat": 13.0553578,
		"lng": 99.8348146
	},
	{
		"id": "933",
		"zip": "76110",
		"province": "เพชรบุรี",
		"district": "บ้านแหลม",
		"lat": 13.1978672,
		"lng": 99.9800438
	},
	{
		"id": "934",
		"zip": "76100",
		"province": "เพชรบุรี",
		"district": "บ้านแหลม",
		"lat": 13.0298805,
		"lng": 100.0527498
	},
	{
		"id": "935",
		"zip": "76170",
		"province": "เพชรบุรี",
		"district": "แก่งกระจาน",
		"lat": 12.8988453,
		"lng": 99.6063006
	},
	{
		"id": "936",
		"zip": "77000",
		"province": "ประจวบคีรีขันธ์",
		"district": "เมืองประจวบคีรีขันธ์",
		"lat": 11.7938389,
		"lng": 99.7957564
	},
	{
		"id": "937",
		"zip": "77210",
		"province": "ประจวบคีรีขันธ์",
		"district": "เมืองประจวบคีรีขันธ์",
		"lat": 11.7938389,
		"lng": 99.7957564
	},
	{
		"id": "938",
		"zip": "77150",
		"province": "ประจวบคีรีขันธ์",
		"district": "กุยบุรี",
		"lat": 12.1275768,
		"lng": 99.7678687
	},
	{
		"id": "939",
		"zip": "77130",
		"province": "ประจวบคีรีขันธ์",
		"district": "ทับสะแก",
		"lat": 11.5259227,
		"lng": 99.5673479
	},
	{
		"id": "940",
		"zip": "77140",
		"province": "ประจวบคีรีขันธ์",
		"district": "บางสะพาน",
		"lat": 11.2124065,
		"lng": 99.5089593
	},
	{
		"id": "941",
		"zip": "77230",
		"province": "ประจวบคีรีขันธ์",
		"district": "บางสะพาน",
		"lat": 11.2622513,
		"lng": 99.389511
	},
	{
		"id": "942",
		"zip": "77190",
		"province": "ประจวบคีรีขันธ์",
		"district": "บางสะพาน",
		"lat": 11.3940426,
		"lng": 99.4783816
	},
	{
		"id": "943",
		"zip": "77170",
		"province": "ประจวบคีรีขันธ์",
		"district": "บางสะพานน้อย",
		"lat": 11.0626883,
		"lng": 99.3229213
	},
	{
		"id": "944",
		"zip": "77120",
		"province": "ประจวบคีรีขันธ์",
		"district": "ปราณบุรี",
		"lat": 12.4607784,
		"lng": 99.7846002
	},
	{
		"id": "945",
		"zip": "77220",
		"province": "ประจวบคีรีขันธ์",
		"district": "ปราณบุรี",
		"lat": 12.3800116,
		"lng": 99.9800438
	},
	{
		"id": "946",
		"zip": "77110",
		"province": "ประจวบคีรีขันธ์",
		"district": "หัวหิน",
		"lat": 12.5683747,
		"lng": 99.9576888
	},
	{
		"id": "947",
		"zip": "77120",
		"province": "ประจวบคีรีขันธ์",
		"district": "สามร้อยยอด",
		"lat": 12.3958358,
		"lng": 99.8571416
	},
	{
		"id": "948",
		"zip": "77180",
		"province": "ประจวบคีรีขันธ์",
		"district": "สามร้อยยอด",
		"lat": 12.266723,
		"lng": 99.8699018
	},
	{
		"id": "949",
		"zip": "80000",
		"province": "นครศรีธรรมราช",
		"district": "เมืองนครศรีธรรมราช",
		"lat": 8.4235956,
		"lng": 99.9618712
	},
	{
		"id": "950",
		"zip": "80280",
		"province": "นครศรีธรรมราช",
		"district": "เมืองนครศรีธรรมราช",
		"lat": 8.457948,
		"lng": 99.8683073
	},
	{
		"id": "951",
		"zip": "80330",
		"province": "นครศรีธรรมราช",
		"district": "เมืองนครศรีธรรมราช",
		"lat": 8.290847,
		"lng": 100.0583451
	},
	{
		"id": "952",
		"zip": "80320",
		"province": "นครศรีธรรมราช",
		"district": "พรหมคีรี",
		"lat": 8.52144,
		"lng": 99.8251398
	},
	{
		"id": "953",
		"zip": "80230",
		"province": "นครศรีธรรมราช",
		"district": "ลานสกา",
		"lat": 8.4063095,
		"lng": 99.7678687
	},
	{
		"id": "954",
		"zip": "80150",
		"province": "นครศรีธรรมราช",
		"district": "ฉวาง",
		"lat": 8.4658558,
		"lng": 99.4928382
	},
	{
		"id": "955",
		"zip": "80250",
		"province": "นครศรีธรรมราช",
		"district": "ฉวาง",
		"lat": 8.3884972,
		"lng": 99.6118667
	},
	{
		"id": "956",
		"zip": "80260",
		"province": "นครศรีธรรมราช",
		"district": "ฉวาง",
		"lat": 8.4277862,
		"lng": 99.5084393
	},
	{
		"id": "957",
		"zip": "80270",
		"province": "นครศรีธรรมราช",
		"district": "พิปูน",
		"lat": 8.5842712,
		"lng": 99.5896043
	},
	{
		"id": "958",
		"zip": "80190",
		"province": "นครศรีธรรมราช",
		"district": "เชียรใหญ่",
		"lat": 8.2085931,
		"lng": 100.1087187
	},
	{
		"id": "959",
		"zip": "80180",
		"province": "นครศรีธรรมราช",
		"district": "ชะอวด",
		"lat": 8.001079,
		"lng": 100.0024084
	},
	{
		"id": "960",
		"zip": "80160",
		"province": "นครศรีธรรมราช",
		"district": "ท่าศาลา",
		"lat": 8.6459062,
		"lng": 99.9409196
	},
	{
		"id": "961",
		"zip": "80110",
		"province": "นครศรีธรรมราช",
		"district": "ทุ่งสง",
		"lat": 8.149005,
		"lng": 99.6786894
	},
	{
		"id": "962",
		"zip": "80310",
		"province": "นครศรีธรรมราช",
		"district": "ทุ่งสง",
		"lat": 8.0306338,
		"lng": 99.6675486
	},
	{
		"id": "963",
		"zip": "80220",
		"province": "นครศรีธรรมราช",
		"district": "นาบอน",
		"lat": 8.2607711,
		"lng": 99.5228528
	},
	{
		"id": "964",
		"zip": "80240",
		"province": "นครศรีธรรมราช",
		"district": "ทุ่งใหญ่",
		"lat": 8.3605689,
		"lng": 99.4228263
	},
	{
		"id": "965",
		"zip": "80140",
		"province": "นครศรีธรรมราช",
		"district": "ปากพนัง",
		"lat": 8.287423,
		"lng": 100.1927389
	},
	{
		"id": "966",
		"zip": "80330",
		"province": "นครศรีธรรมราช",
		"district": "ปากพนัง",
		"lat": 8.290847,
		"lng": 100.0583451
	},
	{
		"id": "967",
		"zip": "80130",
		"province": "นครศรีธรรมราช",
		"district": "ร่อนพิบูลย์",
		"lat": 8.16682,
		"lng": 99.8348146
	},
	{
		"id": "968",
		"zip": "80350",
		"province": "นครศรีธรรมราช",
		"district": "ร่อนพิบูลย์",
		"lat": 8.2631878,
		"lng": 99.8683073
	},
	{
		"id": "969",
		"zip": "80120",
		"province": "นครศรีธรรมราช",
		"district": "สิชล",
		"lat": 9.0077023,
		"lng": 99.891325
	},
	{
		"id": "970",
		"zip": "80340",
		"province": "นครศรีธรรมราช",
		"district": "สิชล",
		"lat": 8.8713786,
		"lng": 99.8459774
	},
	{
		"id": "971",
		"zip": "80210",
		"province": "นครศรีธรรมราช",
		"district": "ขนอม",
		"lat": 9.1938889,
		"lng": 99.8411111
	},
	{
		"id": "972",
		"zip": "80170",
		"province": "นครศรีธรรมราช",
		"district": "หัวไทร",
		"lat": 8.0448717,
		"lng": 100.2844485
	},
	{
		"id": "973",
		"zip": "80360",
		"province": "นครศรีธรรมราช",
		"district": "บางขัน",
		"lat": 7.9806473,
		"lng": 99.5006143
	},
	{
		"id": "974",
		"zip": "80260",
		"province": "นครศรีธรรมราช",
		"district": "ถ้ำพรรณรา",
		"lat": 8.4211022,
		"lng": 99.3839598
	},
	{
		"id": "975",
		"zip": "80180",
		"province": "นครศรีธรรมราช",
		"district": "จุฬาภรณ์",
		"lat": 8.0794544,
		"lng": 99.8794744
	},
	{
		"id": "976",
		"zip": "80130",
		"province": "นครศรีธรรมราช",
		"district": "จุฬาภรณ์",
		"lat": 8.0794544,
		"lng": 99.8794744
	},
	{
		"id": "977",
		"zip": "80000",
		"province": "นครศรีธรรมราช",
		"district": "พระพรหม",
		"lat": 8.3373304,
		"lng": 99.923859
	},
	{
		"id": "978",
		"zip": "80160",
		"province": "นครศรีธรรมราช",
		"district": "นบพิตำ",
		"lat": 8.7220939,
		"lng": 99.7506661
	},
	{
		"id": "979",
		"zip": "80250",
		"province": "นครศรีธรรมราช",
		"district": "ช้างกลาง",
		"lat": 8.3440995,
		"lng": 99.6564092
	},
	{
		"id": "980",
		"zip": "80190",
		"province": "นครศรีธรรมราช",
		"district": "เฉลิมพระเกียรติ",
		"lat": 8.1723748,
		"lng": 100.0471549
	},
	{
		"id": "981",
		"zip": "80290",
		"province": "นครศรีธรรมราช",
		"district": "เฉลิมพระเกียรติ",
		"lat": 8.2166548,
		"lng": 100.0024084
	},
	{
		"id": "982",
		"zip": "81000",
		"province": "กระบี่",
		"district": "เมืองกระบี่",
		"lat": 8.1673273,
		"lng": 98.8803925
	},
	{
		"id": "983",
		"zip": "81140",
		"province": "กระบี่",
		"district": "เขาพนม",
		"lat": 8.2841667,
		"lng": 98.9383333
	},
	{
		"id": "984",
		"zip": "80240",
		"province": "กระบี่",
		"district": "เขาพนม",
		"lat": 8.2459087,
		"lng": 99.2342196
	},
	{
		"id": "985",
		"zip": "81150",
		"province": "กระบี่",
		"district": "เกาะลันตา",
		"lat": 7.6243677,
		"lng": 99.0792263
	},
	{
		"id": "986",
		"zip": "81120",
		"province": "กระบี่",
		"district": "เกาะลันตา",
		"lat": 7.6243677,
		"lng": 99.0792263
	},
	{
		"id": "987",
		"zip": "81120",
		"province": "กระบี่",
		"district": "คลองท่อม",
		"lat": 7.9319346,
		"lng": 99.0912441
	},
	{
		"id": "988",
		"zip": "81170",
		"province": "กระบี่",
		"district": "คลองท่อม",
		"lat": 7.7933796,
		"lng": 99.2120593
	},
	{
		"id": "989",
		"zip": "81110",
		"province": "กระบี่",
		"district": "อ่าวลึก",
		"lat": 8.3425807,
		"lng": 98.7921836
	},
	{
		"id": "990",
		"zip": "81160",
		"province": "กระบี่",
		"district": "ปลายพระยา",
		"lat": 8.5143073,
		"lng": 98.8803925
	},
	{
		"id": "991",
		"zip": "81120",
		"province": "กระบี่",
		"district": "ลำทับ",
		"lat": 8.0820246,
		"lng": 99.3118282
	},
	{
		"id": "992",
		"zip": "81130",
		"province": "กระบี่",
		"district": "เหนือคลอง",
		"lat": 8.0894697,
		"lng": 98.9797467
	},
	{
		"id": "993",
		"zip": "82000",
		"province": "พังงา",
		"district": "เมืองพังงา",
		"lat": 8.4352303,
		"lng": 98.5281613
	},
	{
		"id": "994",
		"zip": "82160",
		"province": "พังงา",
		"district": "เกาะยาว",
		"lat": 8.1191782,
		"lng": 98.6050736
	},
	{
		"id": "995",
		"zip": "83000",
		"province": "พังงา",
		"district": "เกาะยาว",
		"lat": 7.968356,
		"lng": 98.5830907
	},
	{
		"id": "996",
		"zip": "82170",
		"province": "พังงา",
		"district": "กะปง",
		"lat": 8.6431839,
		"lng": 98.4732718
	},
	{
		"id": "997",
		"zip": "82130",
		"province": "พังงา",
		"district": "ตะกั่วทุ่ง",
		"lat": 8.3289957,
		"lng": 98.4184224
	},
	{
		"id": "998",
		"zip": "82140",
		"province": "พังงา",
		"district": "ตะกั่วทุ่ง",
		"lat": 8.2440568,
		"lng": 98.3307468
	},
	{
		"id": "999",
		"zip": "82110",
		"province": "พังงา",
		"district": "ตะกั่วป่า",
		"lat": 8.8964671,
		"lng": 98.3745717
	},
	{
		"id": "1000",
		"zip": "82190",
		"province": "พังงา",
		"district": "ตะกั่วป่า",
		"lat": 8.723617,
		"lng": 98.2869478
	},
	{
		"id": "1001",
		"zip": "82150",
		"province": "พังงา",
		"district": "คุระบุรี",
		"lat": 9.2236913,
		"lng": 98.4403573
	},
	{
		"id": "1002",
		"zip": "82180",
		"province": "พังงา",
		"district": "ทับปุด",
		"lat": 8.5415302,
		"lng": 98.6380598
	},
	{
		"id": "1003",
		"zip": "82120",
		"province": "พังงา",
		"district": "ท้ายเหมือง",
		"lat": 8.4621526,
		"lng": 98.2869478
	},
	{
		"id": "1004",
		"zip": "83000",
		"province": "ภูเก็ต",
		"district": "เมืองภูเก็ต",
		"lat": 7.8741947,
		"lng": 98.3939158
	},
	{
		"id": "1005",
		"zip": "83130",
		"province": "ภูเก็ต",
		"district": "เมืองภูเก็ต",
		"lat": 7.8167345,
		"lng": 98.3400733
	},
	{
		"id": "1006",
		"zip": "83100",
		"province": "ภูเก็ต",
		"district": "เมืองภูเก็ต",
		"lat": 7.8167345,
		"lng": 98.3400733
	},
	{
		"id": "1007",
		"zip": "83120",
		"province": "ภูเก็ต",
		"district": "กะทู้",
		"lat": 7.8969151,
		"lng": 98.3020123
	},
	{
		"id": "1008",
		"zip": "83150",
		"province": "ภูเก็ต",
		"district": "กะทู้",
		"lat": 7.9038781,
		"lng": 98.3033694
	},
	{
		"id": "1009",
		"zip": "83110",
		"province": "ภูเก็ต",
		"district": "ถลาง",
		"lat": 8.0320027,
		"lng": 98.3334626
	},
	{
		"id": "1010",
		"zip": "84000",
		"province": "สุราษฎร์ธานี",
		"district": "เมืองสุราษฎร์ธานี",
		"lat": 9.1367639,
		"lng": 99.3007367
	},
	{
		"id": "1011",
		"zip": "84100",
		"province": "สุราษฎร์ธานี",
		"district": "เมืองสุราษฎร์ธานี",
		"lat": 9.0043911,
		"lng": 99.3451118
	},
	{
		"id": "1012",
		"zip": "84290",
		"province": "สุราษฎร์ธานี",
		"district": "กาญจนดิษฐ์",
		"lat": 9.1066885,
		"lng": 99.406167
	},
	{
		"id": "1013",
		"zip": "84160",
		"province": "สุราษฎร์ธานี",
		"district": "กาญจนดิษฐ์",
		"lat": 9.1073606,
		"lng": 99.5896043
	},
	{
		"id": "1014",
		"zip": "84220",
		"province": "สุราษฎร์ธานี",
		"district": "ดอนสัก",
		"lat": 9.2575877,
		"lng": 99.7009754
	},
	{
		"id": "1015",
		"zip": "84160",
		"province": "สุราษฎร์ธานี",
		"district": "ดอนสัก",
		"lat": 9.2137904,
		"lng": 99.7009754
	},
	{
		"id": "1016",
		"zip": "84340",
		"province": "สุราษฎร์ธานี",
		"district": "ดอนสัก",
		"lat": 9.531208,
		"lng": 99.8628204
	},
	{
		"id": "1017",
		"zip": "84140",
		"province": "สุราษฎร์ธานี",
		"district": "เกาะสมุย",
		"lat": 9.4693943,
		"lng": 99.9688636
	},
	{
		"id": "1018",
		"zip": "84310",
		"province": "สุราษฎร์ธานี",
		"district": "เกาะสมุย",
		"lat": 9.4787677,
		"lng": 100.0247788
	},
	{
		"id": "1019",
		"zip": "84320",
		"province": "สุราษฎร์ธานี",
		"district": "เกาะสมุย",
		"lat": 9.544635,
		"lng": 100.0247788
	},
	{
		"id": "1020",
		"zip": "84330",
		"province": "สุราษฎร์ธานี",
		"district": "เกาะสมุย",
		"lat": 9.5625636,
		"lng": 99.9744535
	},
	{
		"id": "1021",
		"zip": "84280",
		"province": "สุราษฎร์ธานี",
		"district": "เกาะพะงัน",
		"lat": 9.7318753,
		"lng": 100.0135929
	},
	{
		"id": "1022",
		"zip": "84110",
		"province": "สุราษฎร์ธานี",
		"district": "ไชยา",
		"lat": 9.3895033,
		"lng": 99.1957644
	},
	{
		"id": "1023",
		"zip": "84170",
		"province": "สุราษฎร์ธานี",
		"district": "ท่าชนะ",
		"lat": 9.1367384,
		"lng": 99.326928
	},
	{
		"id": "1024",
		"zip": "84180",
		"province": "สุราษฎร์ธานี",
		"district": "คีรีรัฐนิคม",
		"lat": 9.032151,
		"lng": 98.9497191
	},
	{
		"id": "1025",
		"zip": "84230",
		"province": "สุราษฎร์ธานี",
		"district": "บ้านตาขุน",
		"lat": 9.1296714,
		"lng": 98.704075
	},
	{
		"id": "1026",
		"zip": "84250",
		"province": "สุราษฎร์ธานี",
		"district": "พนม",
		"lat": 8.8324975,
		"lng": 98.7811645
	},
	{
		"id": "1027",
		"zip": "84150",
		"province": "สุราษฎร์ธานี",
		"district": "ท่าฉาง",
		"lat": 9.1828363,
		"lng": 99.1314766
	},
	{
		"id": "1028",
		"zip": "84120",
		"province": "สุราษฎร์ธานี",
		"district": "บ้านนาสาร",
		"lat": 8.8185818,
		"lng": 99.3562094
	},
	{
		"id": "1029",
		"zip": "84270",
		"province": "สุราษฎร์ธานี",
		"district": "บ้านนาสาร",
		"lat": 8.7096574,
		"lng": 99.3562094
	},
	{
		"id": "1030",
		"zip": "84240",
		"province": "สุราษฎร์ธานี",
		"district": "บ้านนาเดิม",
		"lat": 8.8744911,
		"lng": 99.3007367
	},
	{
		"id": "1031",
		"zip": "84260",
		"province": "สุราษฎร์ธานี",
		"district": "เคียนซา",
		"lat": 8.791605,
		"lng": 99.1234795
	},
	{
		"id": "1032",
		"zip": "84210",
		"province": "สุราษฎร์ธานี",
		"district": "เคียนซา",
		"lat": 8.7692669,
		"lng": 99.1456153
	},
	{
		"id": "1033",
		"zip": "84190",
		"province": "สุราษฎร์ธานี",
		"district": "เวียงสระ",
		"lat": 8.6427408,
		"lng": 99.4228263
	},
	{
		"id": "1034",
		"zip": "84210",
		"province": "สุราษฎร์ธานี",
		"district": "พระแสง",
		"lat": 8.5971836,
		"lng": 99.0571089
	},
	{
		"id": "1035",
		"zip": "84130",
		"province": "สุราษฎร์ธานี",
		"district": "พุนพิน",
		"lat": 9.1118027,
		"lng": 99.2065202
	},
	{
		"id": "1036",
		"zip": "84350",
		"province": "สุราษฎร์ธานี",
		"district": "ชัยบุรี",
		"lat": 8.4334494,
		"lng": 99.0902873
	},
	{
		"id": "1037",
		"zip": "84180",
		"province": "สุราษฎร์ธานี",
		"district": "วิภาวดี",
		"lat": 9.2466294,
		"lng": 98.8940878
	},
	{
		"id": "1038",
		"zip": "85000",
		"province": "ระนอง",
		"district": "เมืองระนอง",
		"lat": 9.85914,
		"lng": 98.5940814
	},
	{
		"id": "1039",
		"zip": "85130",
		"province": "ระนอง",
		"district": "เมืองระนอง",
		"lat": 10.0760209,
		"lng": 98.770147
	},
	{
		"id": "1040",
		"zip": "85130",
		"province": "ระนอง",
		"district": "ละอุ่น",
		"lat": 10.0418948,
		"lng": 98.8032042
	},
	{
		"id": "1041",
		"zip": "85119",
		"province": "ระนอง",
		"district": "กะเปอร์",
		"lat": 9.584814,
		"lng": 98.594312
	},
	{
		"id": "1042",
		"zip": "85110",
		"province": "ระนอง",
		"district": "กระบุรี",
		"lat": 10.6289183,
		"lng": 98.8803925
	},
	{
		"id": "1043",
		"zip": "85120",
		"province": "ระนอง",
		"district": "สุขสำราญ",
		"lat": 9.4210452,
		"lng": 98.4622987
	},
	{
		"id": "1044",
		"zip": "86000",
		"province": "ชุมพร",
		"district": "เมืองชุมพร",
		"lat": 10.497836,
		"lng": 99.1788304
	},
	{
		"id": "1045",
		"zip": "86120",
		"province": "ชุมพร",
		"district": "เมืองชุมพร",
		"lat": 10.3847156,
		"lng": 99.245302
	},
	{
		"id": "1046",
		"zip": "86190",
		"province": "ชุมพร",
		"district": "เมืองชุมพร",
		"lat": 10.4930647,
		"lng": 99.1800253
	},
	{
		"id": "1047",
		"zip": "86100",
		"province": "ชุมพร",
		"district": "เมืองชุมพร",
		"lat": 10.3770936,
		"lng": 99.1234795
	},
	{
		"id": "1048",
		"zip": "86140",
		"province": "ชุมพร",
		"district": "ท่าแซะ",
		"lat": 10.6767055,
		"lng": 99.1566855
	},
	{
		"id": "1049",
		"zip": "86190",
		"province": "ชุมพร",
		"district": "ท่าแซะ",
		"lat": 10.648071,
		"lng": 98.9907938
	},
	{
		"id": "1050",
		"zip": "86160",
		"province": "ชุมพร",
		"district": "ปะทิว",
		"lat": 10.7728134,
		"lng": 99.3007367
	},
	{
		"id": "1051",
		"zip": "86230",
		"province": "ชุมพร",
		"district": "ปะทิว",
		"lat": 10.6072313,
		"lng": 99.245302
	},
	{
		"id": "1052",
		"zip": "86210",
		"province": "ชุมพร",
		"district": "ปะทิว",
		"lat": 10.9040926,
		"lng": 99.389511
	},
	{
		"id": "1053",
		"zip": "86110",
		"province": "ชุมพร",
		"district": "หลังสวน",
		"lat": 9.9133345,
		"lng": 99.0571089
	},
	{
		"id": "1054",
		"zip": "86150",
		"province": "ชุมพร",
		"district": "หลังสวน",
		"lat": 10.0323083,
		"lng": 99.1566855
	},
	{
		"id": "1055",
		"zip": "86170",
		"province": "ชุมพร",
		"district": "ละแม",
		"lat": 9.710348,
		"lng": 99.0080131
	},
	{
		"id": "1056",
		"zip": "86180",
		"province": "ชุมพร",
		"district": "พะโต๊ะ",
		"lat": 9.8433842,
		"lng": 98.7982301
	},
	{
		"id": "1057",
		"zip": "86130",
		"province": "ชุมพร",
		"district": "สวี",
		"lat": 10.2678834,
		"lng": 99.0571089
	},
	{
		"id": "1058",
		"zip": "86220",
		"province": "ชุมพร",
		"district": "ทุ่งตะโก",
		"lat": 10.1357375,
		"lng": 99.0930936
	},
	{
		"id": "1059",
		"zip": "90000",
		"province": "สงขลา",
		"district": "เมืองสงขลา",
		"lat": 7.1100606,
		"lng": 100.6309169
	},
	{
		"id": "1060",
		"zip": "90100",
		"province": "สงขลา",
		"district": "เมืองสงขลา",
		"lat": 7.0898876,
		"lng": 100.5858786
	},
	{
		"id": "1061",
		"zip": "90190",
		"province": "สงขลา",
		"district": "สทิงพระ",
		"lat": 7.4660607,
		"lng": 100.417181
	},
	{
		"id": "1062",
		"zip": "90130",
		"province": "สงขลา",
		"district": "จะนะ",
		"lat": 6.8447264,
		"lng": 100.6647101
	},
	{
		"id": "1063",
		"zip": "90160",
		"province": "สงขลา",
		"district": "นาทวี",
		"lat": 6.6759811,
		"lng": 100.6647101
	},
	{
		"id": "1064",
		"zip": "90150",
		"province": "สงขลา",
		"district": "เทพา",
		"lat": 7.2053611,
		"lng": 100.5897837
	},
	{
		"id": "1065",
		"zip": "90260",
		"province": "สงขลา",
		"district": "เทพา",
		"lat": 6.7372757,
		"lng": 100.923723
	},
	{
		"id": "1066",
		"zip": "90210",
		"province": "สงขลา",
		"district": "สะบ้าย้อย",
		"lat": 6.5858886,
		"lng": 100.9354944
	},
	{
		"id": "1067",
		"zip": "90140",
		"province": "สงขลา",
		"district": "ระโนด",
		"lat": 7.1645048,
		"lng": 100.5516002
	},
	{
		"id": "1068",
		"zip": "90270",
		"province": "สงขลา",
		"district": "กระแสสินธุ์",
		"lat": 7.5640189,
		"lng": 100.3385624
	},
	{
		"id": "1069",
		"zip": "90180",
		"province": "สงขลา",
		"district": "รัตภูมิ",
		"lat": 7.1088425,
		"lng": 100.2151578
	},
	{
		"id": "1070",
		"zip": "90120",
		"province": "สงขลา",
		"district": "สะเดา",
		"lat": 6.6364833,
		"lng": 100.4238366
	},
	{
		"id": "1071",
		"zip": "90170",
		"province": "สงขลา",
		"district": "สะเดา",
		"lat": 6.7867974,
		"lng": 100.417181
	},
	{
		"id": "1072",
		"zip": "90240",
		"province": "สงขลา",
		"district": "สะเดา",
		"lat": 6.7474485,
		"lng": 100.2824483
	},
	{
		"id": "1073",
		"zip": "90110",
		"province": "สงขลา",
		"district": "หาดใหญ่",
		"lat": 7.0200017,
		"lng": 100.3947116
	},
	{
		"id": "1074",
		"zip": "90250",
		"province": "สงขลา",
		"district": "หาดใหญ่",
		"lat": 6.9224651,
		"lng": 100.4958678
	},
	{
		"id": "1075",
		"zip": "90230",
		"province": "สงขลา",
		"district": "หาดใหญ่",
		"lat": 6.8713198,
		"lng": 100.417181
	},
	{
		"id": "1076",
		"zip": "90310",
		"province": "สงขลา",
		"district": "นาหม่อม",
		"lat": 6.9586209,
		"lng": 100.5352367
	},
	{
		"id": "1077",
		"zip": "90220",
		"province": "สงขลา",
		"district": "ควนเนียง",
		"lat": 7.1891077,
		"lng": 100.3538555
	},
	{
		"id": "1078",
		"zip": "90110",
		"province": "สงขลา",
		"district": "บางกล่ำ",
		"lat": 7.1095065,
		"lng": 100.4227992
	},
	{
		"id": "1079",
		"zip": "90280",
		"province": "สงขลา",
		"district": "สิงหนคร",
		"lat": 7.2094846,
		"lng": 100.4621366
	},
	{
		"id": "1080",
		"zip": "90330",
		"province": "สงขลา",
		"district": "สิงหนคร",
		"lat": 7.2094846,
		"lng": 100.4621366
	},
	{
		"id": "1081",
		"zip": "90230",
		"province": "สงขลา",
		"district": "คลองหอยโข่ง",
		"lat": 6.8491448,
		"lng": 100.2918504
	},
	{
		"id": "1082",
		"zip": "90115",
		"province": "สงขลา",
		"district": "คลองหอยโข่ง",
		"lat": 6.9047625,
		"lng": 100.3385624
	},
	{
		"id": "1083",
		"zip": "91000",
		"province": "สตูล",
		"district": "เมืองสตูล",
		"lat": 6.7117369,
		"lng": 99.9688636
	},
	{
		"id": "1084",
		"zip": "91140",
		"province": "สตูล",
		"district": "เมืองสตูล",
		"lat": 6.699118,
		"lng": 100.0695367
	},
	{
		"id": "1085",
		"zip": "91160",
		"province": "สตูล",
		"district": "ควนโดน",
		"lat": 6.7934717,
		"lng": 100.1031202
	},
	{
		"id": "1086",
		"zip": "91130",
		"province": "สตูล",
		"district": "ควนกาหลง",
		"lat": 6.863158,
		"lng": 100.016921
	},
	{
		"id": "1087",
		"zip": "91150",
		"province": "สตูล",
		"district": "ท่าแพ",
		"lat": 6.7971845,
		"lng": 99.9241575
	},
	{
		"id": "1088",
		"zip": "91110",
		"province": "สตูล",
		"district": "ละงู",
		"lat": 6.86835,
		"lng": 99.790629
	},
	{
		"id": "1089",
		"zip": "91120",
		"province": "สตูล",
		"district": "ทุ่งหว้า",
		"lat": 7.0552384,
		"lng": 99.745565
	},
	{
		"id": "1090",
		"zip": "91130",
		"province": "สตูล",
		"district": "มะนัง",
		"lat": 7.009016,
		"lng": 99.9241575
	},
	{
		"id": "1091",
		"zip": "92000",
		"province": "ตรัง",
		"district": "เมืองตรัง",
		"lat": 7.5593592,
		"lng": 99.6109944
	},
	{
		"id": "1092",
		"zip": "92170",
		"province": "ตรัง",
		"district": "เมืองตรัง",
		"lat": 7.5670301,
		"lng": 99.745565
	},
	{
		"id": "1093",
		"zip": "92190",
		"province": "ตรัง",
		"district": "เมืองตรัง",
		"lat": 7.7395094,
		"lng": 99.7009754
	},
	{
		"id": "1094",
		"zip": "92110",
		"province": "ตรัง",
		"district": "กันตัง",
		"lat": 7.4017771,
		"lng": 99.4783816
	},
	{
		"id": "1095",
		"zip": "92140",
		"province": "ตรัง",
		"district": "ย่านตาขาว",
		"lat": 7.4029206,
		"lng": 99.6731188
	},
	{
		"id": "1096",
		"zip": "92120",
		"province": "ตรัง",
		"district": "ปะเหลียน",
		"lat": 7.2282459,
		"lng": 99.6118667
	},
	{
		"id": "1097",
		"zip": "92180",
		"province": "ตรัง",
		"district": "ปะเหลียน",
		"lat": 7.2868982,
		"lng": 99.8571416
	},
	{
		"id": "1098",
		"zip": "92140",
		"province": "ตรัง",
		"district": "ปะเหลียน",
		"lat": 7.2868982,
		"lng": 99.8571416
	},
	{
		"id": "1099",
		"zip": "92150",
		"province": "ตรัง",
		"district": "สิเกา",
		"lat": 7.5758254,
		"lng": 99.3451118
	},
	{
		"id": "1100",
		"zip": "92000",
		"province": "ตรัง",
		"district": "สิเกา",
		"lat": 7.5709895,
		"lng": 99.5673479
	},
	{
		"id": "1101",
		"zip": "92130",
		"province": "ตรัง",
		"district": "ห้วยยอด",
		"lat": 7.7734885,
		"lng": 99.6230001
	},
	{
		"id": "1102",
		"zip": "92210",
		"province": "ตรัง",
		"district": "ห้วยยอด",
		"lat": 7.7777187,
		"lng": 99.4353931
	},
	{
		"id": "1103",
		"zip": "92190",
		"province": "ตรัง",
		"district": "ห้วยยอด",
		"lat": 7.7395094,
		"lng": 99.7009754
	},
	{
		"id": "1104",
		"zip": "92220",
		"province": "ตรัง",
		"district": "วังวิเศษ",
		"lat": 7.7390363,
		"lng": 99.4281836
	},
	{
		"id": "1105",
		"zip": "92000",
		"province": "ตรัง",
		"district": "วังวิเศษ",
		"lat": 7.5709895,
		"lng": 99.5673479
	},
	{
		"id": "1106",
		"zip": "92170",
		"province": "ตรัง",
		"district": "นาโยง",
		"lat": 7.5625513,
		"lng": 99.7065478
	},
	{
		"id": "1107",
		"zip": "92160",
		"province": "ตรัง",
		"district": "รัษฎา",
		"lat": 7.4125979,
		"lng": 99.5096355
	},
	{
		"id": "1108",
		"zip": "92130",
		"province": "ตรัง",
		"district": "รัษฎา",
		"lat": 7.4125979,
		"lng": 99.5096355
	},
	{
		"id": "1109",
		"zip": "92120",
		"province": "ตรัง",
		"district": "หาดสำราญ",
		"lat": 7.2400742,
		"lng": 99.5562219
	},
	{
		"id": "1110",
		"zip": "93000",
		"province": "พัทลุง",
		"district": "เมืองพัทลุง",
		"lat": 7.6166932,
		"lng": 100.074051
	},
	{
		"id": "1111",
		"zip": "93180",
		"province": "พัทลุง",
		"district": "กงหรา",
		"lat": 7.4347427,
		"lng": 99.9241575
	},
	{
		"id": "1112",
		"zip": "93000",
		"province": "พัทลุง",
		"district": "กงหรา",
		"lat": 7.4670335,
		"lng": 99.9129845
	},
	{
		"id": "1113",
		"zip": "93130",
		"province": "พัทลุง",
		"district": "เขาชัยสน",
		"lat": 7.4469444,
		"lng": 100.1277778
	},
	{
		"id": "1114",
		"zip": "93160",
		"province": "พัทลุง",
		"district": "ตะโหมด",
		"lat": 7.2621533,
		"lng": 100.0135929
	},
	{
		"id": "1115",
		"zip": "93110",
		"province": "พัทลุง",
		"district": "ควนขนุน",
		"lat": 7.776218,
		"lng": 99.9688636
	},
	{
		"id": "1116",
		"zip": "93150",
		"province": "พัทลุง",
		"district": "ควนขนุน",
		"lat": 7.7484794,
		"lng": 100.0080005
	},
	{
		"id": "1117",
		"zip": "93120",
		"province": "พัทลุง",
		"district": "ปากพะยูน",
		"lat": 7.3293411,
		"lng": 100.3385624
	},
	{
		"id": "1118",
		"zip": "93190",
		"province": "พัทลุง",
		"district": "ศรีบรรพต",
		"lat": 7.6925121,
		"lng": 99.8794744
	},
	{
		"id": "1119",
		"zip": "93170",
		"province": "พัทลุง",
		"district": "ป่าบอน",
		"lat": 7.2166013,
		"lng": 100.1479182
	},
	{
		"id": "1120",
		"zip": "93140",
		"province": "พัทลุง",
		"district": "บางแก้ว",
		"lat": 7.4286324,
		"lng": 100.1927389
	},
	{
		"id": "1121",
		"zip": "93110",
		"province": "พัทลุง",
		"district": "ป่าพะยอม",
		"lat": 7.8571319,
		"lng": 99.9520961
	},
	{
		"id": "1122",
		"zip": "93000",
		"province": "พัทลุง",
		"district": "ศรีนครินทร์",
		"lat": 7.5629896,
		"lng": 99.9241575
	},
	{
		"id": "1123",
		"zip": "94000",
		"province": "ปัตตานี",
		"district": "เมืองปัตตานี",
		"lat": 6.8626351,
		"lng": 101.2637155
	},
	{
		"id": "1124",
		"zip": "94120",
		"province": "ปัตตานี",
		"district": "โคกโพธิ์",
		"lat": 6.7296038,
		"lng": 101.0938079
	},
	{
		"id": "1125",
		"zip": "94180",
		"province": "ปัตตานี",
		"district": "โคกโพธิ์",
		"lat": 6.6433832,
		"lng": 101.1843887
	},
	{
		"id": "1126",
		"zip": "94170",
		"province": "ปัตตานี",
		"district": "หนองจิก",
		"lat": 6.801624,
		"lng": 101.1519275
	},
	{
		"id": "1127",
		"zip": "94130",
		"province": "ปัตตานี",
		"district": "ปะนาเระ",
		"lat": 6.8031937,
		"lng": 101.5475409
	},
	{
		"id": "1128",
		"zip": "94190",
		"province": "ปัตตานี",
		"district": "ปะนาเระ",
		"lat": 6.7519372,
		"lng": 101.490712
	},
	{
		"id": "1129",
		"zip": "94140",
		"province": "ปัตตานี",
		"district": "มายอ",
		"lat": 6.7168673,
		"lng": 101.4168819
	},
	{
		"id": "1130",
		"zip": "94190",
		"province": "ปัตตานี",
		"district": "มายอ",
		"lat": 6.7519372,
		"lng": 101.490712
	},
	{
		"id": "1131",
		"zip": "94140",
		"province": "ปัตตานี",
		"district": "ทุ่งยางแดง",
		"lat": 6.6349729,
		"lng": 101.4479702
	},
	{
		"id": "1132",
		"zip": "94110",
		"province": "ปัตตานี",
		"district": "สายบุรี",
		"lat": 6.675931,
		"lng": 101.5930268
	},
	{
		"id": "1133",
		"zip": "94190",
		"province": "ปัตตานี",
		"district": "สายบุรี",
		"lat": 6.7519372,
		"lng": 101.490712
	},
	{
		"id": "1134",
		"zip": "94220",
		"province": "ปัตตานี",
		"district": "ไม้แก่น",
		"lat": 6.6479272,
		"lng": 101.6669843
	},
	{
		"id": "1135",
		"zip": "94150",
		"province": "ปัตตานี",
		"district": "ยะหริ่ง",
		"lat": 6.848589,
		"lng": 101.4112049
	},
	{
		"id": "1136",
		"zip": "94190",
		"province": "ปัตตานี",
		"district": "ยะหริ่ง",
		"lat": 6.7519372,
		"lng": 101.490712
	},
	{
		"id": "1137",
		"zip": "94160",
		"province": "ปัตตานี",
		"district": "ยะรัง",
		"lat": 6.6930902,
		"lng": 101.3090737
	},
	{
		"id": "1138",
		"zip": "94230",
		"province": "ปัตตานี",
		"district": "กะพ้อ",
		"lat": 6.5930213,
		"lng": 101.5475409
	},
	{
		"id": "1139",
		"zip": "94180",
		"province": "ปัตตานี",
		"district": "แม่ลาน",
		"lat": 6.647477,
		"lng": 101.2353772
	},
	{
		"id": "1140",
		"zip": "95000",
		"province": "ยะลา",
		"district": "เมืองยะลา",
		"lat": 6.5411376,
		"lng": 101.280396
	},
	{
		"id": "1141",
		"zip": "95160",
		"province": "ยะลา",
		"district": "เมืองยะลา",
		"lat": 6.5411018,
		"lng": 101.2804075
	},
	{
		"id": "1142",
		"zip": "95110",
		"province": "ยะลา",
		"district": "เบตง",
		"lat": 5.7799851,
		"lng": 101.0372376
	},
	{
		"id": "1143",
		"zip": "95130",
		"province": "ยะลา",
		"district": "บันนังสตา",
		"lat": 6.242799,
		"lng": 101.2977322
	},
	{
		"id": "1144",
		"zip": "95150",
		"province": "ยะลา",
		"district": "ธารโต",
		"lat": 6.1399312,
		"lng": 101.2297105
	},
	{
		"id": "1145",
		"zip": "95170",
		"province": "ยะลา",
		"district": "ธารโต",
		"lat": 6.0556484,
		"lng": 101.2750531
	},
	{
		"id": "1146",
		"zip": "95120",
		"province": "ยะลา",
		"district": "ยะหา",
		"lat": 6.4866666,
		"lng": 101.1504111
	},
	{
		"id": "1147",
		"zip": "95140",
		"province": "ยะลา",
		"district": "รามัน",
		"lat": 6.4918217,
		"lng": 101.3885001
	},
	{
		"id": "1148",
		"zip": "95120",
		"province": "ยะลา",
		"district": "กาบัง",
		"lat": 6.4374668,
		"lng": 101.0033112
	},
	{
		"id": "1149",
		"zip": "95000",
		"province": "ยะลา",
		"district": "กรงปินัง",
		"lat": 6.4261463,
		"lng": 101.2807224
	},
	{
		"id": "1150",
		"zip": "96000",
		"province": "นราธิวาส",
		"district": "เมืองนราธิวาส",
		"lat": 6.427987,
		"lng": 101.822590
	},
	{
		"id": "1151",
		"zip": "96110",
		"province": "นราธิวาส",
		"district": "ตากใบ",
		"lat": 6.258638,
		"lng": 102.055363
	},
	{
		"id": "1152",
		"zip": "96170",
		"province": "นราธิวาส",
		"district": "บาเจาะ",
		"lat": 6.514835,
		"lng": 101.654187
	},
	{
		"id": "1153",
		"zip": "96180",
		"province": "นราธิวาส",
		"district": "ยี่งอ",
		"lat": 6.3852868,
		"lng": 101.7011363
	},
	{
		"id": "1154",
		"zip": "96130",
		"province": "นราธิวาส",
		"district": "ระแงะ",
		"lat": 6.294943,
		"lng": 101.717652
	},
	{
		"id": "1155",
		"zip": "96220",
		"province": "นราธิวาส",
		"district": "ระแงะ",
		"lat": 6.168756,
		"lng": 101.697864
	},
	{
		"id": "1156",
		"zip": "96150",
		"province": "นราธิวาส",
		"district": "รือเสาะ",
		"lat": 6.391198,
		"lng": 101.518275
	},
	{
		"id": "1157",
		"zip": "96210",
		"province": "นราธิวาส",
		"district": "ศรีสาคร",
		"lat": 6.232040,
		"lng": 101.501198
	},
	{
		"id": "1158",
		"zip": "96160",
		"province": "นราธิวาส",
		"district": "แว้ง",
		"lat": 5.9278169,
		"lng": 101.8848056
	},
	{
		"id": "1159",
		"zip": "96190",
		"province": "นราธิวาส",
		"district": "สุคิริน",
		"lat": 5.938557,
		"lng": 101.779963
	},
	{
		"id": "1160",
		"zip": "96120",
		"province": "นราธิวาส",
		"district": "สุไหงโกลก",
		"lat": 6.020954,
		"lng": 101.952146
	},
	{
		"id": "1161",
		"zip": "96140",
		"province": "นราธิวาส",
		"district": "สุไหงปาดี",
		"lat": 6.0835102,
		"lng": 101.9119871
	},
	{
		"id": "1162",
		"zip": "96220",
		"province": "นราธิวาส",
		"district": "จะแนะ",
		"lat": 6.168756,
		"lng": 101.697864
	},
	{
		"id": "1163",
		"zip" : "96130",
		"province": "นราธิวาส",
		"district" : "เจาะไอร้อง",
		"lat": 6.294943,
		"lng": 101.717652
	}
]
